{"type": "FeatureCollection", "features": [{"type": "Feature", "properties": {"ref": "Purple", "name": "Purple Line \u2014 Challaghatta\u2013Baiyappanahalli", "color": "#7B2D8B", "status": "open", "open_year": 2011}, "geometry": {"type": "LineString", "coordinates": [[77.7538642, 12.9872074], [77.7541783, 12.987924], [77.754268, 12.9881407], [77.7547782, 12.9893615], [77.7548917, 12.9896483], [77.7550219, 12.9898961], [77.7551473, 12.9901079], [77.7552675, 12.9902928], [77.7553975, 12.9904727], [77.7564014, 12.9917949], [77.7567758, 12.9922837], [77.7568644, 12.9924126], [77.7569353, 12.9925285], [77.7569867, 12.9926106], [77.7570506, 12.9927415], [77.7570973, 12.9928452], [77.7571491, 12.9929885], [77.7574622, 12.9939881], [77.7575148, 12.9941581], [77.7578215, 12.99519], [77.7580968, 12.9962173], [77.7529214, 12.9850355], [77.7530953, 12.9853592], [77.753314, 12.9858857], [77.7536657, 12.986735], [77.7538642, 12.9872074], [77.7509219, 12.9842344], [77.7510922, 12.984197], [77.7512613, 12.9841756], [77.7514017, 12.9841669], [77.7515485, 12.9841747], [77.751711, 12.9842038], [77.7518697, 12.9842473], [77.7520432, 12.9843111], [77.7521693, 12.9843658], [77.7523407, 12.9844606], [77.7524924, 12.9845633], [77.7526407, 12.9846943], [77.7527826, 12.984846], [77.7529214, 12.9850355], [77.7470097, 12.9856238], [77.7481414, 12.9852024], [77.7489784, 12.984907], [77.7498704, 12.9846042], [77.7509219, 12.9842344], [77.7399579, 12.9875824], [77.7400572, 12.9875744], [77.7401435, 12.9875654], [77.7403078, 12.9875335], [77.7439291, 12.9866079], [77.7452784, 12.9862578], [77.7455102, 12.9861916], [77.7458334, 12.9860795], [77.7465715, 12.9857936], [77.7470097, 12.9856238], [77.7352886, 12.987641], [77.7355424, 12.9876152], [77.7358363, 12.9875913], [77.7366575, 12.9875886], [77.7370019, 12.9875915], [77.7372451, 12.9875935], [77.7380977, 12.9875875], [77.7388219, 12.9875932], [77.7392131, 12.9875963], [77.7399579, 12.9875824], [77.7273582, 12.9780451], [77.7273692, 12.9783549], [77.7273782, 12.978592], [77.7273684, 12.978808], [77.7273378, 12.9793403], [77.7273309, 12.9795468], [77.7273354, 12.9796888], [77.727359, 12.9799936], [77.7273877, 12.9801595], [77.7274295, 12.9803512], [77.7274963, 12.9807354], [77.7275514, 12.9810198], [77.7276813, 12.9815671], [77.727777, 12.9819994], [77.7278298, 12.9822191], [77.7278902, 12.9824329], [77.7280957, 12.9829329], [77.7282764, 12.983274], [77.7284809, 12.9835682], [77.7287039, 12.9838597], [77.7290455, 12.9842791], [77.7295243, 12.9848511], [77.7297323, 12.9850841], [77.7299941, 12.9853615], [77.7302323, 12.9855751], [77.7304264, 12.985721], [77.7306081, 12.9858402], [77.7314935, 12.9863465], [77.7317138, 12.98648], [77.7318687, 12.986603], [77.731955, 12.9866817], [77.7320834, 12.9868116], [77.7321671, 12.9869178], [77.732512, 12.9874124], [77.7327049, 12.9876042], [77.7328002, 12.9876726], [77.7328857, 12.987724], [77.7329743, 12.9877694], [77.7331483, 12.9878407], [77.7333139, 12.9878802], [77.7334369, 12.9878925], [77.7335902, 12.9878866], [77.7339609, 12.9878427], [77.7349683, 12.9876844], [77.7352886, 12.987641], [77.7255885, 12.9765149], [77.7261093, 12.9764606], [77.7262479, 12.9764607], [77.7263672, 12.9764711], [77.7264837, 12.9764929], [77.7265932, 12.9765259], [77.7267153, 12.9765765], [77.7267928, 12.9766158], [77.7268573, 12.9766569], [77.7269227, 12.9767058], [77.726986, 12.9767665], [77.7270693, 12.9768498], [77.7271321, 12.9769283], [77.7271929, 12.9770224], [77.7272568, 12.9771445], [77.7272893, 12.9772253], [77.7273208, 12.9773463], [77.7273398, 12.9774713], [77.7273582, 12.9780451], [77.7120314, 12.9780405], [77.7123254, 12.9780033], [77.7131725, 12.9778967], [77.7145125, 12.9777202], [77.7149061, 12.977661], [77.715061, 12.9776292], [77.7158014, 12.9775263], [77.7163397, 12.9774383], [77.716667, 12.9774048], [77.7175168, 12.977325], [77.7185912, 12.9772614], [77.7198403, 12.9771469], [77.721651, 12.9769499], [77.7226598, 12.9768472], [77.7228115, 12.9768276], [77.7229506, 12.9767991], [77.7230798, 12.9767743], [77.7231681, 12.9767585], [77.7232637, 12.9767414], [77.7235906, 12.9766976], [77.7243495, 12.9766126], [77.7255885, 12.9765149], [77.7086129, 12.9813697], [77.7088149, 12.9806449], [77.7089169, 12.980285], [77.708992, 12.9800198], [77.7092334, 12.9791939], [77.7093413, 12.9789214], [77.7094418, 12.9787361], [77.7094817, 12.9786833], [77.7096132, 12.9785288], [77.709764, 12.9784331], [77.7099149, 12.978352], [77.7100378, 12.9783069], [77.7102015, 12.9782504], [77.710287, 12.9782281], [77.7104473, 12.9782074], [77.710742, 12.9782041], [77.7111972, 12.9781466], [77.7120314, 12.9780405], [77.7083024, 12.9826328], [77.7084234, 12.9820637], [77.7086129, 12.9813697], [77.7082196, 12.9841232], [77.7082356, 12.9836319], [77.7082622, 12.9830457], [77.7082728, 12.9829257], [77.7082862, 12.9827976], [77.7083024, 12.9826328], [77.7113181, 12.9888208], [77.7104193, 12.9883115], [77.7099132, 12.9880405], [77.7096804, 12.9878986], [77.7094985, 12.9877548], [77.7092611, 12.9875285], [77.709128, 12.9873311], [77.709003, 12.9871169], [77.708657, 12.9865126], [77.7085306, 12.9861865], [77.7083993, 12.9858203], [77.7083398, 12.9855473], [77.7082865, 12.985235], [77.7082684, 12.9849389], [77.7082503, 12.9846851], [77.7082151, 12.9843032], [77.7082196, 12.9841232], [77.7015918, 12.9939889], [77.7021063, 12.993826], [77.7026603, 12.9936762], [77.702999, 12.9935869], [77.7032966, 12.9935165], [77.703632, 12.9934317], [77.7037157, 12.9934103], [77.7042378, 12.993256], [77.7044713, 12.9931926], [77.7047836, 12.9931124], [77.7052202, 12.9930178], [77.7056082, 12.9929816], [77.7060558, 12.9929704], [77.7068911, 12.9929255], [77.7075238, 12.9928995], [77.7085889, 12.9928606], [77.7094205, 12.9928222], [77.7100348, 12.9928145], [77.7103669, 12.9928119], [77.7105796, 12.9928092], [77.710798, 12.99279], [77.7112384, 12.992683], [77.7115914, 12.992607], [77.7121025, 12.9924501], [77.7127915, 12.9922343], [77.7133551, 12.9919834], [77.7135442, 12.9918709], [77.7136617, 12.9917563], [77.713819, 12.9914749], [77.7138888, 12.9913501], [77.7139002, 12.9911631], [77.7139108, 12.9909934], [77.7139123, 12.9908379], [77.7139043, 12.9907235], [77.7138915, 12.9906047], [77.7138331, 12.9904612], [77.7137176, 12.990294], [77.7135586, 12.9901617], [77.7132745, 12.9899771], [77.7128079, 12.9896897], [77.712253, 12.9893718], [77.7118453, 12.9891327], [77.7113181, 12.9888208], [77.6768299, 12.9998537], [77.6773791, 12.9998651], [77.6778421, 12.9998836], [77.6782501, 12.9998924], [77.6791508, 12.9999283], [77.6799069, 12.9999771], [77.6803133, 13.0000252], [77.6806338, 13.0000722], [77.6808602, 13.0001129], [77.6811676, 13.0001916], [77.6813792, 13.0002565], [77.6816144, 13.0003469], [77.6817815, 13.0003809], [77.6818737, 13.0003866], [77.6819646, 13.000386], [77.6824202, 13.0003647], [77.682599, 13.000359], [77.6829502, 13.0003544], [77.6838214, 13.0003582], [77.6845514, 13.0003346], [77.6854795, 13.0002719], [77.6862037, 13.0002144], [77.6863601, 13.0001853], [77.6865577, 13.000136], [77.6867224, 13.0000773], [77.6868208, 13.0000229], [77.687, 12.9999136], [77.6872444, 12.9997544], [77.6876574, 12.999446], [77.6878861, 12.9992379], [77.6881617, 12.9989338], [77.6886254, 12.9984448], [77.6888698, 12.9982177], [77.6894921, 12.9978988], [77.6903796, 12.9974569], [77.6907431, 12.9972816], [77.6914823, 12.9969528], [77.6921457, 12.9966967], [77.6937139, 12.9961687], [77.6945185, 12.9958237], [77.6947063, 12.9957349], [77.695232, 12.9954997], [77.6955535, 12.99541], [77.6958757, 12.9953638], [77.6969915, 12.9952278], [77.6979196, 12.9950815], [77.6980781, 12.9950378], [77.6982007, 12.994987], [77.6988493, 12.9947486], [77.6991698, 12.9946268], [77.7000108, 12.9943583], [77.7002222, 12.9943092], [77.7006596, 12.9942076], [77.7013469, 12.9940503], [77.7015918, 12.9939889], [77.6684788, 12.996496], [77.6686459, 12.9965736], [77.6688175, 12.9966494], [77.668943, 12.9967094], [77.6690977, 12.9967564], [77.6693234, 12.9968243], [77.6694928, 12.9968729], [77.6696163, 12.9968978], [77.6697376, 12.9969215], [77.6698791, 12.9969274], [77.6699698, 12.9969228], [77.6700655, 12.9969262], [77.6701625, 12.9969267], [77.670269, 12.9969393], [77.6704098, 12.996982], [77.670889, 12.9972048], [77.6713393, 12.9974231], [77.671807, 12.9976526], [77.6720651, 12.9977741], [77.6722184, 12.9978515], [77.6725529, 12.9980144], [77.6727326, 12.9981007], [77.6732405, 12.9983497], [77.673625, 12.9985414], [77.6739379, 12.9986939], [77.6743078, 12.9988744], [77.6745484, 12.9989813], [77.6749532, 12.9991862], [77.6752501, 12.9993221], [77.6754647, 12.9994295], [77.6760165, 12.9996776], [77.6762081, 12.9997609], [77.6763723, 12.9998046], [77.6765217, 12.9998284], [77.6766417, 12.9998419], [77.6768299, 12.9998537], [77.664851, 12.9952827], [77.6650278, 12.9953008], [77.6651895, 12.9953282], [77.6653486, 12.9953574], [77.6654861, 12.9953881], [77.6658958, 12.9955049], [77.6662499, 12.9956073], [77.6666321, 12.9957325], [77.6674281, 12.9960274], [77.6679336, 12.9962416], [77.6681911, 12.9963566], [77.6684788, 12.996496], [77.6639571, 12.9952986], [77.6640402, 12.9952845], [77.6642351, 12.995272], [77.66444, 12.9952675], [77.6646389, 12.995273], [77.664851, 12.9952827], [77.6614195, 12.9954531], [77.6615806, 12.995495], [77.6617584, 12.9955362], [77.6618749, 12.9955597], [77.6619956, 12.9955698], [77.6621445, 12.9955802], [77.6623239, 12.9955872], [77.6625089, 12.9955826], [77.6626262, 12.9955725], [77.6627361, 12.9955593], [77.6628594, 12.9955363], [77.6630589, 12.9954928], [77.6633536, 12.9954111], [77.6633788, 12.9954064], [77.6634597, 12.9953915], [77.6639571, 12.9952986], [77.6563674, 12.9927537], [77.656603, 12.9929013], [77.6569151, 12.9930836], [77.6571496, 12.9932143], [77.6580135, 12.9936992], [77.6590839, 12.9943055], [77.6597545, 12.9946521], [77.6603537, 12.9949586], [77.660941, 12.9952562], [77.6611438, 12.9953501], [77.6613231, 12.9954238], [77.6614195, 12.9954531], [77.652392, 12.9906745], [77.6530525, 12.990854], [77.6531588, 12.9908839], [77.6536176, 12.9910128], [77.6537983, 12.9910636], [77.6541185, 12.991153], [77.65431, 12.9912094], [77.6544559, 12.9912621], [77.6545903, 12.9913217], [77.6546919, 12.9913775], [77.6547893, 12.9914404], [77.6548821, 12.9915174], [77.6551351, 12.991748], [77.6553877, 12.9919939], [77.6555428, 12.9921447], [77.6557319, 12.9923046], [77.655866, 12.9924154], [77.6560012, 12.9925169], [77.6561167, 12.9925892], [77.6563674, 12.9927537], [77.652392, 12.9906745], [77.651179, 12.9903448], [77.651179, 12.9903448], [77.6506271, 12.9901858], [77.650399, 12.9901211], [77.6499792, 12.9900105], [77.6497371, 12.9899426], [77.6495952, 12.9899017], [77.6494829, 12.9898627], [77.6493669, 12.9898126], [77.6492708, 12.9897611], [77.6491794, 12.9896991], [77.649107, 12.9896466], [77.6490383, 12.9895861], [77.6489727, 12.9895235], [77.6488982, 12.9894379], [77.6488414, 12.989358], [77.6487923, 12.9892812], [77.6487499, 12.9892025], [77.6487117, 12.9891275], [77.6486728, 12.989039], [77.6486432, 12.9889625], [77.6486167, 12.9888934], [77.6483727, 12.9880503], [77.6483341, 12.9879367], [77.6482996, 12.9878535], [77.6482633, 12.9877736], [77.648224, 12.9876996], [77.648176, 12.9876159], [77.6481296, 12.9875455], [77.6480803, 12.9874735], [77.6480295, 12.9874063], [77.6478547, 12.9871768], [77.6476006, 12.987009], [77.6473381, 12.9868684], [77.6462539, 12.9864565], [77.6455186, 12.9861495], [77.6455186, 12.9861495], [77.6449072, 12.9859128], [77.6449072, 12.9859128], [77.6433944, 12.9853151], [77.6426566, 12.9850191], [77.6412897, 12.9844707], [77.6410628, 12.9843491], [77.6409056, 12.9841889], [77.6407672, 12.9840551], [77.6406736, 12.9838442], [77.6406296, 12.983678], [77.6406041, 12.9834974], [77.6406176, 12.9829264], [77.6407834, 12.9800045], [77.6408122, 12.9794969], [77.6408039, 12.9792985], [77.6407645, 12.9790996], [77.640639, 12.9788307], [77.6405051, 12.9786697], [77.6403775, 12.9785573], [77.6401849, 12.9784331], [77.6399797, 12.9783623], [77.6396955, 12.9783297], [77.6386592, 12.9783079], [77.6386592, 12.9783079], [77.6377533, 12.9782793], [77.63294, 12.9781272], [77.6326489, 12.9781337], [77.629437, 12.9784287], [77.6291733, 12.978454], [77.6289832, 12.9784271], [77.6288118, 12.9783641], [77.6286152, 12.9782476], [77.6283756, 12.9781203], [77.6280838, 12.9779386], [77.627759, 12.9777517], [77.6274857, 12.9775419], [77.6272588, 12.977322], [77.626705, 12.9764915], [77.626705, 12.9764915], [77.6264096, 12.9760818], [77.6262116, 12.9758296], [77.6260529, 12.9756054], [77.6258797, 12.9754185], [77.6252884, 12.9750071], [77.6249491, 12.9747815], [77.6225043, 12.9733037], [77.6220537, 12.9730936], [77.6217152, 12.9729616], [77.6213265, 12.9728353], [77.6208499, 12.9727195], [77.6205889, 12.9726882], [77.620255, 12.9726626], [77.6199919, 12.9726435], [77.6195914, 12.9726226], [77.6191252, 12.9725959], [77.618827, 12.972616], [77.6186065, 12.9726416], [77.6184067, 12.9726754], [77.617013, 12.9729953], [77.617013, 12.9729953], [77.6127428, 12.9739738], [77.6123712, 12.9740763], [77.6119082, 12.9742013], [77.6115725, 12.9742823], [77.6112904, 12.9743468], [77.6092507, 12.9748314], [77.6088569, 12.9749315], [77.6084978, 12.9750458], [77.6082395, 12.9751438], [77.6079815, 12.975212], [77.6062979, 12.9756285], [77.6062979, 12.9756285], [77.6056543, 12.9757829], [77.605299, 12.9758684], [77.6050209, 12.9759353], [77.6030191, 12.9764004], [77.6026037, 12.9764969], [77.6023598, 12.976562], [77.6021549, 12.9766516], [77.6019036, 12.9767963], [77.6017306, 12.976942], [77.6015458, 12.9772188], [77.6015458, 12.9772188], [77.6013929, 12.9775725], [77.6009417, 12.9788195], [77.6009417, 12.9788195], [77.6007978, 12.9790971], [77.600684, 12.9792724], [77.6005564, 12.9794355], [77.6004282, 12.9796079], [77.6003258, 12.9797387], [77.6002246, 12.979846], [77.600073, 12.9799772], [77.5999234, 12.9800694], [77.599748, 12.9801376], [77.5986276, 12.980572], [77.5984083, 12.980656], [77.597562, 12.9808954], [77.597562, 12.9808954], [77.5966655, 12.9812185], [77.5963182, 12.9813464], [77.5959769, 12.9814444], [77.5957078, 12.9815113], [77.5955274, 12.9815424], [77.5954462, 12.9815552], [77.5951726, 12.9815871], [77.5948692, 12.9815792], [77.5947035, 12.9815352], [77.5945549, 12.9814841], [77.594111, 12.9812295], [77.5937604, 12.9809826], [77.5932441, 12.9805777], [77.5919999, 12.9789626], [77.5911088, 12.9779727], [77.5911088, 12.9779727], [77.590833, 12.9777625], [77.5906246, 12.9776261], [77.5903103, 12.9774668], [77.5878889, 12.9761897], [77.5872296, 12.9759106], [77.5865498, 12.9756398], [77.586462, 12.9756035], [77.5851813, 12.9750422], [77.5849855, 12.9749481], [77.5842326, 12.9745014], [77.5842326, 12.9745014], [77.5828866, 12.9737301], [77.5823634, 12.9734266], [77.5819804, 12.9732091], [77.5817526, 12.9731112], [77.5815531, 12.9730134], [77.5813667, 12.9729783], [77.5811489, 12.9729807], [77.5808769, 12.9730628], [77.5803872, 12.9733066], [77.5781058, 12.9743183], [77.5761213, 12.9751329], [77.5757114, 12.9752435], [77.5746028, 12.9754592], [77.5741231, 12.9755728], [77.5728057, 12.9756704], [77.5728057, 12.9756704], [77.5712892, 12.9757916], [77.5702903, 12.9759013], [77.5691203, 12.9759798], [77.5669073, 12.9759774], [77.5667188, 12.975968], [77.5659372, 12.975905], [77.5653792, 12.9758581], [77.5653792, 12.9758581], [77.5651602, 12.9758317], [77.5634133, 12.9756402], [77.5553564, 12.975608], [77.5556391, 12.9756176], [77.5559117, 12.9756205], [77.5562067, 12.9756257], [77.5564974, 12.9756385], [77.5568745, 12.9756535], [77.5572138, 12.9756783], [77.5575517, 12.9756979], [77.5577569, 12.9757071], [77.558182, 12.9757384], [77.5585374, 12.9757606], [77.558929, 12.9757802], [77.5591932, 12.9757776], [77.559672, 12.9757685], [77.5600596, 12.9757646], [77.5603759, 12.9757464], [77.5606269, 12.9757201], [77.5611258, 12.9756992], [77.5617293, 12.9756678], [77.5623185, 12.9756026], [77.5626742, 12.9755937], [77.562966, 12.9756099], [77.5634133, 12.9756402], [77.5456189, 12.9741737], [77.5466357, 12.9741725], [77.5468189, 12.9741756], [77.5471055, 12.9742069], [77.5473599, 12.9742658], [77.5475645, 12.9743179], [77.5477387, 12.9743694], [77.5478798, 12.9744092], [77.5480832, 12.9744634], [77.5482622, 12.9744942], [77.5483811, 12.9745003], [77.54854, 12.9744884], [77.5487278, 12.9744489], [77.5488918, 12.9744183], [77.5490457, 12.9743346], [77.5492779, 12.9742069], [77.5495751, 12.9740195], [77.5497685, 12.973891], [77.5498946, 12.9738326], [77.5500453, 12.9737908], [77.5502114, 12.973756], [77.5503893, 12.9737538], [77.5505523, 12.9737735], [77.5507393, 12.9738229], [77.5509456, 12.9739394], [77.5514175, 12.9743037], [77.5522132, 12.9749216], [77.5524125, 12.9750661], [77.5525761, 12.9751733], [77.5527639, 12.9752935], [77.5529758, 12.9753929], [77.5531555, 12.9754608], [77.5533754, 12.9755052], [77.5535363, 12.9755288], [77.5538177, 12.9755571], [77.5542442, 12.9755689], [77.5546484, 12.9755787], [77.5549444, 12.9755941], [77.5553564, 12.975608], [77.5374285, 12.9709391], [77.5377307, 12.9717735], [77.5378241, 12.972], [77.5379138, 12.9721832], [77.5380255, 12.9723654], [77.5382076, 12.9725915], [77.5383747, 12.9727569], [77.5385995, 12.972932], [77.5389007, 12.9730979], [77.5394049, 12.9732386], [77.5418227, 12.973744], [77.5433912, 12.9740582], [77.5440739, 12.9741358], [77.5445572, 12.9741757], [77.5456189, 12.9741737], [77.5335932, 12.9618581], [77.5353741, 12.965844], [77.5359522, 12.9670023], [77.5362194, 12.9675838], [77.5364583, 12.9681721], [77.5367153, 12.9688614], [77.536883, 12.9693528], [77.5369872, 12.9696583], [77.5374285, 12.9709391], [77.5335932, 12.9618581], [77.5333598, 12.9612203], [77.5331932, 12.9608092], [77.5331364, 12.9605831], [77.5330947, 12.96036], [77.5330913, 12.960157], [77.5331278, 12.9599497], [77.5332286, 12.9596465], [77.5334011, 12.9592056], [77.5337686, 12.9583367], [77.5339086, 12.958056], [77.534128, 12.9575852], [77.5343458, 12.9570156], [77.534422, 12.9567218], [77.5345338, 12.9562288], [77.5346636, 12.9557194], [77.5347535, 12.9554062], [77.5348492, 12.9551974], [77.5349689, 12.955013], [77.5364109, 12.9535492], [77.5365873, 12.9533407], [77.5366429, 12.9532588], [77.536701, 12.9531515], [77.5370399, 12.9520466], [77.5370399, 12.9520466], [77.5372034, 12.951556], [77.5373429, 12.9511939], [77.5373698, 12.9510652], [77.5373746, 12.9510423], [77.537387, 12.9508561], [77.5373769, 12.9506392], [77.5373384, 12.9504502], [77.5372921, 12.9502855], [77.5371611, 12.9500166], [77.5369484, 12.9497616], [77.536344, 12.9491907], [77.5360304, 12.948934], [77.5349885, 12.9482851], [77.5347744, 12.948174], [77.5344399, 12.9480489], [77.5341284, 12.9479608], [77.5326658, 12.9475653], [77.5309019, 12.9470179], [77.5300896, 12.9466619], [77.5300896, 12.9466619], [77.529269, 12.9462909], [77.5289894, 12.9461185], [77.5287581, 12.945976], [77.5287581, 12.945976], [77.5283438, 12.9456786], [77.5279673, 12.9453585], [77.5277588, 12.9451812], [77.5275383, 12.9449727], [77.527324, 12.9447781], [77.5270012, 12.9444027], [77.52669, 12.9440211], [77.5263536, 12.9434117], [77.5263536, 12.9434117], [77.5257428, 12.9425861], [77.525377, 12.9420299], [77.525127, 12.9416608], [77.525127, 12.9416608], [77.5248621, 12.9411822], [77.5247066, 12.9409313], [77.5240969, 12.9400848], [77.5234942, 12.9394256], [77.5229778, 12.9389489], [77.5228544, 12.9388705], [77.5221858, 12.9384214], [77.5217637, 12.938153], [77.5214636, 12.9378843], [77.5211697, 12.9375428], [77.5209059, 12.9372049], [77.5205792, 12.9369532], [77.5196666, 12.9366362], [77.5196666, 12.9366362], [77.5190245, 12.9363917], [77.5188419, 12.9363423], [77.5186947, 12.9363064], [77.5185293, 12.9362847], [77.5183635, 12.9362743], [77.5180816, 12.9362903], [77.5178878, 12.9362903], [77.5176606, 12.9362884], [77.5174542, 12.9362928], [77.5172477, 12.9362907], [77.5172131, 12.9362892], [77.5170146, 12.9362804], [77.5167819, 12.9362619], [77.5165502, 12.9362351], [77.5155147, 12.9360899], [77.515099, 12.9360598], [77.5142394, 12.9360102], [77.5138383, 12.9359304], [77.5135063, 12.9358029], [77.512825, 12.9355454], [77.512825, 12.9355454], [77.5124194, 12.935405], [77.5115524, 12.9351281], [77.5110468, 12.934922], [77.5107598, 12.9346992], [77.5105363, 12.9344608], [77.5087501, 12.9328269], [77.5085803, 12.9326653], [77.5084517, 12.9325419], [77.5068417, 12.9314486], [77.5065682, 12.9312394], [77.5064287, 12.9310983], [77.50618, 12.9306292], [77.5060051, 12.9302992], [77.5057921, 12.9299725], [77.5055432, 12.9297291], [77.5052986, 12.9295768], [77.505068, 12.9294623], [77.5042975, 12.9292088], [77.5040245, 12.929119], [77.5039146, 12.9290597], [77.5034353, 12.9286462], [77.5030169, 12.9281756], [77.5025341, 12.9277312], [77.5009374, 12.9265292], [77.5002864, 12.9260424], [77.4992082, 12.9250594], [77.4992082, 12.9250594], [77.4983713, 12.9242399], [77.4980924, 12.9239667], [77.4975874, 12.92346], [77.4972909, 12.9232522], [77.496839, 12.9230443], [77.4960835, 12.9227353], [77.4944424, 12.9218914], [77.4939167, 12.9215568], [77.4936949, 12.9213628], [77.4935286, 12.9211223], [77.4934017, 12.9209189], [77.4928438, 12.9202183], [77.4925756, 12.9199621], [77.4920534, 12.9195589], [77.4915169, 12.9189942], [77.4912563, 12.918592], [77.490686, 12.9174184], [77.4904548, 12.9169158], [77.4901348, 12.9165478], [77.489703, 12.9162052], [77.489274, 12.9158176], [77.4890965, 12.91565], [77.488822, 12.915393], [77.4883209, 12.9150235], [77.4878613, 12.9146648], [77.487301, 12.9142275], [77.4863108, 12.913508], [77.485942, 12.9132335], [77.4855423, 12.9129277], [77.4853752, 12.9127687], [77.4852492, 12.9125922], [77.4850722, 12.9122301], [77.4849447, 12.9117663], [77.4847791, 12.9112209], [77.4847578, 12.9111538], [77.4847203, 12.911055], [77.4846743, 12.9109596], [77.4846201, 12.9108685], [77.484558, 12.9107822], [77.4844887, 12.9107014], [77.4844125, 12.9106266], [77.48433, 12.9105585], [77.4842419, 12.9104975], [77.4841514, 12.9104454], [77.4840568, 12.9104009], [77.4839587, 12.9103642], [77.4838578, 12.9103355], [77.4837549, 12.9103151], [77.4836505, 12.9103032], [77.4835455, 12.9102997], [77.4834406, 12.9103047], [77.4833364, 12.9103182], [77.4833364, 12.9103182], [77.4826619, 12.9103397], [77.4825087, 12.9103333], [77.4824726, 12.9103301], [77.4823561, 12.9103196], [77.4822043, 12.9102985], [77.4820538, 12.9102701], [77.4819048, 12.9102345], [77.4817579, 12.9101918], [77.4816133, 12.9101421], [77.4814644, 12.9100825], [77.4813188, 12.9100155], [77.4811769, 12.9099411], [77.4810392, 12.9098598], [77.480906, 12.9097715], [77.4807777, 12.9096767], [77.4806546, 12.9095755], [77.480538, 12.9094887], [77.4804171, 12.9094134], [77.4802192, 12.9092929], [77.480085, 12.9092287], [77.4799941, 12.9091915], [77.4789912, 12.9088108], [77.4788066, 12.9087528], [77.4786989, 12.9087271], [77.4782172, 12.9086465], [77.4780529, 12.9086177], [77.4778906, 12.9085796], [77.4777308, 12.9085324], [77.4775925, 12.9084834], [77.4774569, 12.9084276], [77.4773244, 12.908365], [77.4765871, 12.9078971], [77.4759815, 12.9075723], [77.4758223, 12.9074713], [77.4757168, 12.9074198], [77.4756449, 12.9073791], [77.475485, 12.9073125], [77.47535, 12.9072512], [77.4748905, 12.9071541], [77.4739485, 12.906955], [77.473819, 12.9069053], [77.4736922, 12.9068495], [77.4735684, 12.9067876], [77.4734576, 12.9067256], [77.4733498, 12.9066587], [77.4732453, 12.9065872], [77.4732453, 12.9065872], [77.4719986, 12.9055984], [77.4712438, 12.9050568], [77.4709934, 12.904846], [77.4708057, 12.9046297], [77.4706463, 12.9043691], [77.4699844, 12.9032765], [77.4695975, 12.9026627], [77.4691442, 12.9021746], [77.4688749, 12.9019787], [77.4663316, 12.9006051], [77.4655545, 12.9001351], [77.4647337, 12.8995756], [77.4630087, 12.8984882], [77.4621519, 12.8979418], [77.4617361, 12.8976766], [77.4612476, 12.897289], [77.4610021, 12.8970943], [77.4606635, 12.8967793]]}}, {"type": "Feature", "properties": {"ref": "Green", "name": "Green Line \u2014 Nagasandra\u2013Silk Institute", "color": "#008000", "status": "open", "open_year": 2014}, "geometry": {"type": "LineString", "coordinates": [[77.5349726, 12.8670801], [77.5342028, 12.8660725], [77.5329858, 12.86452], [77.5328249, 12.8643442], [77.5324592, 12.8639986], [77.5320502, 12.8636562], [77.5314042, 12.8632224], [77.530782, 12.8628075], [77.5304644, 12.8625697], [77.5302337, 12.8622294], [77.5299083, 12.8616919], [77.5297796, 12.8614541], [77.529439, 12.8608811], [77.5292783, 12.8606096], [77.5292129, 12.8605063], [77.5291687, 12.8604364], [77.5290782, 12.8602847], [77.5279612, 12.8584399], [77.5276455, 12.8580226], [77.5455484, 12.8794332], [77.544745, 12.8775389], [77.5443724, 12.8766467], [77.5441355, 12.8761796], [77.5438829, 12.8758573], [77.5436239, 12.8755869], [77.5433762, 12.8753726], [77.5428899, 12.87509], [77.5423292, 12.8748596], [77.5412452, 12.8743595], [77.5409512, 12.8741849], [77.5406556, 12.8739925], [77.5403027, 12.8737045], [77.5400375, 12.8734447], [77.5397813, 12.8731745], [77.5388458, 12.8720205], [77.5383625, 12.8714243], [77.5378154, 12.8707415], [77.5366932, 12.8693333], [77.5365505, 12.8691536], [77.5349726, 12.8670801], [77.5568522, 12.8859513], [77.55622, 12.8857738], [77.5559741, 12.8857011], [77.5549066, 12.8853251], [77.5540649, 12.8850632], [77.5528945, 12.8847268], [77.552751, 12.8846862], [77.5511008, 12.8841925], [77.5503421, 12.8839638], [77.5495864, 12.8837618], [77.5480706, 12.8833904], [77.5477258, 12.8832908], [77.5474312, 12.8831497], [77.5471932, 12.8830179], [77.5470635, 12.8829135], [77.5469621, 12.8827822], [77.5467672, 12.8824172], [77.546472, 12.8817117], [77.5455484, 12.8794332], [77.5635756, 12.8897696], [77.563453, 12.88968], [77.5626569, 12.8889872], [77.5617694, 12.8882147], [77.5614885, 12.8879918], [77.5611925, 12.8877897], [77.5603788, 12.88719], [77.5599148, 12.8869721], [77.5592685, 12.8867306], [77.5590458, 12.886653], [77.5579607, 12.8863237], [77.5577176, 12.8862546], [77.5568522, 12.8859513], [77.5661016, 12.8920248], [77.5655425, 12.8915315], [77.5644985, 12.8906079], [77.5644175, 12.8905334], [77.56399, 12.8901336], [77.5635756, 12.8897696], [77.5700982, 12.8960662], [77.5695014, 12.8953963], [77.5691826, 12.8950328], [77.5689049, 12.8947313], [77.568739, 12.8945512], [77.5684836, 12.8942948], [77.5681834, 12.8939934], [77.5674511, 12.8932593], [77.5666881, 12.8925495], [77.5661016, 12.8920248], [77.5731076, 12.907476], [77.5731942, 12.9066391], [77.5732567, 12.9062153], [77.5732777, 12.9059583], [77.5733039, 12.9057687], [77.573324, 12.905547], [77.5733281, 12.9053065], [77.5733013, 12.9049074], [77.5732431, 12.9043354], [77.5732129, 12.9040672], [77.5731913, 12.9038476], [77.5731964, 12.9036239], [77.5732242, 12.9034761], [77.5733968, 12.9023713], [77.5734285, 12.9020662], [77.5734206, 12.901783], [77.5733877, 12.9015041], [77.5733132, 12.9011852], [77.5730606, 12.900289], [77.5730001, 12.9000953], [77.5728764, 12.8996998], [77.5728266, 12.8996243], [77.5727109, 12.8993729], [77.5725098, 12.8990196], [77.5716123, 12.8977831], [77.5713357, 12.8974456], [77.5712031, 12.8972838], [77.5707838, 12.8968182], [77.5700982, 12.8960662], [77.5735786, 12.9152242], [77.5734907, 12.9147163], [77.573425, 12.9143028], [77.573355, 12.9139574], [77.5731529, 12.913153], [77.5730017, 12.9126873], [77.5729497, 12.9124092], [77.5728905, 12.9120289], [77.5728481, 12.9116775], [77.572843, 12.9114356], [77.572861, 12.911005], [77.572921, 12.9089528], [77.5729608, 12.9084528], [77.5730009, 12.9081508], [77.5731076, 12.907476], [77.5802479, 12.9213321], [77.5802534, 12.9208536], [77.580258, 12.9203732], [77.5802622, 12.9199257], [77.5802809, 12.918443], [77.5802768, 12.9183085], [77.5802655, 12.9181716], [77.5802471, 12.9180814], [77.5802211, 12.9179771], [77.5801789, 12.9178535], [77.580145, 12.9177842], [77.5800991, 12.9177049], [77.5800359, 12.9176132], [77.5799706, 12.9175415], [77.5798978, 12.9174707], [77.5798167, 12.9174029], [77.579714, 12.9173397], [77.579619, 12.9172933], [77.5795407, 12.9172595], [77.5794152, 12.917224], [77.5792865, 12.9172025], [77.5791361, 12.9171844], [77.5790067, 12.9171768], [77.5788562, 12.917173], [77.5786797, 12.9171791], [77.5785092, 12.9172002], [77.5783468, 12.9172317], [77.5781816, 12.9172743], [77.5780315, 12.9173179], [77.5778226, 12.9174023], [77.5776465, 12.9174738], [77.5774406, 12.9175473], [77.5772682, 12.9175981], [77.5770881, 12.9176285], [77.5768953, 12.9176335], [77.57545, 12.9176614], [77.5750984, 12.917667], [77.5749239, 12.9176675], [77.5747769, 12.9176469], [77.5746072, 12.9176025], [77.5744747, 12.9175564], [77.5742407, 12.9174208], [77.5740862, 12.9172966], [77.5739348, 12.9171061], [77.5738422, 12.9169112], [77.5737887, 12.916734], [77.5735786, 12.9152242], [77.580123, 12.9295065], [77.5801845, 12.9271516], [77.5801911, 12.9263728], [77.5802034, 12.924913], [77.5802113, 12.9243613], [77.5802245, 12.9234454], [77.5802388, 12.9221295], [77.5802479, 12.9213321], [77.5800349, 12.9382617], [77.5800519, 12.9359693], [77.5800679, 12.9331216], [77.5801145, 12.9303034], [77.580123, 12.9295065], [77.5799954, 12.9465339], [77.5800029, 12.9436046], [77.5800146, 12.9424055], [77.5800124, 12.9401622], [77.5800249, 12.9396162], [77.5800349, 12.9382617], [77.5736697, 12.9505263], [77.573682, 12.9494784], [77.5737034, 12.9493497], [77.5737394, 12.9491926], [77.5738056, 12.9490352], [77.5739095, 12.9488596], [77.5739893, 12.9487534], [77.5741048, 12.9486504], [77.5742193, 12.9485691], [77.5743433, 12.9485063], [77.5745464, 12.9484359], [77.5748232, 12.9483849], [77.5751762, 12.948341], [77.5754527, 12.9483139], [77.5757248, 12.9482868], [77.5760156, 12.9482635], [77.5763642, 12.9482449], [77.5789727, 12.9482654], [77.5791613, 12.948229], [77.5793679, 12.9481519], [77.5795852, 12.9480153], [77.5797395, 12.9478707], [77.5798441, 12.9477061], [77.5799135, 12.9475749], [77.5799445, 12.947461], [77.5799729, 12.9473129], [77.5799811, 12.9470624], [77.5799954, 12.9465339], [77.5736269, 12.9559424], [77.5736533, 12.9535219], [77.5736525, 12.9528067], [77.5736516, 12.9520728], [77.5736697, 12.9505263], [77.5746404, 12.960896], [77.5744411, 12.9596791], [77.5741875, 12.9589753], [77.5740919, 12.9586479], [77.5736915, 12.9575528], [77.5736458, 12.9574278], [77.5735929, 12.9572075], [77.5735716, 12.9569798], [77.5735755, 12.956753], [77.5736269, 12.9559424], [77.5745314, 12.9669249], [77.5744965, 12.9656803], [77.5745637, 12.965027], [77.5746969, 12.9645179], [77.5748073, 12.9641222], [77.5748479, 12.9638914], [77.5748758, 12.9636285], [77.5748889, 12.9633717], [77.574848, 12.9623062], [77.5746404, 12.960896], [77.5728675, 12.9759557], [77.5728362, 12.9739887], [77.572863, 12.973619], [77.572966, 12.9733038], [77.574565, 12.9696892], [77.5746584, 12.9692943], [77.5746522, 12.9690112], [77.5745467, 12.9674726], [77.5745314, 12.9669249], [77.5719286, 12.9870435], [77.5719804, 12.985722], [77.5719198, 12.9835008], [77.5718723, 12.9817925], [77.5718808, 12.9814936], [77.5719113, 12.9804185], [77.5719366, 12.9803127], [77.5719987, 12.9801257], [77.5720722, 12.9800028], [77.5722095, 12.979757], [77.5726049, 12.9789913], [77.5726933, 12.9788053], [77.5727682, 12.9784921], [77.5727665, 12.9779567], [77.5728693, 12.9768266], [77.5728675, 12.9759557], [77.5718612, 12.988324], [77.571893, 12.9877738], [77.571907, 12.987532], [77.5719286, 12.9870435], [77.5706929, 12.9904282], [77.5710307, 12.9899678], [77.5713265, 12.9895809], [77.5715698, 12.9892051], [77.5717311, 12.9888445], [77.571799, 12.9886144], [77.5718612, 12.988324], [77.5706929, 12.9904282], [77.5698224, 12.9916413], [77.5695702, 12.9919928], [77.569016, 12.9927535], [77.5684697, 12.9936033], [77.5677037, 12.9946858], [77.5668326, 12.9959165], [77.5666128, 12.9961518], [77.5664602, 12.9962488], [77.5662729, 12.9963312], [77.5661165, 12.9963717], [77.565958, 12.9963972], [77.5658378, 12.9963943], [77.565721, 12.9963842], [77.5656097, 12.9963696], [77.5654983, 12.9963501], [77.564924, 12.9962436], [77.5648653, 12.9962338], [77.5648039, 12.996229], [77.5647401, 12.9962295], [77.5646787, 12.9962355], [77.5645564, 12.9962489], [77.5644341, 12.9962655], [77.5643161, 12.9962847], [77.5641984, 12.9963069], [77.5639029, 12.996372], [77.5632993, 12.9964948], [77.5568746, 12.9984697], [77.5573949, 12.9983631], [77.5578664, 12.9982312], [77.5580134, 12.9981787], [77.5582913, 12.9980827], [77.5586179, 12.9979829], [77.5588265, 12.9979053], [77.5597716, 12.9975536], [77.5600538, 12.9974486], [77.5601011, 12.997431], [77.5603557, 12.9973061], [77.560491, 12.9972417], [77.5605338, 12.9972213], [77.5605839, 12.9971974], [77.5608255, 12.9970825], [77.5612529, 12.9968791], [77.5613793, 12.9968257], [77.5615079, 12.9967713], [77.5615853, 12.9967427], [77.5617957, 12.9966846], [77.561949, 12.9966597], [77.5622695, 12.9966216], [77.5632993, 12.9964948], [77.5496166, 13.0005232], [77.5499063, 12.998868], [77.5499885, 12.9985131], [77.5501042, 12.9982713], [77.550291, 12.9980759], [77.5504835, 12.9979306], [77.550724, 12.9978291], [77.5509707, 12.9977641], [77.551219, 12.9977618], [77.551525, 12.9978128], [77.5521786, 12.9979765], [77.5530735, 12.9982149], [77.5554252, 12.9986586], [77.5558951, 12.9986475], [77.5562821, 12.9985959], [77.5568746, 12.9984697], [77.5487834, 13.0080774], [77.5487742, 13.008017], [77.5487458, 13.0078314], [77.5486772, 13.0073828], [77.5486356, 13.007029], [77.5486354, 13.0066782], [77.5486726, 13.0061888], [77.548786, 13.0056562], [77.5488855, 13.0050354], [77.549318, 13.0025387], [77.5494289, 13.0017902], [77.5496166, 13.0005232], [77.5539915, 13.0147178], [77.5540473, 13.01386], [77.5540452, 13.0137652], [77.5540379, 13.0136706], [77.5540249, 13.0135744], [77.5540064, 13.0134791], [77.553974, 13.0133898], [77.5538951, 13.0132485], [77.5537332, 13.0130746], [77.5535729, 13.0128999], [77.5534018, 13.0127758], [77.5531108, 13.0126195], [77.5523559, 13.012208], [77.5505966, 13.0112384], [77.550424, 13.01114], [77.5503229, 13.0110845], [77.5501246, 13.0109595], [77.5500206, 13.0108812], [77.5499341, 13.0108102], [77.5498385, 13.0107285], [77.5497379, 13.0106221], [77.5496361, 13.0105148], [77.5495449, 13.0104075], [77.5494364, 13.010262], [77.5493548, 13.0101362], [77.5492727, 13.010009], [77.5491877, 13.0098431], [77.549106, 13.0096621], [77.5490567, 13.0095354], [77.548977, 13.0092803], [77.5489144, 13.0089404], [77.5487834, 13.0080774], [77.5538212, 13.0164221], [77.5538646, 13.016001], [77.5539359, 13.0155717], [77.5539915, 13.0147178], [77.5538212, 13.0164221], [77.5537946, 13.016635], [77.5537593, 13.0168162], [77.5536515, 13.0172278], [77.5533602, 13.0182884], [77.5531584, 13.0191069], [77.5530947, 13.0193244], [77.5530333, 13.0194632], [77.5526834, 13.020135], [77.5522394, 13.0209847], [77.5519638, 13.0214864], [77.5517426, 13.0218423], [77.5516508, 13.0219851], [77.5515537, 13.0220931], [77.5514347, 13.0222195], [77.5512561, 13.0223689], [77.5511295, 13.0224627], [77.5509692, 13.0225645], [77.5497052, 13.0232981], [77.5497052, 13.0232981], [77.5484213, 13.0240342], [77.5480444, 13.0242502], [77.5472973, 13.0246844], [77.5464536, 13.0251476], [77.5438186, 13.0266707], [77.5436384, 13.0267681], [77.5435285, 13.0268336], [77.5433472, 13.0269586], [77.5431767, 13.0270655], [77.5424486, 13.0274783], [77.5416236, 13.027948], [77.5404372, 13.028613], [77.5404372, 13.028613], [77.5401865, 13.0287531], [77.5387127, 13.0295646], [77.5378173, 13.030084], [77.5365756, 13.0308784], [77.5354031, 13.0316757], [77.5331801, 13.0329814], [77.5331801, 13.0329814], [77.5309624, 13.0342751], [77.5305909, 13.0344526], [77.5300641, 13.0346863], [77.5297884, 13.0347828], [77.5283536, 13.0351655], [77.5272283, 13.0354574], [77.5269572, 13.035543], [77.5265808, 13.0356901], [77.5262264, 13.0358697], [77.5254867, 13.0362716], [77.5254867, 13.0362716], [77.5249635, 13.0365953], [77.5245629, 13.0368135], [77.5232156, 13.0375474], [77.5232156, 13.0375474], [77.5206012, 13.0389638], [77.5197223, 13.0393735], [77.5197223, 13.0393735], [77.5184913, 13.0400359], [77.5183668, 13.0401276], [77.5164823, 13.0418398], [77.5161933, 13.0419772], [77.5125345, 13.0432196], [77.5125345, 13.0432196], [77.5113446, 13.0436394], [77.5109106, 13.0438356], [77.5088219, 13.0449141], [77.5082155, 13.0452307], [77.5051339, 13.0461228], [77.5028722, 13.0469353], [77.5017632, 13.0473337], [77.5012499, 13.0475284], [77.5001342, 13.0479383], [77.5001342, 13.0479383], [77.4995448, 13.0481601], [77.4992977, 13.0482536], [77.4983257, 13.0486216], [77.4979193, 13.0487754], [77.4954053, 13.0497029], [77.4954053, 13.0497029], [77.4944407, 13.0500685], [77.4941333, 13.050185], [77.4932451, 13.0504879], [77.4923976, 13.0507092], [77.4914983, 13.0510274], [77.4897513, 13.0516589], [77.4891773, 13.0518845], [77.4879101, 13.0523412], [77.4849319, 13.0534146], [77.4837157, 13.0538599], [77.4821314, 13.0544297], [77.4812655, 13.0547459], [77.4792951, 13.055537], [77.4774152, 13.0563084], [77.4754639, 13.0567696], [77.47461, 13.0569763], [77.4739686, 13.0571315], [77.4728018, 13.0574004], [77.4721715, 13.0575456], [77.4713966, 13.0577388], [77.4707097, 13.0579101], [77.4695571, 13.0582256]]}}, {"type": "Feature", "properties": {"ref": "Yellow", "name": "Yellow Line \u2014 RV Road\u2013Bommasandra", "color": "#FFC72C", "status": "under_construction", "open_year": 2025}, "geometry": {"type": "LineString", "coordinates": [[77.6879957, 12.8197552], [77.6877332, 12.8200439], [77.6868568, 12.821048], [77.6859328, 12.8220243], [77.6849106, 12.8231125], [77.6844116, 12.8236438], [77.6840261, 12.8240541], [77.6835611, 12.8245491], [77.6831457, 12.8251124], [77.6828368, 12.8257068], [77.6826745, 12.8260193], [77.6820854, 12.8271471], [77.681884, 12.8275758], [77.6817098, 12.8279979], [77.6812303, 12.8294441], [77.6812139, 12.8294934], [77.6807093, 12.8310175], [77.6805328, 12.8315503], [77.6802827, 12.8323931], [77.6800789, 12.8332548], [77.679482, 12.8349053], [77.6791482, 12.8357863], [77.6787967, 12.836664], [77.6783435, 12.8377346], [77.6782024, 12.8379911], [77.6778392, 12.8385126], [77.6771361, 12.839432], [77.6765258, 12.8402301], [77.6752603, 12.8418927], [77.6746219, 12.8427361], [77.674288, 12.8431466], [77.6739366, 12.8435452], [77.6730817, 12.844466], [77.6728249, 12.8447131], [77.6725413, 12.8449409], [77.672041, 12.8453019], [77.6718227, 12.8454945], [77.6716687, 12.8456949], [77.6709184, 12.8467985], [77.6708154, 12.84695], [77.6704667, 12.8475327], [77.6701753, 12.8480561], [77.6698355, 12.8485514], [77.6684073, 12.8504165], [77.6674537, 12.8516247], [77.6665551, 12.8528576], [77.6650534, 12.8547847], [77.6648881, 12.8549968], [77.6645395, 12.8553772], [77.6641147, 12.8557842], [77.6632379, 12.8567984], [77.6628116, 12.8573115], [77.6623674, 12.8579357], [77.6620447, 12.8584186], [77.6615529, 12.8591545], [77.6605625, 12.8605064], [77.6596874, 12.8616197], [77.6587084, 12.8628298], [77.6578474, 12.8639084], [77.6575832, 12.8642294], [77.6572789, 12.8645991], [77.6532132, 12.8697173], [77.6529726, 12.8700471], [77.6524723, 12.8706913], [77.6521471, 12.8710849], [77.6520847, 12.8711605], [77.6519746, 12.8712937], [77.6517123, 12.8716244], [77.6505681, 12.8730909], [77.6494942, 12.8742946], [77.6474277, 12.8766157], [77.6471997, 12.8769155], [77.6469235, 12.8773375], [77.6463799, 12.8782654], [77.6455402, 12.8796402], [77.6447743, 12.8809164], [77.6446126, 12.8811794], [77.6429108, 12.8839478], [77.6401371, 12.8884395], [77.639431, 12.8895341], [77.6389484, 12.8903178], [77.6388146, 12.890535], [77.6377, 12.8924065], [77.6365557, 12.8942698], [77.6355004, 12.8959295], [77.6346322, 12.8973794], [77.6333065, 12.8995638], [77.6328347, 12.9003159], [77.6316985, 12.9021241], [77.6306681, 12.9038128], [77.630616, 12.9038961], [77.6301981, 12.9045491], [77.6301509, 12.9046229], [77.6296937, 12.9053552], [77.6289851, 12.9065466], [77.6269081, 12.9099145], [77.6264736, 12.9106073], [77.6261256, 12.9111955], [77.6257025, 12.9118988], [77.6253283, 12.9125485], [77.6249185, 12.913185], [77.6244868, 12.9138877], [77.6240978, 12.9146132], [77.6231102, 12.9163978], [77.6230538, 12.9164739], [77.6229908, 12.9165466], [77.6229222, 12.9166143], [77.6228485, 12.9166767], [77.6227701, 12.9167333], [77.6226874, 12.916784], [77.6226011, 12.9168283], [77.6225115, 12.916866], [77.6224164, 12.9168977], [77.6223191, 12.916922], [77.6222201, 12.9169387], [77.6221201, 12.9169477], [77.6220196, 12.916949], [77.6219194, 12.9169426], [77.62182, 12.9169284], [77.6217221, 12.9169067], [77.6216236, 12.9168814], [77.6216236, 12.9168814], [77.620117, 12.9164026], [77.6195373, 12.9162369], [77.6193244, 12.9161987], [77.6192082, 12.9161941], [77.6190773, 12.9161981], [77.6189485, 12.916209], [77.618735, 12.9162277], [77.6183923, 12.916248], [77.6175719, 12.9162409], [77.6171062, 12.9162109], [77.6166736, 12.9162002], [77.6155447, 12.9163316], [77.6154675, 12.916339], [77.6150454, 12.9163797], [77.6141904, 12.9164355], [77.6139494, 12.9164399], [77.6118316, 12.9164998], [77.610688, 12.9164974], [77.6087608, 12.9165442], [77.6076327, 12.916573], [77.6068897, 12.9165951], [77.6046167, 12.9166612], [77.6018911, 12.9166905], [77.5997303, 12.9167282], [77.5986723, 12.9167466], [77.5976375, 12.9167755], [77.5964828, 12.9167928], [77.5950584, 12.9168276], [77.5940267, 12.9168521], [77.5909445, 12.9168999], [77.5903436, 12.9169105], [77.5900333, 12.9169255], [77.5896691, 12.9169989], [77.589378, 12.9170385], [77.5890486, 12.9170478], [77.5877835, 12.9170748], [77.5876763, 12.9170767], [77.5874615, 12.9170788], [77.5873082, 12.9170733], [77.5871789, 12.9170588], [77.5869901, 12.9170319], [77.5867445, 12.9169923], [77.5851693, 12.917016], [77.5836145, 12.9170513], [77.5815305, 12.9171024], [77.5813655, 12.9171086], [77.5812146, 12.9171225], [77.5811085, 12.9171416], [77.5810083, 12.9171681], [77.5808986, 12.9172066], [77.5807829, 12.9172615], [77.5806987, 12.9173153], [77.5806045, 12.917384], [77.5805195, 12.9174677], [77.5804496, 12.9175375], [77.5803809, 12.9176266], [77.5803281, 12.9177207], [77.5802843, 12.9178131], [77.5802471, 12.917901], [77.5802166, 12.9179984], [77.5801943, 12.9180984], [77.58018, 12.9181839], [77.5801706, 12.9182694], [77.5801516, 12.9191167], [77.5801489, 12.9193001], [77.5801412, 12.9194397], [77.5801271, 12.9195898], [77.5800967, 12.919844], [77.5800846, 12.9199933], [77.5800746, 12.9201505], [77.580062, 12.9203324], [77.5800587, 12.9205077], [77.5800583, 12.9207953], [77.5800478, 12.92186]]}}]}