{"type": "FeatureCollection", "features": [{"type": "Feature", "properties": {"ref": "1", "name": "Blue Line \u2014 Wimco Nagar\u2013St Thomas Mount", "color": "#005DA0", "status": "open", "open_year": 2015}, "geometry": {"type": "LineString", "coordinates": [[80.1641592, 12.9808178], [80.1642111, 12.9808371], [80.164832, 12.9810681], [80.1650532, 12.9811495], [80.1652288, 12.9812141], [80.1654211, 12.9812843], [80.1656686, 12.9813746], [80.1660449, 12.9815152], [80.1663384, 12.9816217], [80.1665337, 12.9816882], [80.1669086, 12.9818392], [80.1672684, 12.9820185], [80.167459, 12.9821228], [80.168589, 12.9828184], [80.1689737, 12.9830629], [80.1692771, 12.9832488], [80.1698666, 12.9836189], [80.1706971, 12.9841132], [80.1709684, 12.9842796], [80.1710949, 12.9843505], [80.1712832, 12.984444], [80.171532, 12.9845623], [80.1719507, 12.9847573], [80.1726127, 12.9850818], [80.1726688, 12.9851115], [80.1727348, 12.9851464], [80.1728103, 12.9851895], [80.1729792, 12.9852972], [80.1740618, 12.9860305], [80.1741688, 12.9861], [80.174382, 12.9862443], [80.1747, 12.9864624], [80.1751796, 12.9867944], [80.1756095, 12.9870988], [80.1757477, 12.987192], [80.1759304, 12.9873217], [80.1761684, 12.9874867], [80.1764378, 12.9876709], [80.1764893, 12.9877062], [80.1769823, 12.9880631], [80.1773053, 12.9882874], [80.1776602, 12.9885441], [80.1777452, 12.9886076], [80.1778444, 12.9886925], [80.1779549, 12.9887947], [80.1783494, 12.9892012], [80.1784351, 12.989291], [80.1785159, 12.9893772], [80.1786257, 12.989487], [80.1787461, 12.9896023], [80.1788538, 12.9896989], [80.1791173, 12.9899115], [80.1795586, 12.9902676], [80.1799029, 12.9905373], [80.1799029, 12.9905373], [80.1804709, 12.9909757], [80.1809674, 12.9913673], [80.1814556, 12.9917427], [80.1816598, 12.9919023], [80.1819987, 12.9921576], [80.1822335, 12.9923377], [80.1825142, 12.9925273], [80.182799, 12.9927131], [80.1831467, 12.9929299], [80.1834949, 12.9931319], [80.1840747, 12.9934486], [80.1849823, 12.9939456], [80.1853932, 12.9941755], [80.1865639, 12.9948154], [80.18681, 12.9949478], [80.187173, 12.9951394], [80.1874205, 12.9952628], [80.1877903, 12.9954496], [80.1884126, 12.9957589], [80.188715, 12.995914], [80.188715, 12.995914], [80.1889286, 12.996054], [80.1890875, 12.9961626], [80.1892945, 12.9963256], [80.1894465, 12.9964544], [80.1895831, 12.9965741], [80.1899662, 12.996919], [80.1904006, 12.997305], [80.190499, 12.9973863], [80.1906501, 12.9974918], [80.1908195, 12.9975938], [80.1911142, 12.9977522], [80.191357, 12.9978807], [80.1914153, 12.9979139], [80.1915828, 12.9980073], [80.1916967, 12.9980808], [80.1918158, 12.9981679], [80.192191, 12.9984614], [80.192599, 12.9987799], [80.1935731, 12.9995545], [80.1939756, 12.9998739], [80.1945495, 13.0003292], [80.1950664, 13.0007386], [80.1957234, 13.0012541], [80.1962137, 13.001648], [80.1963855, 13.0017761], [80.1965136, 13.0018614], [80.196677, 13.0019435], [80.1968219, 13.0019977], [80.196987, 13.0020338], [80.1972262, 13.0020584], [80.1973998, 13.0020469], [80.1978159, 13.0019895], [80.1983428, 13.0019565], [80.1983428, 13.0019565], [80.198977, 13.0017947], [80.1992715, 13.0017446], [80.1994061, 13.0017308], [80.1995138, 13.0017308], [80.1996554, 13.0017391], [80.199851, 13.0017722], [80.2000493, 13.0018385], [80.2002136, 13.0019296], [80.2004148, 13.0020883], [80.2005706, 13.0022512], [80.2006811, 13.0024182], [80.2007931, 13.0026584], [80.2010962, 13.00335], [80.2013144, 13.0037834], [80.201533, 13.0042231], [80.2018315, 13.0049015], [80.2019727, 13.0051584], [80.2020246, 13.0052357], [80.2020976, 13.0053311], [80.2020976, 13.0053311], [80.2022373, 13.005537], [80.2023356, 13.0056462], [80.2024157, 13.0057153], [80.2024935, 13.0057817], [80.2025944, 13.0058567], [80.2026747, 13.005919], [80.2027994, 13.0060131], [80.2029648, 13.0061394], [80.2031253, 13.0062624], [80.2032723, 13.0063757], [80.2033992, 13.0064713], [80.2035703, 13.0065955], [80.2036951, 13.0066809], [80.2038302, 13.0067663], [80.2040588, 13.0069051], [80.2042067, 13.0069914], [80.2043912, 13.0070852], [80.204602, 13.007188], [80.2048228, 13.0072888], [80.205004, 13.0073631], [80.2051136, 13.0074056], [80.205213, 13.0074444], [80.2053562, 13.0074936], [80.2055087, 13.0075419], [80.2056585, 13.0075886], [80.2058703, 13.0076429], [80.2060214, 13.0076795], [80.2062182, 13.0077204], [80.2063704, 13.0077511], [80.2065929, 13.0077858], [80.2070247, 13.0078485], [80.2074445, 13.0079087], [80.207672, 13.0079417], [80.207672, 13.0079417], [80.2080152, 13.0079537], [80.2087089, 13.0080479], [80.208931, 13.0080768], [80.2091685, 13.0081243], [80.209397, 13.0081697], [80.2096423, 13.0082321], [80.2101169, 13.0083857], [80.2104567, 13.0085091], [80.2109413, 13.0086839], [80.2112996, 13.0088163], [80.2116063, 13.0089224], [80.2118082, 13.0089868], [80.2120009, 13.009036], [80.2121633, 13.0090748], [80.2124166, 13.0091359], [80.2130723, 13.0092951], [80.2134518, 13.0093872], [80.2134518, 13.0093872], [80.2140245, 13.0095063], [80.2142649, 13.0095596], [80.2146055, 13.009634], [80.215031, 13.0097356], [80.2151629, 13.0097681], [80.2152947, 13.0098006], [80.2154799, 13.0098508], [80.2156566, 13.0099076], [80.2159649, 13.0100352], [80.2161965, 13.0101574], [80.2164412, 13.0103161], [80.2168729, 13.0106281], [80.2170795, 13.0107791], [80.2172481, 13.0108916], [80.2174849, 13.0110326], [80.2176628, 13.0111151], [80.217938, 13.011222], [80.2186873, 13.01149], [80.2189219, 13.0115711], [80.219233, 13.0116697], [80.2198964, 13.0118803], [80.2202737, 13.011996], [80.2207336, 13.0121369], [80.2209488, 13.0122116], [80.2211116, 13.0122935], [80.2212553, 13.0123759], [80.2213547, 13.0124447], [80.2214784, 13.012538], [80.2218512, 13.0128466], [80.222328, 13.0132335], [80.222602, 13.0134581], [80.2229254, 13.0137187], [80.223204, 13.013945], [80.2241109, 13.0146778], [80.224348, 13.0148693], [80.2248365, 13.0152282], [80.2248365, 13.0152282], [80.2250265, 13.0153551], [80.2252027, 13.0155263], [80.2252911, 13.0156403], [80.2253807, 13.0157793], [80.2254494, 13.0159177], [80.2254939, 13.0160536], [80.2255266, 13.0162168], [80.2255525, 13.0164168], [80.2255622, 13.0165407], [80.2255429, 13.01668], [80.2255031, 13.0168655], [80.2254636, 13.0169964], [80.2254097, 13.0171425], [80.2251024, 13.017952], [80.2250625, 13.0180665], [80.2250198, 13.0182657], [80.2249961, 13.0184083], [80.2249755, 13.0185624], [80.2249462, 13.0189739], [80.2249462, 13.0189739], [80.2249486, 13.0191286], [80.2249548, 13.0192482], [80.2249668, 13.019365], [80.2249863, 13.0195046], [80.2250114, 13.0196278], [80.2250478, 13.0197641], [80.2250969, 13.0199223], [80.2251423, 13.0200551], [80.2251844, 13.02016], [80.2252329, 13.0202768], [80.2252329, 13.0202768], [80.2252419, 13.0202946], [80.2252538, 13.020318], [80.2253565, 13.0205206], [80.2254676, 13.020701], [80.2257356, 13.0212072], [80.2262217, 13.0218847], [80.2269422, 13.0226952], [80.2273942, 13.0232996], [80.2277786, 13.0237247], [80.227957, 13.0238913], [80.2280614, 13.023975], [80.2286797, 13.0244736], [80.229204, 13.0247928], [80.2302707, 13.0255888], [80.230775, 13.0258326], [80.2324631, 13.0263506], [80.232905, 13.0265205], [80.2333051, 13.0267684], [80.2344632, 13.0274541], [80.2354459, 13.0279752], [80.2360635, 13.0285127], [80.2373738, 13.0297095], [80.2392383, 13.0307642], [80.2405596, 13.0314226], [80.2411721, 13.0317226], [80.2419624, 13.0321078], [80.2422476, 13.0322613], [80.2434316, 13.0330757], [80.2458207, 13.0349426], [80.2459653, 13.03514], [80.2461324, 13.0355432], [80.2463439, 13.0365034], [80.2463929, 13.0368236], [80.2481233, 13.045223], [80.2482567, 13.0458703], [80.2485035, 13.0469724], [80.2485035, 13.0469724], [80.248713, 13.0474198], [80.2495085, 13.0483468], [80.2496164, 13.0485625], [80.2496837, 13.0487903], [80.249772, 13.0494282], [80.2499862, 13.0505448], [80.2500948, 13.0510596], [80.2503808, 13.0517108], [80.2513815, 13.0526071], [80.254212, 13.0547007], [80.2561121, 13.0561133], [80.2564451, 13.0564084], [80.2577535, 13.0577959], [80.2587519, 13.0586219], [80.2590807, 13.0588939], [80.2616468, 13.0609968], [80.2640726, 13.0629776], [80.26583, 13.0643999], [80.2676567, 13.0658782], [80.2683642, 13.06635], [80.269323, 13.0665152], [80.269703, 13.0666785], [80.2702455, 13.067081], [80.2709647, 13.0678837], [80.2719621, 13.0685337], [80.2730041, 13.0697128], [80.2740414, 13.07089], [80.2741652, 13.0713552], [80.2741937, 13.0718362], [80.2738504, 13.0727349], [80.2735133, 13.0734106], [80.2710537, 13.0770572], [80.2706386, 13.077998], [80.2705872, 13.0786945], [80.2707394, 13.079502], [80.2710056, 13.0802986], [80.2714181, 13.0808441], [80.2727563, 13.081511], [80.2739184, 13.0817126], [80.2747741, 13.0818663], [80.2747741, 13.0818663], [80.2757271, 13.0820373], [80.2757271, 13.0820373], [80.2760444, 13.0820289], [80.2773154, 13.0820168], [80.2777445, 13.082039], [80.2808098, 13.0822743], [80.2812882, 13.0823429], [80.2823516, 13.0825836], [80.2828508, 13.0829468], [80.2833351, 13.0834407], [80.2839068, 13.0843082], [80.2846743, 13.0859177], [80.2849051, 13.0870275], [80.2849401, 13.0872148], [80.2850835, 13.0879143], [80.2852738, 13.0886128], [80.2853084, 13.0887398], [80.2853146, 13.0887771], [80.2855787, 13.0903726], [80.2857522, 13.091421], [80.2859337, 13.0941247], [80.2859754, 13.0946415], [80.2860786, 13.095369], [80.2863929, 13.0974211], [80.2866581, 13.0999691], [80.2866561, 13.1000211], [80.2864973, 13.1004777], [80.2858467, 13.1010592], [80.2826223, 13.1020109], [80.2814983, 13.1024704], [80.2808183, 13.1029446], [80.2803739, 13.103588], [80.2802703, 13.1040937], [80.280205, 13.1044123], [80.2802072, 13.1051381], [80.2803714, 13.1059901], [80.2804215, 13.1062357], [80.280578, 13.1067695], [80.2807009, 13.1071816], [80.2807572, 13.1073575], [80.2809437, 13.1079711], [80.281176, 13.1087241], [80.281205, 13.1088091], [80.2812411, 13.1089004], [80.2812784, 13.1089764], [80.2813562, 13.1091528], [80.2814736, 13.1094149], [80.2815558, 13.1095857], [80.2816208, 13.1097165], [80.2817029, 13.109867], [80.2828399, 13.1121468], [80.2847109, 13.1157667], [80.2849236, 13.1161829], [80.286917, 13.1204331], [80.2888383, 13.1245289], [80.2900949, 13.1272011], [80.2906448, 13.1282799], [80.2909831, 13.1291046], [80.2909831, 13.1291046], [80.2916211, 13.130777], [80.2929776, 13.1345238], [80.2944213, 13.1383128], [80.2960628, 13.1425207], [80.296314, 13.1431384], [80.2967575, 13.1442289], [80.2974495, 13.1459867], [80.2977378, 13.146657], [80.2993728, 13.1506701], [80.2994719, 13.1509154], [80.300231, 13.1527136], [80.3003356, 13.1530284], [80.3004992, 13.1538668], [80.3006119, 13.1543395], [80.3010249, 13.1555279], [80.3011724, 13.1559458], [80.301564, 13.1573875], [80.3016552, 13.15768], [80.3019503, 13.1585158], [80.3020871, 13.158871], [80.3024786, 13.1604851], [80.3025565, 13.1608063], [80.3027442, 13.16136], [80.3031841, 13.1624517], [80.3033021, 13.1628043], [80.3033772, 13.1631725], [80.3034416, 13.1639508], [80.3034684, 13.1644784], [80.3034952, 13.1648284], [80.3035381, 13.1651444], [80.304155, 13.167555], [80.3048256, 13.1701379], [80.3052521, 13.1718029], [80.3053755, 13.1722847], [80.3059816, 13.1744915], [80.307318, 13.1792941], [80.3074837, 13.1798897], [80.3075877, 13.1802519], [80.3075877, 13.1802519], [80.3076863, 13.1804274], [80.3076863, 13.1804274], [80.3077185, 13.1805397], [80.3078933, 13.1811605], [80.3079453, 13.1813087], [80.3080216, 13.1814941], [80.3081293, 13.1817298], [80.3081684, 13.181803], [80.3082224, 13.1818997], [80.3083339, 13.1820724], [80.3084022, 13.18219], [80.3084489, 13.1822711], [80.3084896, 13.1823579], [80.3084987, 13.1823791], [80.3085339, 13.1824611], [80.3085726, 13.1825688], [80.3086079, 13.1826844], [80.308681, 13.1829282], [80.308681, 13.1829282], [80.3090404, 13.1839532], [80.3091786, 13.1843471]]}}, {"type": "Feature", "properties": {"ref": "2", "name": "Green Line \u2014 Chennai Airport\u2013Washermenpet", "color": "#008000", "status": "open", "open_year": 2015}, "geometry": {"type": "LineString", "coordinates": [[80.1965057, 12.9943626], [80.1968011, 12.9944692], [80.1980574, 12.9949454], [80.1982006, 12.9949995], [80.1983631, 12.9950609], [80.1986963, 12.9951868], [80.1997148, 12.9955715], [80.1998265, 12.9956258], [80.19991, 12.9956758], [80.2000185, 12.9957458], [80.2001135, 12.9958278], [80.2002181, 12.9959284], [80.2003804, 12.9961453], [80.2004354, 12.9962498], [80.2004984, 12.9964054], [80.2005239, 12.9965021], [80.200548, 12.996617], [80.2005614, 12.9967333], [80.2005574, 12.9968706], [80.2005547, 12.9969855], [80.2005494, 12.9970849], [80.2005011, 12.9974991], [80.2003543, 12.998112], [80.2002995, 12.9986747], [80.200261, 12.9988748], [80.2002425, 12.9991733], [80.2002385, 12.9994286], [80.2002436, 12.999757], [80.2002409, 12.9999497], [80.2002449, 13.0004453], [80.2002547, 13.0009301], [80.200254, 13.001401], [80.200266, 13.0015628], [80.2002713, 13.0016503], [80.2002904, 13.0017574], [80.2003427, 13.001897], [80.2004701, 13.0019774], [80.2005267, 13.0021133], [80.2005785, 13.0022244], [80.200679, 13.0024122], [80.2007948, 13.0026573], [80.2009152, 13.0029308], [80.2009152, 13.0029308], [80.201155, 13.0034613], [80.2015164, 13.0042275], [80.2018299, 13.0048922], [80.2019511, 13.00516], [80.2020595, 13.005404], [80.2021504, 13.0055874], [80.202294, 13.0059059], [80.2022649, 13.0059597], [80.2025237, 13.0065139], [80.2027037, 13.0069015], [80.2028612, 13.0072349], [80.2029084, 13.0073554], [80.2029535, 13.0074576], [80.203003, 13.0075847], [80.2030423, 13.0076992], [80.203064, 13.0077634], [80.2030943, 13.0078986], [80.2031262, 13.0080695], [80.2031613, 13.0082389], [80.2031788, 13.008399], [80.2031852, 13.0085482], [80.2031578, 13.0088867], [80.2031406, 13.0092762], [80.2031231, 13.0096623], [80.2031286, 13.0099028], [80.203138, 13.0102575], [80.2031487, 13.0104502], [80.2031641, 13.0106704], [80.2032124, 13.0109533], [80.2032606, 13.0111885], [80.2033941, 13.0115714], [80.2035349, 13.0119209], [80.2036074, 13.012132], [80.2037261, 13.0124637], [80.2038462, 13.0128033], [80.2039121, 13.0130087], [80.2040383, 13.0133715], [80.2041606, 13.0136677], [80.2043042, 13.0140442], [80.2044739, 13.0144875], [80.204699, 13.0150977], [80.2049084, 13.0155193], [80.2050367, 13.0158972], [80.2054139, 13.0169572], [80.2054916, 13.0171755], [80.2057341, 13.0178116], [80.2058235, 13.0180675], [80.2058992, 13.018296], [80.2060567, 13.0187194], [80.2061461, 13.0189633], [80.2061968, 13.0191224], [80.2062322, 13.0192778], [80.2062627, 13.019431], [80.2062818, 13.0195722], [80.2062957, 13.0197152], [80.2063058, 13.0198555], [80.2063271, 13.0205657], [80.2063341, 13.0210027], [80.2063431, 13.0213742], [80.2063514, 13.0217779], [80.2063641, 13.0220086], [80.2063739, 13.0222198], [80.2063951, 13.0224308], [80.206423, 13.0225987], [80.2064686, 13.0228544], [80.2065122, 13.0231046], [80.2065564, 13.0233327], [80.2066056, 13.0235672], [80.2067826, 13.0243474], [80.2068479, 13.0248278], [80.2068729, 13.025076], [80.2069037, 13.0254335], [80.2069284, 13.0256268], [80.206953, 13.0257745], [80.2070039, 13.0260075], [80.2070635, 13.026231], [80.2071389, 13.0264549], [80.2072281, 13.0266633], [80.2073289, 13.0268796], [80.2074325, 13.0270716], [80.2075563, 13.0272742], [80.207671, 13.0274357], [80.2077637, 13.0275667], [80.2079379, 13.0277946], [80.2083122, 13.0282792], [80.2084002, 13.0284227], [80.2084564, 13.028521], [80.2085359, 13.0286649], [80.2086141, 13.0288588], [80.2088286, 13.0295659], [80.2090093, 13.03018], [80.2094019, 13.0314943], [80.2095531, 13.0320073], [80.2095993, 13.0321854], [80.2096222, 13.0323261], [80.2096446, 13.0324864], [80.2096587, 13.0326151], [80.2096658, 13.0327989], [80.2096622, 13.033009], [80.2096378, 13.0334171], [80.2096169, 13.0338296], [80.2096203, 13.0339354], [80.2096324, 13.0340394], [80.2096487, 13.0341181], [80.2096758, 13.0342335], [80.2097023, 13.0343151], [80.2097526, 13.0344333], [80.2098036, 13.0345253], [80.209863, 13.0346297], [80.2099366, 13.0347239], [80.2100268, 13.0348192], [80.2100986, 13.0348839], [80.2102342, 13.0349845], [80.2106579, 13.0352393], [80.2111917, 13.0355403], [80.2111917, 13.0355403], [80.2116088, 13.0357932], [80.211834, 13.0359351], [80.2119275, 13.0360071], [80.2120066, 13.036076], [80.2121294, 13.0361969], [80.2122157, 13.0363112], [80.212298, 13.0364539], [80.2123771, 13.0366416], [80.2124145, 13.036788], [80.2124383, 13.0369354], [80.2124377, 13.0371131], [80.2124144, 13.037568], [80.2124063, 13.0376817], [80.2123877, 13.0379415], [80.2123782, 13.038199], [80.2123456, 13.0388455], [80.2123204, 13.0393673], [80.2123058, 13.0397895], [80.2123034, 13.0401434], [80.212295, 13.0413056], [80.212293, 13.0420858], [80.2122973, 13.0430743], [80.2122915, 13.0442403], [80.2122816, 13.0446315], [80.212257, 13.0454202], [80.2122289, 13.0462052], [80.2122114, 13.0469046], [80.2120481, 13.0488302], [80.2119933, 13.0494901], [80.2119929, 13.0498427], [80.2120106, 13.0503889], [80.2120452, 13.0509321], [80.2120687, 13.0513012], [80.212077, 13.0515295], [80.2120711, 13.0517756], [80.212059, 13.0519311], [80.2120235, 13.0521203], [80.2119719, 13.0523433], [80.2119112, 13.052577], [80.2118084, 13.0529967], [80.2117182, 13.0533133], [80.2115532, 13.0539511], [80.2114829, 13.054241], [80.2114525, 13.0544275], [80.21143, 13.0545865], [80.2114198, 13.0547445], [80.2114161, 13.0550194], [80.2114863, 13.0579309], [80.2115104, 13.0586639], [80.2115111, 13.0589288], [80.2115569, 13.0598985], [80.2115977, 13.0611041], [80.2116154, 13.061455], [80.2116305, 13.0616666], [80.2116628, 13.0621179], [80.2116795, 13.0623564], [80.2116795, 13.0623564], [80.2116749, 13.062649], [80.2116116, 13.0636068], [80.2115937, 13.0637723], [80.211577, 13.0638998], [80.2115316, 13.0641505], [80.2114853, 13.0643564], [80.2113734, 13.0646033], [80.2112266, 13.064905], [80.2110868, 13.0651299], [80.2109183, 13.0653495], [80.2104134, 13.0659739], [80.209836, 13.0666373], [80.2096095, 13.066855], [80.2094574, 13.0669685], [80.2082885, 13.0677435], [80.2077545, 13.068077], [80.2075684, 13.0681661], [80.2073368, 13.0682419], [80.2071816, 13.0682723], [80.2070517, 13.0682971], [80.2068089, 13.0683139], [80.2062244, 13.0683166], [80.2057583, 13.068319], [80.2055034, 13.06833], [80.2050588, 13.0683678], [80.2046817, 13.06841], [80.2039344, 13.0685084], [80.2039344, 13.0685084], [80.2032998, 13.0686028], [80.2023178, 13.0687429], [80.2020455, 13.0687984], [80.2019098, 13.0688306], [80.2017741, 13.0688753], [80.2014376, 13.0690084], [80.2010434, 13.0691571], [80.2008734, 13.0692266], [80.2006523, 13.0692957], [80.2004212, 13.0693439], [80.200194, 13.0693722], [80.2000339, 13.0693807], [80.1998551, 13.0693799], [80.1980794, 13.0693479], [80.1963681, 13.0693206], [80.1961692, 13.0693329], [80.1959928, 13.0693615], [80.1958011, 13.0694153], [80.1956222, 13.0694934], [80.1954254, 13.0696092], [80.1952853, 13.0697186], [80.1951574, 13.069851], [80.1950843, 13.069951], [80.1949992, 13.0700856], [80.1949412, 13.0701915], [80.1948981, 13.0703008], [80.1948527, 13.0704409], [80.1948171, 13.0706356], [80.1948096, 13.0707383], [80.1948056, 13.0708666], [80.1948133, 13.0717291], [80.1948168, 13.0719733], [80.194818, 13.0720687], [80.1948356, 13.0727465], [80.1948572, 13.073445], [80.1948572, 13.073445], [80.1948833, 13.074478], [80.1948943, 13.0749286], [80.1948967, 13.0751164], [80.1948991, 13.075307], [80.1949012, 13.075472], [80.1949139, 13.0757885], [80.1949213, 13.0761161], [80.1949236, 13.0762208], [80.1949236, 13.0762208], [80.1949428, 13.0766749], [80.1949449, 13.0768246], [80.194976, 13.0770448], [80.1950104, 13.0771449], [80.1950526, 13.0772421], [80.1951023, 13.0773358], [80.1951593, 13.0774255], [80.1952233, 13.0775107], [80.1952938, 13.0775907], [80.1953705, 13.0776653], [80.1954528, 13.0777339], [80.195536, 13.0777932], [80.1956235, 13.0778465], [80.1957148, 13.0778933], [80.1958093, 13.0779335], [80.1959066, 13.0779668], [80.1960062, 13.077993], [80.1961075, 13.0780121], [80.196276, 13.0780187], [80.1965547, 13.0780207], [80.1968889, 13.0780153], [80.1971729, 13.0780152], [80.1974257, 13.0780518], [80.1975369, 13.0780892], [80.197632, 13.078124], [80.1977553, 13.0781836], [80.197833, 13.0782275], [80.1979359, 13.0782915], [80.1980335, 13.078366], [80.1981123, 13.0784352], [80.198175, 13.0785045], [80.1982284, 13.0785815], [80.1982818, 13.0786572], [80.1983619, 13.0788058], [80.1984282, 13.0789582], [80.1984978, 13.0792247], [80.1985087, 13.0793242], [80.1985072, 13.0794764], [80.1984851, 13.0796803], [80.1984554, 13.0798314], [80.1984554, 13.0798314], [80.1983321, 13.0804849], [80.1982754, 13.0812582], [80.1983089, 13.0820842], [80.1982895, 13.084286], [80.1983699, 13.0845643], [80.1985655, 13.0848426], [80.1987489, 13.0850412], [80.1989278, 13.0851513], [80.1991375, 13.0852444], [80.1995596, 13.0853481], [80.2006632, 13.0852989], [80.2011955, 13.0852686], [80.2011955, 13.0852686], [80.2015898, 13.085253], [80.2029972, 13.0852309], [80.2065027, 13.085099], [80.2072494, 13.0850687], [80.2084121, 13.0850209], [80.2088936, 13.0849998], [80.2091755, 13.0849905], [80.2100939, 13.084946], [80.2105822, 13.084898], [80.2132214, 13.0847938], [80.2132214, 13.0847938], [80.2182291, 13.0846865], [80.2203688, 13.0846312], [80.2203688, 13.0846312], [80.2207263, 13.0846081], [80.2213365, 13.0845036], [80.2221304, 13.0842332], [80.2233052, 13.0837629], [80.2245927, 13.0825403], [80.225183, 13.081375], [80.2253245, 13.0810087], [80.2253477, 13.08062], [80.225143, 13.0776718], [80.225143, 13.0776718], [80.2250996, 13.0773098], [80.2250756, 13.0767037], [80.2251065, 13.0764087], [80.2252573, 13.076133], [80.2255555, 13.0758563], [80.2260576, 13.0756117], [80.2308626, 13.0751839], [80.2315852, 13.0751919], [80.2322, 13.0753693], [80.2328587, 13.0755602], [80.2328587, 13.0755602], [80.2337776, 13.0757923], [80.2354612, 13.076141], [80.2367594, 13.0763748], [80.2405105, 13.0772252], [80.24184, 13.0775285], [80.2426176, 13.0776484], [80.2426176, 13.0776484], [80.2431967, 13.0777216], [80.2444242, 13.0778582], [80.2462222, 13.0779973], [80.2498861, 13.078734], [80.250155, 13.0787784], [80.2504722, 13.0787915], [80.2504722, 13.0787915], [80.2516048, 13.0788173], [80.2516048, 13.0788173], [80.2522505, 13.0788156], [80.2529827, 13.0787771], [80.2557556, 13.079059], [80.256648, 13.0791628], [80.2568666, 13.079183], [80.2569594, 13.0791911], [80.2570453, 13.0792002], [80.2574122, 13.0792376], [80.2603232, 13.0795424], [80.2609295, 13.0796831], [80.2618951, 13.0800367], [80.2630538, 13.0802886], [80.2630538, 13.0802886], [80.2647616, 13.0806347], [80.2652939, 13.0807295], [80.2672485, 13.080719], [80.268634, 13.0807333], [80.2706194, 13.0807943], [80.2708284, 13.0808412], [80.2713393, 13.0810508], [80.2718917, 13.0812406], [80.2727565, 13.0815846], [80.2739102, 13.0817666], [80.2747477, 13.081925]]}}, {"type": "Feature", "properties": {"ref": "3", "name": "Line 3 \u2014 Madhavaram\u2013SIPCOT", "color": "#E31837", "status": "under_construction", "open_year": 2026}, "geometry": {"type": "LineString", "coordinates": [[80.2383518, 13.1455743], [80.2382724, 13.1442662], [80.2370815, 13.1434388], [80.2368004, 13.1425486], [80.2367897, 13.1421328], [80.2372446, 13.1411444], [80.2377845, 13.1382506], [80.2379703, 13.137601], [80.2380076, 13.1374735], [80.2381522, 13.1364972], [80.2384097, 13.1357428], [80.2388603, 13.1346792], [80.2398817, 13.132623], [80.2405029, 13.1314493], [80.2406692, 13.1311351], [80.2408599, 13.1308214], [80.2414104, 13.1287325], [80.2414384, 13.1268907], [80.2421283, 13.1237086], [80.2425759, 13.1216441], [80.2426759, 13.1212354], [80.2426861, 13.120829], [80.2426631, 13.119794], [80.2424883, 13.1183973], [80.2423761, 13.1178021], [80.2423607, 13.1173051], [80.2427394, 13.116214], [80.2438295, 13.114835], [80.2438819, 13.1144196], [80.2436253, 13.113119], [80.2435727, 13.1129259], [80.2435711, 13.1128233], [80.2435802, 13.1104241], [80.2440087, 13.1093804], [80.2442034, 13.1075361], [80.2443015, 13.1066063], [80.2441674, 13.1052374], [80.2426148, 13.0986649], [80.2425742, 13.0980011], [80.2427834, 13.0975256], [80.2431529, 13.0973152], [80.2433328, 13.0972097], [80.2465224, 13.0970763], [80.2506471, 13.0979255], [80.2581669, 13.0974018], [80.2587618, 13.0972082], [80.2589361, 13.0970341], [80.259038, 13.0967876], [80.2590598, 13.0964206], [80.2589252, 13.094784], [80.2588437, 13.0940565], [80.2584667, 13.0878601], [80.2583709, 13.0875315], [80.2583013, 13.0872923], [80.2582001, 13.0870722], [80.2579975, 13.0869218], [80.2564133, 13.0863681], [80.25477, 13.0857937], [80.2538824, 13.0856022], [80.2515396, 13.0857536], [80.2497572, 13.0858687], [80.2463937, 13.085644], [80.2455595, 13.0853906], [80.2450042, 13.0849856], [80.2437302, 13.0823313], [80.2437115, 13.0817983], [80.244492, 13.0799146], [80.2445751, 13.0793816], [80.244382, 13.0777592], [80.2441889, 13.0772001], [80.2416462, 13.0744254], [80.2413726, 13.0739813], [80.2413028, 13.0733072], [80.2421826, 13.0702647], [80.2436015, 13.0663887], [80.2436486, 13.0661498], [80.2435958, 13.064024], [80.2436651, 13.0637915], [80.2437858, 13.0635877], [80.2462807, 13.0619312], [80.2464597, 13.0618124], [80.2466188, 13.0617052], [80.2470701, 13.0611426], [80.2475672, 13.0602989], [80.2482393, 13.0583443], [80.2484558, 13.0577062], [80.248694, 13.0570049], [80.2489087, 13.0563809], [80.2490738, 13.0558967], [80.2493373, 13.0553105], [80.2499409, 13.0543173], [80.2504735, 13.053897], [80.2512083, 13.0536668], [80.2521965, 13.053907], [80.2556968, 13.0559213], [80.2562573, 13.0562538], [80.2567527, 13.056422], [80.2581793, 13.056703], [80.2591556, 13.0567474], [80.2634686, 13.0566168], [80.2638583, 13.0565052], [80.2642411, 13.0562405], [80.2643969, 13.0560127], [80.264449, 13.0555749], [80.2641928, 13.0539987], [80.2642177, 13.0531191], [80.2654736, 13.0486952], [80.2662667, 13.0465267], [80.2664169, 13.0459634], [80.26661, 13.0446235], [80.2675536, 13.0370508], [80.2679238, 13.0352767], [80.2679037, 13.0348166], [80.2661616, 13.0272595], [80.2659752, 13.0260756], [80.2658447, 13.0257185], [80.2630879, 13.0204674], [80.2628059, 13.0200617], [80.2617021, 13.0189649], [80.2613711, 13.0183405], [80.2592691, 13.0093897], [80.2590276, 13.0087091], [80.258851, 13.0082114], [80.2578471, 13.006841], [80.2575678, 13.0060265], [80.2559612, 12.9970624], [80.2558611, 12.9968442], [80.2557117, 12.9965187], [80.2551163, 12.9959908], [80.2543813, 12.9955727], [80.2513987, 12.9947573], [80.2507335, 12.9944436], [80.250358, 12.9938739], [80.2502861, 12.9931741], [80.2507456, 12.9907851], [80.2529597, 12.9829125], [80.2529597, 12.9829125], [80.252829, 12.9793648], [80.252611, 12.9784588], [80.2516335, 12.9774755], [80.2513983, 12.977032], [80.2509117, 12.9754257], [80.2503635, 12.9734879], [80.2499311, 12.9718836], [80.2497153, 12.97103], [80.2486516, 12.9681666], [80.2469139, 12.9639569], [80.2467196, 12.9635035], [80.2443306, 12.9580986], [80.2427416, 12.9545034], [80.2407817, 12.9490287], [80.2404794, 12.9482461], [80.2396383, 12.9462395], [80.2394562, 12.9458092], [80.2391042, 12.9452192], [80.237288, 12.9434921], [80.2368874, 12.9430943], [80.2366128, 12.9426107], [80.2363898, 12.9418403], [80.2360423, 12.9405775], [80.2359027, 12.9401102], [80.2352564, 12.938698], [80.2346828, 12.9375297], [80.2341017, 12.936326], [80.2335191, 12.9350957], [80.2330138, 12.9340354], [80.2326041, 12.9330668], [80.2322203, 12.9320346], [80.2319335, 12.9311429], [80.2315982, 12.9299361], [80.2313766, 12.9290045], [80.2312067, 12.927814], [80.2310732, 12.9268646], [80.2309518, 12.9258324], [80.2307576, 12.9244009], [80.2306195, 12.9232991], [80.2304602, 12.9220776], [80.2302675, 12.920723], [80.2300961, 12.9194304], [80.2297501, 12.916764], [80.2295514, 12.9154818], [80.2293753, 12.9143741], [80.2290769, 12.9120213], [80.2288039, 12.9101832], [80.2285283, 12.9083775], [80.2282961, 12.9066762], [80.2281889, 12.9048555], [80.2280996, 12.9033009], [80.2279664, 12.9008141], [80.2276922, 12.8963411], [80.2275526, 12.8938563], [80.2273887, 12.892395], [80.2273189, 12.8881206], [80.2272097, 12.8871769], [80.2268177, 12.8857712], [80.2267198, 12.8849599], [80.2267213, 12.8828284], [80.2267363, 12.8810734], [80.2267599, 12.879969], [80.2268021, 12.8788205], [80.2268871, 12.8776165], [80.2269584, 12.8767143], [80.226969, 12.8762853], [80.2269354, 12.8753234], [80.2267169, 12.8734212], [80.2266289, 12.870883], [80.2263983, 12.8686346], [80.2265214, 12.8668132], [80.2266063, 12.8657637], [80.2265347, 12.8630633], [80.2265329, 12.8627132], [80.2266123, 12.8613271], [80.2264965, 12.8600024], [80.2262455, 12.8585213], [80.2262541, 12.8576239], [80.2266811, 12.8533458], [80.2266403, 12.8502633], [80.2265816, 12.8480516], [80.2266005, 12.8465464], [80.2266257, 12.8451408], [80.2266546, 12.8445796], [80.2269, 12.8429014], [80.2273371, 12.8411071], [80.2277222, 12.8396083], [80.2282414, 12.8374409], [80.2284356, 12.8363537], [80.2286123, 12.8351842], [80.228782, 12.8341243], [80.2288667, 12.8338303], [80.2289134, 12.8326306], [80.228734, 12.8321119], [80.2282351, 12.8316569], [80.2273348, 12.8313095], [80.2260894, 12.8312228], [80.2202772, 12.8312251], [80.21983, 12.8310621], [80.2195662, 12.8308409], [80.2194336, 12.8304424], [80.2194608, 12.8209489]]}}, {"type": "Feature", "properties": {"ref": "4", "name": "Line 4 \u2014 Poonamallee\u2013Light House", "color": "#FFC72C", "status": "planned", "open_year": 2027}, "geometry": {"type": "LineString", "coordinates": [[80.2801037, 13.0439388], [80.2795538, 13.0406307], [80.2778506, 13.0358697], [80.277518, 13.035253], [80.2766115, 13.0344012], [80.2755547, 13.0340301], [80.2744745, 13.0340692], [80.267669, 13.0367849], [80.2661616, 13.0371345], [80.2621382, 13.0372703], [80.2614516, 13.0373749], [80.2597511, 13.0381536], [80.258351, 13.0382685], [80.2571125, 13.0378608], [80.2560458, 13.036872], [80.255202, 13.0360474], [80.2502708, 13.0296623], [80.2498698, 13.0293787], [80.2494235, 13.0291891], [80.2491789, 13.0291865], [80.2487735, 13.0291738], [80.2474439, 13.0293636], [80.2474439, 13.0293636], [80.2461201, 13.0295512], [80.2402113, 13.0308847], [80.2396803, 13.031201], [80.2338136, 13.0405411], [80.2325079, 13.042222], [80.2308369, 13.0488277], [80.2307752, 13.0492013], [80.2310327, 13.0510565], [80.230861, 13.0515817], [80.2289647, 13.0536903], [80.2284282, 13.0539881], [80.2278953, 13.0539735], [80.2255845, 13.0536793], [80.2255845, 13.0536793], [80.2237003, 13.05327], [80.2202986, 13.0523582], [80.2187955, 13.0519955], [80.218314, 13.0518085], [80.2164909, 13.0511343], [80.2155473, 13.0508512], [80.2150551, 13.0507021], [80.2146091, 13.0505365], [80.2135935, 13.0501496], [80.2134183, 13.0501144], [80.2085687, 13.0493895], [80.2069409, 13.0488239], [80.2067849, 13.0487697], [80.2043206, 13.0480106], [80.2033131, 13.0477334], [80.202324, 13.0475134], [80.2015692, 13.0473987], [80.2008671, 13.0473823], [80.1992967, 13.0473965], [80.1973664, 13.0474284], [80.1953052, 13.0474075], [80.1952022, 13.0474346], [80.1948672, 13.047328], [80.1941532, 13.0468128], [80.1935032, 13.0466982], [80.1908125, 13.0465383], [80.1893371, 13.0464578], [80.1888114, 13.0463178], [80.1872973, 13.0457928], [80.1870417, 13.0456352], [80.1863669, 13.0451183], [80.1859232, 13.0448401], [80.1849882, 13.0443684], [80.183217, 13.0435902], [80.1822223, 13.0431279], [80.181783, 13.0426677], [80.1812087, 13.0424469], [80.1802492, 13.0421693], [80.1795841, 13.0420317], [80.179016, 13.0419873], [80.1771183, 13.0420245], [80.1762604, 13.0418402], [80.1728154, 13.040838], [80.1705049, 13.0397088], [80.1694684, 13.0391392], [80.1689248, 13.0389183], [80.1677459, 13.0386585], [80.1660904, 13.038367], [80.1650377, 13.0382658], [80.1633676, 13.0381471], [80.1619693, 13.0378657], [80.160134, 13.0376063], [80.1594927, 13.0374629], [80.158651, 13.0371661], [80.1576019, 13.0366299], [80.1571974, 13.0362899], [80.1564619, 13.03553], [80.1559147, 13.0351929], [80.1554614, 13.0351381], [80.1550745, 13.0352186], [80.1532931, 13.0360798], [80.1530259, 13.0361777], [80.1526877, 13.036245], [80.1511371, 13.0361972], [80.1480414, 13.0361453], [80.1466385, 13.0361701], [80.1464039, 13.0361785], [80.1457965, 13.0362511], [80.1448489, 13.0363987], [80.1425925, 13.0367156], [80.1398553, 13.0371288], [80.1385596, 13.0373239], [80.1370125, 13.0375141], [80.1366435, 13.0375782], [80.136061, 13.0377412], [80.135154, 13.0380777], [80.1325846, 13.0391155], [80.1308795, 13.0397468], [80.1285778, 13.0406065], [80.1267015, 13.0413553], [80.1254766, 13.0419039], [80.1241384, 13.0424717], [80.1228693, 13.0430466], [80.1209224, 13.043805], [80.1191503, 13.0445757], [80.1179722, 13.0450038], [80.117272, 13.0451611], [80.1170079, 13.0452523], [80.1161186, 13.0449904], [80.1157039, 13.0449928], [80.1143509, 13.0453811], [80.1129637, 13.045863], [80.1125538, 13.0459758], [80.1102627, 13.0469726], [80.1095083, 13.0473477], [80.1087944, 13.0477467], [80.1079254, 13.0482523], [80.1073307, 13.0485711], [80.1068354, 13.0487773], [80.1059601, 13.0490976], [80.1046917, 13.0495721], [80.1041202, 13.049701], [80.1033378, 13.0497351], [80.1014017, 13.0496836], [80.1007559, 13.0497398], [80.0992232, 13.0503441], [80.095906, 13.0508631], [80.0947637, 13.0509117], [80.0939541, 13.0507949], [80.0923978, 13.0502026], [80.0920186, 13.0500872], [80.0915745, 13.0500353], [80.0898849, 13.0498013], [80.0883258, 13.0494341], [80.0854872, 13.0491024], [80.0845257, 13.0488319], [80.0825119, 13.0482293]]}}, {"type": "Feature", "properties": {"ref": "5", "name": "Line 5: Madhavaram \u2192 Shozhinganallur (u/c)", "color": "#FF0000", "status": "unknown", "open_year": null}, "geometry": {"type": "LineString", "coordinates": [[80.2372999, 13.1435755], [80.2382893, 13.1442583], [80.2390899, 13.1466834], [80.2409489, 13.1513442], [80.2413524, 13.1535051], [80.2375729, 13.1566851], [80.2367741, 13.1572892], [80.2360495, 13.1577918], [80.235604, 13.1580759], [80.2348452, 13.1585826], [80.2336825, 13.1593746], [80.2330167, 13.1597961], [80.2322876, 13.1603094], [80.2314134, 13.1609513], [80.2309775, 13.1613094], [80.2306461, 13.1615676], [80.2294164, 13.1625535], [80.2290665, 13.1627923], [80.2288611, 13.1629093], [80.2286933, 13.1629477], [80.2286319, 13.1629461], [80.2284499, 13.1629332], [80.2282126, 13.1628981], [80.2279793, 13.1628183], [80.2278186, 13.1627043], [80.2275392, 13.1623733], [80.2273324, 13.1620062], [80.2272101, 13.1617241], [80.2268699, 13.1609299], [80.2266757, 13.1604446], [80.2264371, 13.1598722], [80.2261508, 13.1591692], [80.2258639, 13.158457], [80.2257595, 13.1582127], [80.2254421, 13.1574102], [80.2241949, 13.1543754], [80.2230438, 13.1515379], [80.2225169, 13.1502235], [80.2224943, 13.1496695], [80.2223221, 13.1492316], [80.2221668, 13.1487433], [80.2219939, 13.1483332], [80.2217365, 13.1477], [80.2212266, 13.1465429], [80.2207055, 13.1453438], [80.2203489, 13.1445854], [80.2202608, 13.1443431], [80.2199621, 13.1434602], [80.2195204, 13.1424736], [80.2190493, 13.141426], [80.2185199, 13.1401909], [80.2182016, 13.139569], [80.2179646, 13.1393781], [80.2158004, 13.1343399], [80.2141585, 13.1307066], [80.2137615, 13.1300932], [80.2129638, 13.129465], [80.2120721, 13.1289712], [80.2093443, 13.1275317], [80.2093443, 13.1275317], [80.2071282, 13.1262589], [80.2067697, 13.1260788], [80.2064804, 13.1259012], [80.206235, 13.1257598], [80.2054941, 13.1253714], [80.2053882, 13.1253126], [80.2046231, 13.1248882], [80.2043396, 13.1237446], [80.204542, 13.1225666], [80.207429, 13.1195536], [80.2077067, 13.1190791], [80.2094543, 13.118069], [80.209862, 13.1175779], [80.2117824, 13.1129072], [80.2118361, 13.1123534], [80.2116215, 13.1117578], [80.210216, 13.1104203], [80.2080488, 13.1056332], [80.2077725, 13.1042812], [80.2075338, 13.1040122], [80.2070725, 13.1039234], [80.2027025, 13.1035798], [80.1993256, 13.1031957], [80.1978579, 13.102437], [80.1978579, 13.102437], [80.1972878, 13.1018884], [80.1968265, 13.1011413], [80.1967513, 13.1006501], [80.1967889, 13.1000335], [80.1969171, 13.0995597], [80.197068, 13.0993038], [80.197698, 13.0986365], [80.1984179, 13.0978831], [80.1986797, 13.0969008], [80.1986557, 13.0929016], [80.1986101, 13.0907776], [80.1987407, 13.0901598], [80.1987504, 13.0891402], [80.1989181, 13.0889101], [80.1988797, 13.0872913], [80.1987965, 13.0862276], [80.1988072, 13.0856372], [80.1987529, 13.0844202], [80.1987425, 13.0830244], [80.1985776, 13.0823257], [80.1985674, 13.0817499], [80.1985431, 13.0809544], [80.1986685, 13.0800501], [80.1987977, 13.0789964], [80.1990681, 13.0783999], [80.1997329, 13.074766], [80.199997, 13.0741272], [80.2014282, 13.0728789], [80.2018475, 13.0722569], [80.2019119, 13.0718232], [80.20181, 13.0712797], [80.1988786, 13.0662269], [80.1968816, 13.0624112], [80.1960552, 13.0609022], [80.1956871, 13.0602009], [80.1943396, 13.0574936], [80.192248, 13.0532913], [80.1921687, 13.0529117], [80.1920679, 13.0510088], [80.1920947, 13.0496366], [80.1921457, 13.0490152], [80.1923058, 13.048355], [80.1924577, 13.0479102], [80.1925661, 13.0475681], [80.1925768, 13.0472558], [80.1924115, 13.0469085], [80.1921624, 13.04667], [80.19187, 13.046585], [80.1908122, 13.0465223], [80.1898411, 13.046474], [80.1893398, 13.046449], [80.188817, 13.0463104], [80.187301, 13.0457807], [80.1870448, 13.0456243], [80.1863681, 13.0451119], [80.1859261, 13.0448275], [80.1849792, 13.0443543], [80.1822271, 13.0431189], [80.1817851, 13.0426606], [80.1812, 13.0424396], [80.1802762, 13.0421706], [80.179586, 13.042026], [80.1790077, 13.0419786], [80.177128, 13.0420124], [80.1762668, 13.0418322], [80.1730849, 13.0408836], [80.1728284, 13.0408071], [80.1722661, 13.0405258], [80.1703619, 13.0395734], [80.1694683, 13.0391264], [80.1689267, 13.038901], [80.16775, 13.038649], [80.1660855, 13.0383563], [80.1650401, 13.0382536], [80.1633817, 13.0381287], [80.1619684, 13.0378485], [80.1601529, 13.0375884], [80.1594982, 13.0374524], [80.1586721, 13.0371908], [80.1576145, 13.0366106], [80.1572022, 13.0362822], [80.1566792, 13.035517], [80.1566067, 13.0350597], [80.1567918, 13.0346886], [80.1570911, 13.0345186], [80.1583074, 13.0343867], [80.1598173, 13.0343265], [80.1839652, 13.0208643], [80.1854448, 13.020191], [80.1857461, 13.019762], [80.186291, 13.0187529], [80.187011, 13.0180726], [80.1894379, 13.0167066], [80.1918413, 13.0153529], [80.1936763, 13.0141962], [80.1957982, 13.0108963], [80.195939, 13.0105483], [80.1959444, 13.0095233], [80.19628, 13.0087093], [80.1964677, 13.0086161], [80.198485, 13.0086038], [80.2008829, 13.0086214], [80.2021133, 13.0085768], [80.2034994, 13.0085789], [80.2038599, 13.0084754], [80.2040248, 13.008171], [80.2041128, 13.0078871], [80.2039125, 13.0073579], [80.2022762, 13.005631], [80.2009857, 13.0030294], [80.2006564, 13.0023099], [80.2005244, 13.0020076], [80.2004326, 13.0017511], [80.2003186, 13.0014161], [80.2003141, 13.0014028], [80.2002781, 13.0004523], [80.2002789, 12.9997365], [80.2002793, 12.9991823], [80.2002988, 12.9988828], [80.2003407, 12.9986813], [80.2003864, 12.9981129], [80.2005439, 12.9973598], [80.2005836, 12.9967514], [80.2005696, 12.9965465], [80.2004559, 12.9962099], [80.2003722, 12.9960719], [80.2001673, 12.9958408], [80.2000418, 12.9957279], [80.1997886, 12.9955722], [80.1965588, 12.9943716], [80.1961505, 12.9940349], [80.1959253, 12.9937298], [80.1956475, 12.9931619], [80.1954572, 12.9884769], [80.1954412, 12.9881452], [80.195574, 12.9873584], [80.1959169, 12.9862495], [80.1960125, 12.9856049], [80.1958597, 12.9842338], [80.195654, 12.9828922], [80.195442, 12.9811502], [80.194738, 12.9798535], [80.1940112, 12.9787328], [80.1937123, 12.9773046], [80.1928869, 12.9761099], [80.1923361, 12.9748073], [80.1913742, 12.9723071], [80.1887357, 12.9664001], [80.187768, 12.9637149], [80.1873254, 12.9613807], [80.1871305, 12.960141], [80.18697, 12.9564161], [80.186476, 12.9532974], [80.1863036, 12.9522088], [80.1853707, 12.9494199], [80.1847788, 12.9478293], [80.1833694, 12.9459248], [80.1831385, 12.9456224], [80.1830897, 12.9454993], [80.1830049, 12.944249], [80.182931, 12.942763], [80.1827956, 12.9412524], [80.1826224, 12.9396944], [80.1822796, 12.9383412], [80.1822659, 12.9363629], [80.1823866, 12.9353675], [80.1815368, 12.9312771], [80.1815004, 12.931073], [80.1814807, 12.9307625], [80.1815626, 12.930341], [80.1822901, 12.9273809], [80.1830502, 12.923043], [80.1837173, 12.920805], [80.1839273, 12.9206081], [80.1841664, 12.9205013], [80.1857224, 12.9203471], [80.1860386, 12.9202503], [80.1882261, 12.9183628], [80.1889983, 12.9177683], [80.1898435, 12.9173913], [80.1936346, 12.9169354], [80.1939458, 12.9168203], [80.1941711, 12.9165955], [80.1943492, 12.9162299], [80.1951431, 12.9127182], [80.1953448, 12.9123627], [80.1983499, 12.9080542], [80.1985899, 12.9078291], [80.1987984, 12.9077493], [80.2024536, 12.9074957], [80.2025964, 12.9074858], [80.2037079, 12.9073582], [80.2043424, 12.9071724], [80.2043795, 12.9071616], [80.2049503, 12.9067496], [80.2053982, 12.9065053], [80.2167885, 12.901985], [80.2173998, 12.9018185], [80.2233879, 12.9010942], [80.2280718, 12.9009529]]}}, {"type": "Feature", "properties": {"ref": "2A", "name": "Inter-Corridor Line (Chennai International Airport \u2192 Chennai Central)", "color": "#53b848", "status": "unknown", "open_year": null}, "geometry": {"type": "LineString", "coordinates": [[80.1600287, 12.9783606], [80.1603206, 12.9785499], [80.1609407, 12.9789443], [80.1615788, 12.9793835], [80.1621288, 12.9798004], [80.1623231, 12.9799478], [80.1624714, 12.9800512], [80.1626767, 12.980182], [80.16282, 12.9802631], [80.1629722, 12.9803412], [80.1631125, 12.9804124], [80.1632287, 12.9804622], [80.1633579, 12.9805178], [80.1635162, 12.9805784], [80.1641592, 12.9808178], [80.1641592, 12.9808178], [80.1642111, 12.9808371], [80.164832, 12.9810681], [80.1650532, 12.9811495], [80.1652288, 12.9812141], [80.1654211, 12.9812843], [80.1656686, 12.9813746], [80.1660449, 12.9815152], [80.1663384, 12.9816217], [80.1665337, 12.9816882], [80.1669086, 12.9818392], [80.1672684, 12.9820185], [80.167459, 12.9821228], [80.168589, 12.9828184], [80.1689737, 12.9830629], [80.1692771, 12.9832488], [80.1698666, 12.9836189], [80.1706971, 12.9841132], [80.1709684, 12.9842796], [80.1710949, 12.9843505], [80.1712832, 12.984444], [80.171532, 12.9845623], [80.1719507, 12.9847573], [80.1726127, 12.9850818], [80.1726688, 12.9851115], [80.1727348, 12.9851464], [80.1728103, 12.9851895], [80.1729792, 12.9852972], [80.1740618, 12.9860305], [80.1741688, 12.9861], [80.174382, 12.9862443], [80.1747, 12.9864624], [80.1751796, 12.9867944], [80.1756095, 12.9870988], [80.1757477, 12.987192], [80.1759304, 12.9873217], [80.1761684, 12.9874867], [80.1764378, 12.9876709], [80.1764893, 12.9877062], [80.1769823, 12.9880631], [80.1773053, 12.9882874], [80.1776602, 12.9885441], [80.1777452, 12.9886076], [80.1778444, 12.9886925], [80.1779549, 12.9887947], [80.1783494, 12.9892012], [80.1784351, 12.989291], [80.1785159, 12.9893772], [80.1786257, 12.989487], [80.1787461, 12.9896023], [80.1788538, 12.9896989], [80.1791173, 12.9899115], [80.1795586, 12.9902676], [80.1799029, 12.9905373], [80.1799029, 12.9905373], [80.1804709, 12.9909757], [80.1809674, 12.9913673], [80.1814556, 12.9917427], [80.1816598, 12.9919023], [80.1819987, 12.9921576], [80.1822335, 12.9923377], [80.1825142, 12.9925273], [80.182799, 12.9927131], [80.1831467, 12.9929299], [80.1834949, 12.9931319], [80.1840747, 12.9934486], [80.1849823, 12.9939456], [80.1853932, 12.9941755], [80.1865639, 12.9948154], [80.18681, 12.9949478], [80.187173, 12.9951394], [80.1874205, 12.9952628], [80.1877903, 12.9954496], [80.1884126, 12.9957589], [80.188715, 12.995914], [80.188715, 12.995914], [80.1889286, 12.996054], [80.1890875, 12.9961626], [80.1892945, 12.9963256], [80.1894465, 12.9964544], [80.1895831, 12.9965741], [80.1899662, 12.996919], [80.1904006, 12.997305], [80.190499, 12.9973863], [80.1906501, 12.9974918], [80.1908195, 12.9975938], [80.1911142, 12.9977522], [80.191357, 12.9978807], [80.1914153, 12.9979139], [80.1915828, 12.9980073], [80.1916967, 12.9980808], [80.1918158, 12.9981679], [80.192191, 12.9984614], [80.192599, 12.9987799], [80.1935731, 12.9995545], [80.1939756, 12.9998739], [80.1945495, 13.0003292], [80.1950664, 13.0007386], [80.1957234, 13.0012541], [80.1962137, 13.001648], [80.1963855, 13.0017761], [80.1965136, 13.0018614], [80.196677, 13.0019435], [80.1968219, 13.0019977], [80.196987, 13.0020338], [80.1972262, 13.0020584], [80.1973998, 13.0020469], [80.1978159, 13.0019895], [80.1983428, 13.0019565], [80.1983428, 13.0019565], [80.198511, 13.0019304], [80.1992446, 13.0018827], [80.1994646, 13.0018735], [80.199586, 13.0018772], [80.1997301, 13.0018957], [80.1999122, 13.0019382], [80.2000487, 13.0019955], [80.2002327, 13.0021045], [80.2003806, 13.0022283], [80.2005001, 13.0023595], [80.2006226, 13.0025019], [80.2007355, 13.0026988], [80.2009152, 13.0029308], [80.2009152, 13.0029308], [80.201155, 13.0034613], [80.2015164, 13.0042275], [80.2018299, 13.0048922], [80.2019511, 13.00516], [80.2020595, 13.005404], [80.2021504, 13.0055874], [80.202294, 13.0059059], [80.2022649, 13.0059597], [80.2025237, 13.0065139], [80.2027037, 13.0069015], [80.2028612, 13.0072349], [80.2029084, 13.0073554], [80.2029535, 13.0074576], [80.203003, 13.0075847], [80.2030423, 13.0076992], [80.203064, 13.0077634], [80.2030943, 13.0078986], [80.2031262, 13.0080695], [80.2031613, 13.0082389], [80.2031788, 13.008399], [80.2031852, 13.0085482], [80.2031578, 13.0088867], [80.2031406, 13.0092762], [80.2031231, 13.0096623], [80.2031286, 13.0099028], [80.203138, 13.0102575], [80.2031487, 13.0104502], [80.2031641, 13.0106704], [80.2032124, 13.0109533], [80.2032606, 13.0111885], [80.2033941, 13.0115714], [80.2035349, 13.0119209], [80.2036074, 13.012132], [80.2037261, 13.0124637], [80.2038462, 13.0128033], [80.2039121, 13.0130087], [80.2040383, 13.0133715], [80.2041606, 13.0136677], [80.2043042, 13.0140442], [80.2044739, 13.0144875], [80.204699, 13.0150977], [80.2049084, 13.0155193], [80.2050367, 13.0158972], [80.2054139, 13.0169572], [80.2054916, 13.0171755], [80.2057341, 13.0178116], [80.2058235, 13.0180675], [80.2058992, 13.018296], [80.2060567, 13.0187194], [80.2061461, 13.0189633], [80.2061968, 13.0191224], [80.2062322, 13.0192778], [80.2062627, 13.019431], [80.2062818, 13.0195722], [80.2062957, 13.0197152], [80.2063058, 13.0198555], [80.2063271, 13.0205657], [80.2063341, 13.0210027], [80.2063431, 13.0213742], [80.2063514, 13.0217779], [80.2063641, 13.0220086], [80.2063739, 13.0222198], [80.2063951, 13.0224308], [80.206423, 13.0225987], [80.2064686, 13.0228544], [80.2065122, 13.0231046], [80.2065564, 13.0233327], [80.2066056, 13.0235672], [80.2067826, 13.0243474], [80.2068479, 13.0248278], [80.2068729, 13.025076], [80.2069037, 13.0254335], [80.2069284, 13.0256268], [80.206953, 13.0257745], [80.2070039, 13.0260075], [80.2070635, 13.026231], [80.2071389, 13.0264549], [80.2072281, 13.0266633], [80.2073289, 13.0268796], [80.2074325, 13.0270716], [80.2075563, 13.0272742], [80.207671, 13.0274357], [80.2077637, 13.0275667], [80.2079379, 13.0277946], [80.2083122, 13.0282792], [80.2084002, 13.0284227], [80.2084564, 13.028521], [80.2085359, 13.0286649], [80.2086141, 13.0288588], [80.2088286, 13.0295659], [80.2090093, 13.03018], [80.2094019, 13.0314943], [80.2095531, 13.0320073], [80.2095993, 13.0321854], [80.2096222, 13.0323261], [80.2096446, 13.0324864], [80.2096587, 13.0326151], [80.2096658, 13.0327989], [80.2096622, 13.033009], [80.2096378, 13.0334171], [80.2096169, 13.0338296], [80.2096203, 13.0339354], [80.2096324, 13.0340394], [80.2096487, 13.0341181], [80.2096758, 13.0342335], [80.2097023, 13.0343151], [80.2097526, 13.0344333], [80.2098036, 13.0345253], [80.209863, 13.0346297], [80.2099366, 13.0347239], [80.2100268, 13.0348192], [80.2100986, 13.0348839], [80.2102342, 13.0349845], [80.2106579, 13.0352393], [80.2111917, 13.0355403], [80.2111917, 13.0355403], [80.2116088, 13.0357932], [80.211834, 13.0359351], [80.2119275, 13.0360071], [80.2120066, 13.036076], [80.2121294, 13.0361969], [80.2122157, 13.0363112], [80.212298, 13.0364539], [80.2123771, 13.0366416], [80.2124145, 13.036788], [80.2124383, 13.0369354], [80.2124377, 13.0371131], [80.2124144, 13.037568], [80.2124063, 13.0376817], [80.2123877, 13.0379415], [80.2123782, 13.038199], [80.2123456, 13.0388455], [80.2123204, 13.0393673], [80.2123058, 13.0397895], [80.2123034, 13.0401434], [80.212295, 13.0413056], [80.212293, 13.0420858], [80.2122973, 13.0430743], [80.2122915, 13.0442403], [80.2122816, 13.0446315], [80.212257, 13.0454202], [80.2122289, 13.0462052], [80.2122114, 13.0469046], [80.2120481, 13.0488302], [80.2119933, 13.0494901], [80.2119929, 13.0498427], [80.2120106, 13.0503889], [80.2120452, 13.0509321], [80.2120687, 13.0513012], [80.212077, 13.0515295], [80.2120711, 13.0517756], [80.212059, 13.0519311], [80.2120235, 13.0521203], [80.2119719, 13.0523433], [80.2119112, 13.052577], [80.2118084, 13.0529967], [80.2117182, 13.0533133], [80.2115532, 13.0539511], [80.2114829, 13.054241], [80.2114525, 13.0544275], [80.21143, 13.0545865], [80.2114198, 13.0547445], [80.2114161, 13.0550194], [80.2114863, 13.0579309], [80.2115104, 13.0586639], [80.2115111, 13.0589288], [80.2115569, 13.0598985], [80.2115977, 13.0611041], [80.2116154, 13.061455], [80.2116305, 13.0616666], [80.2116628, 13.0621179], [80.2116795, 13.0623564], [80.2116795, 13.0623564], [80.2116749, 13.062649], [80.2116116, 13.0636068], [80.2115937, 13.0637723], [80.211577, 13.0638998], [80.2115316, 13.0641505], [80.2114853, 13.0643564], [80.2113734, 13.0646033], [80.2112266, 13.064905], [80.2110868, 13.0651299], [80.2109183, 13.0653495], [80.2104134, 13.0659739], [80.209836, 13.0666373], [80.2096095, 13.066855], [80.2094574, 13.0669685], [80.2082885, 13.0677435], [80.2077545, 13.068077], [80.2075684, 13.0681661], [80.2073368, 13.0682419], [80.2071816, 13.0682723], [80.2070517, 13.0682971], [80.2068089, 13.0683139], [80.2062244, 13.0683166], [80.2057583, 13.068319], [80.2055034, 13.06833], [80.2050588, 13.0683678], [80.2046817, 13.06841], [80.2039344, 13.0685084], [80.2039344, 13.0685084], [80.2032998, 13.0686028], [80.2023178, 13.0687429], [80.2020455, 13.0687984], [80.2019098, 13.0688306], [80.2017741, 13.0688753], [80.2014376, 13.0690084], [80.2010434, 13.0691571], [80.2008734, 13.0692266], [80.2006523, 13.0692957], [80.2004212, 13.0693439], [80.200194, 13.0693722], [80.2000339, 13.0693807], [80.1998551, 13.0693799], [80.1980794, 13.0693479], [80.1963681, 13.0693206], [80.1961692, 13.0693329], [80.1959928, 13.0693615], [80.1958011, 13.0694153], [80.1956222, 13.0694934], [80.1954254, 13.0696092], [80.1952853, 13.0697186], [80.1951574, 13.069851], [80.1950843, 13.069951], [80.1949992, 13.0700856], [80.1949412, 13.0701915], [80.1948981, 13.0703008], [80.1948527, 13.0704409], [80.1948171, 13.0706356], [80.1948096, 13.0707383], [80.1948056, 13.0708666], [80.1948133, 13.0717291], [80.1948168, 13.0719733], [80.194818, 13.0720687], [80.1948356, 13.0727465], [80.1948572, 13.073445], [80.1948572, 13.073445], [80.1948833, 13.074478], [80.1948943, 13.0749286], [80.1948967, 13.0751164], [80.1948991, 13.075307], [80.1949012, 13.075472], [80.1949139, 13.0757885], [80.1949213, 13.0761161], [80.1949236, 13.0762208], [80.1949236, 13.0762208], [80.1949428, 13.0766749], [80.1949449, 13.0768246], [80.194976, 13.0770448], [80.1950104, 13.0771449], [80.1950526, 13.0772421], [80.1951023, 13.0773358], [80.1951593, 13.0774255], [80.1952233, 13.0775107], [80.1952938, 13.0775907], [80.1953705, 13.0776653], [80.1954528, 13.0777339], [80.195536, 13.0777932], [80.1956235, 13.0778465], [80.1957148, 13.0778933], [80.1958093, 13.0779335], [80.1959066, 13.0779668], [80.1960062, 13.077993], [80.1961075, 13.0780121], [80.196276, 13.0780187], [80.1965547, 13.0780207], [80.1968889, 13.0780153], [80.1971729, 13.0780152], [80.1974257, 13.0780518], [80.1975369, 13.0780892], [80.197632, 13.078124], [80.1977553, 13.0781836], [80.197833, 13.0782275], [80.1979359, 13.0782915], [80.1980335, 13.078366], [80.1981123, 13.0784352], [80.198175, 13.0785045], [80.1982284, 13.0785815], [80.1982818, 13.0786572], [80.1983619, 13.0788058], [80.1984282, 13.0789582], [80.1984978, 13.0792247], [80.1985087, 13.0793242], [80.1985072, 13.0794764], [80.1984851, 13.0796803], [80.1984554, 13.0798314], [80.1984554, 13.0798314], [80.1983321, 13.0804849], [80.1982754, 13.0812582], [80.1983089, 13.0820842], [80.1982895, 13.084286], [80.1983699, 13.0845643], [80.1985655, 13.0848426], [80.1987489, 13.0850412], [80.1989278, 13.0851513], [80.1991375, 13.0852444], [80.1995596, 13.0853481], [80.2006632, 13.0852989], [80.2011955, 13.0852686], [80.2011955, 13.0852686], [80.2015898, 13.085253], [80.2029972, 13.0852309], [80.2065027, 13.085099], [80.2072494, 13.0850687], [80.2084121, 13.0850209], [80.2088936, 13.0849998], [80.2091755, 13.0849905], [80.2100939, 13.084946], [80.2105822, 13.084898], [80.2132214, 13.0847938], [80.2132214, 13.0847938], [80.2182291, 13.0846865], [80.2203688, 13.0846312], [80.2203688, 13.0846312], [80.2207263, 13.0846081], [80.2213365, 13.0845036], [80.2221304, 13.0842332], [80.2233052, 13.0837629], [80.2245927, 13.0825403], [80.225183, 13.081375], [80.2253245, 13.0810087], [80.2253477, 13.08062], [80.225143, 13.0776718], [80.225143, 13.0776718], [80.2250996, 13.0773098], [80.2250756, 13.0767037], [80.2251065, 13.0764087], [80.2252573, 13.076133], [80.2255555, 13.0758563], [80.2260576, 13.0756117], [80.2308626, 13.0751839], [80.2315852, 13.0751919], [80.2322, 13.0753693], [80.2328587, 13.0755602], [80.2328587, 13.0755602], [80.2337776, 13.0757923], [80.2354612, 13.076141], [80.2367594, 13.0763748], [80.2405105, 13.0772252], [80.24184, 13.0775285], [80.2426176, 13.0776484], [80.2426176, 13.0776484], [80.2431967, 13.0777216], [80.2444242, 13.0778582], [80.2462222, 13.0779973], [80.2498861, 13.078734], [80.250155, 13.0787784], [80.2504722, 13.0787915], [80.2504722, 13.0787915], [80.2516048, 13.0788173], [80.2516048, 13.0788173], [80.2522505, 13.0788156], [80.2529827, 13.0787771], [80.2557556, 13.079059], [80.256648, 13.0791628], [80.2568666, 13.079183], [80.2569594, 13.0791911], [80.2570453, 13.0792002], [80.2574122, 13.0792376], [80.2603232, 13.0795424], [80.2609295, 13.0796831], [80.2618951, 13.0800367], [80.2630538, 13.0802886], [80.2630538, 13.0802886], [80.2647616, 13.0806347], [80.2652939, 13.0807295], [80.2672485, 13.080719], [80.268634, 13.0807333], [80.2706194, 13.0807943], [80.2708284, 13.0808412], [80.2713393, 13.0810508], [80.2718917, 13.0812406], [80.2727565, 13.0815846], [80.2739102, 13.0817666], [80.2747477, 13.081925]]}}]}