{"type": "FeatureCollection", "features": [{"type": "Feature", "properties": {"ref": "3", "name": "Blue Line \u2014 Noida\u2013Dwarka", "color": "#005DA0", "status": "open", "open_year": 2005}, "geometry": {"type": "LineString", "coordinates": [[77.3750964, 28.6282598], [77.3749684, 28.6268633], [77.3749152, 28.6263236], [77.3748703, 28.6258431], [77.3748505, 28.6256324], [77.3747044, 28.624355], [77.3745839, 28.6239031], [77.3742709, 28.6231601], [77.3741298, 28.6226188], [77.3736776, 28.6178897], [77.3736218, 28.6169832], [77.3734416, 28.6152907], [77.3729272, 28.6101732], [77.3728688, 28.6095135], [77.372835, 28.6090141], [77.3727211, 28.6065246], [77.372568, 28.6029811], [77.372309, 28.5975791], [77.3722592, 28.5968713], [77.3722499, 28.5962697], [77.3723016, 28.59582], [77.3723532, 28.5955154], [77.3731131, 28.5932546], [77.3731131, 28.5932546], [77.3732599, 28.5929247], [77.3734149, 28.592655], [77.3736046, 28.59238], [77.3740509, 28.591799], [77.3743848, 28.5914101], [77.3744284, 28.5913594], [77.3745528, 28.591213], [77.3746549, 28.591086], [77.3747488, 28.5909544], [77.3748342, 28.5908183], [77.3749109, 28.5906782], [77.3749786, 28.5905347], [77.3750371, 28.590388], [77.3750863, 28.5902388], [77.3751259, 28.5900873], [77.3751558, 28.5899342], [77.375176, 28.5897798], [77.3751864, 28.5896247], [77.375187, 28.5894693], [77.3751777, 28.5893141], [77.3751587, 28.5891597], [77.3751279, 28.5889975], [77.3750863, 28.5888373], [77.375034, 28.5886794], [77.3749713, 28.5885246], [77.3748983, 28.5883732], [77.3748152, 28.5882259], [77.3747225, 28.5880831], [77.3746204, 28.5879454], [77.3745092, 28.5878132], [77.3743893, 28.5876869], [77.3742612, 28.587567], [77.3740895, 28.5874334], [77.3738728, 28.587295], [77.3735642, 28.58712], [77.3728019, 28.5867347], [77.3717596, 28.5862131], [77.371487, 28.5860643], [77.3712759, 28.5859464], [77.3709718, 28.5857798], [77.3705728, 28.5855322], [77.3664446, 28.5824008], [77.3635215, 28.5802275], [77.3600709, 28.5776483], [77.3600709, 28.5776483], [77.3562496, 28.5747852], [77.3522211, 28.5718155], [77.346399, 28.5674266], [77.3436157, 28.5652811], [77.3406336, 28.5630806], [77.339991, 28.5626044], [77.3398523, 28.562503], [77.3397073, 28.5624087], [77.3395565, 28.5623218], [77.3394002, 28.5622425], [77.3392391, 28.5621712], [77.3390736, 28.5621081], [77.3389042, 28.5620533], [77.3387316, 28.5620071], [77.3385563, 28.5619695], [77.3383789, 28.5619408], [77.3381998, 28.561921], [77.3380198, 28.5619102], [77.3378394, 28.5619084], [77.3376591, 28.5619156], [77.3374796, 28.5619318], [77.3373015, 28.5619569], [77.3371252, 28.5619909], [77.3369515, 28.5620337], [77.3367807, 28.562085], [77.3366136, 28.5621448], [77.3364507, 28.5622129], [77.3362924, 28.562289], [77.3361393, 28.5623729], [77.3359919, 28.5624643], [77.3358506, 28.5625629], [77.3357159, 28.5626684], [77.3349228, 28.5633868], [77.3349228, 28.5633868], [77.3343678, 28.5639195], [77.3336635, 28.5645953], [77.3336635, 28.5645953], [77.3329753, 28.5652805], [77.3318487, 28.5661802], [77.3297837, 28.5675847], [77.3284567, 28.5686384], [77.3274201, 28.5695727], [77.3261467, 28.5707894], [77.3232214, 28.5735417], [77.322679, 28.5740138], [77.322106, 28.5744264], [77.3197195, 28.576509], [77.3185366, 28.5774934], [77.3178293, 28.5781067], [77.3158896, 28.5800418], [77.3151066, 28.580793], [77.3140034, 28.5818481], [77.3135586, 28.582292], [77.3132244, 28.582708], [77.3116814, 28.5849263], [77.310902, 28.5860943], [77.3099795, 28.5877383], [77.3098888, 28.5878759], [77.309789, 28.5880087], [77.3096804, 28.588136], [77.3095635, 28.5882575], [77.3094387, 28.5883727], [77.3093063, 28.5884812], [77.3091668, 28.5885827], [77.3090207, 28.5886768], [77.3088686, 28.5887632], [77.308711, 28.5888415], [77.3085483, 28.5889115], [77.3083974, 28.5889674], [77.3082432, 28.5890162], [77.3080863, 28.5890577], [77.3079271, 28.5890918], [77.3077661, 28.5891184], [77.3076037, 28.5891374], [77.3074403, 28.5891487], [77.3072765, 28.5891523], [77.3069975, 28.5891615], [77.3031622, 28.5891144], [77.3015826, 28.5891047], [77.2996324, 28.5891097], [77.2991329, 28.5891295], [77.2986889, 28.5892076], [77.2983229, 28.5893167], [77.2980253, 28.5894381], [77.2976684, 28.5896441], [77.2973373, 28.5898787], [77.2971186, 28.5900834], [77.2969188, 28.5903332], [77.2960217, 28.5916682], [77.2956373, 28.5922724], [77.2954103, 28.5926325], [77.2950039, 28.5933887], [77.2944279, 28.5944669], [77.2941756, 28.5949635], [77.2933959, 28.596475], [77.2933049, 28.59667], [77.2932273, 28.5968187], [77.2921715, 28.5988588], [77.291538, 28.6001698], [77.2902409, 28.6025592], [77.29002, 28.6030161], [77.2898726, 28.6032923], [77.2897437, 28.6035907], [77.2895211, 28.6040558], [77.2890222, 28.605046], [77.288516, 28.60605], [77.2876826, 28.6077848], [77.2873889, 28.6084248], [77.2870581, 28.6089423], [77.2867108, 28.6094447], [77.2865322, 28.6097], [77.2860244, 28.6102844], [77.2847102, 28.6118604], [77.2841688, 28.6125812], [77.283595, 28.6133897], [77.2825446, 28.6148752], [77.2823001, 28.6151768], [77.282048, 28.6154409], [77.2817296, 28.6157112], [77.2813828, 28.6159594], [77.2809086, 28.6162838], [77.280563, 28.6165713], [77.280283, 28.6168532], [77.279998, 28.6172058], [77.2795258, 28.6178791], [77.2795258, 28.6178791], [77.2788595, 28.6186943], [77.2763258, 28.6221264], [77.2757968, 28.6228661], [77.2754229, 28.623383], [77.2753189, 28.6235143], [77.275226, 28.6236224], [77.275131, 28.6237224], [77.2750289, 28.6238204], [77.2749169, 28.6239154], [77.2747705, 28.6240245], [77.2708284, 28.6241594], [77.2714451, 28.6243791], [77.2716612, 28.6244486], [77.2718938, 28.6245188], [77.2720953, 28.6245666], [77.2722945, 28.6246004], [77.2724759, 28.6246219], [77.2727248, 28.6246342], [77.272941, 28.6246295], [77.2731889, 28.6246126], [77.2734323, 28.6245746], [77.2736584, 28.6245268], [77.2738729, 28.6244624], [77.2740713, 28.6243947], [77.274287, 28.6243101], [77.2744972, 28.6242008], [77.2747705, 28.6240245], [77.2708284, 28.6241594], [77.2695306, 28.623687], [77.2688595, 28.623433], [77.2680442, 28.6231406], [77.2676557, 28.6230012], [77.267456, 28.6229378], [77.2672654, 28.6228839], [77.2670714, 28.6228351], [77.2670714, 28.6228351], [77.2668631, 28.6227814], [77.2666841, 28.6227364], [77.2664987, 28.6226871], [77.2663171, 28.6226343], [77.2661397, 28.6225765], [77.2653245, 28.6222851], [77.2653245, 28.6222851], [77.2645482, 28.6220038], [77.2637054, 28.6217006], [77.2634908, 28.6216301], [77.2632702, 28.62156], [77.2630554, 28.621501], [77.262834, 28.6214455], [77.2618487, 28.6212187], [77.260806, 28.6210549], [77.260806, 28.6210549], [77.2590603, 28.620851], [77.2555538, 28.6204208], [77.2535517, 28.6201594], [77.2526856, 28.6200876], [77.2521778, 28.6201154], [77.2513088, 28.6202468], [77.2495452, 28.6205832], [77.2487261, 28.6207666], [77.2478389, 28.6209709], [77.2472663, 28.6210889], [77.2471725, 28.6210986], [77.2461737, 28.6212016], [77.2457371, 28.6212478], [77.2453332, 28.6213336], [77.2448725, 28.6215005], [77.2443039, 28.6218112], [77.2435958, 28.6224422], [77.2425121, 28.6234593], [77.2412569, 28.6246271], [77.240608, 28.625034], [77.240581, 28.6250509], [77.2401089, 28.625211], [77.2397618, 28.625309], [77.2397618, 28.625309], [77.2387534, 28.6253908], [77.2368121, 28.6254804], [77.236144, 28.6255085], [77.236144, 28.6255085], [77.2341954, 28.6255914], [77.2322487, 28.6257268], [77.2319705, 28.6258244], [77.2313975, 28.6260255], [77.2249956, 28.6297527], [77.221105, 28.6319768], [77.2207469, 28.6321814], [77.2206205, 28.6322536], [77.2205143, 28.6323112], [77.2196877, 28.6327591], [77.2189661, 28.6331492], [77.2182038, 28.6335614], [77.2159012, 28.6349648], [77.2159012, 28.6349648], [77.2134769, 28.6364158], [77.2134769, 28.6364158], [77.2085684, 28.6392249], [77.206607, 28.6403887], [77.2054671, 28.6409402], [77.204741, 28.6413692], [77.2042432, 28.6418287], [77.2038431, 28.6422477], [77.2034898, 28.6425729], [77.2031913, 28.6427819], [77.2031419, 28.6428165], [77.2026519, 28.6430946], [77.2015017, 28.6435616], [77.1999053, 28.6442998], [77.1985921, 28.6449175], [77.1978968, 28.645151], [77.1972274, 28.6452188], [77.1965528, 28.6451506], [77.1922747, 28.6444889], [77.1885276, 28.6439905], [77.1782794, 28.6424765], [77.176045, 28.6421276], [77.175621, 28.642082], [77.1752038, 28.6420522], [77.1749153, 28.6420568], [77.1746545, 28.6420748], [77.1743801, 28.6421387], [77.1741309, 28.6422029], [77.173883, 28.6422933], [77.1736417, 28.6423912], [77.173101, 28.642685], [77.1713708, 28.6437838], [77.1692658, 28.6449953], [77.1677619, 28.6459015], [77.1582426, 28.6515664], [77.1555849, 28.653162], [77.1552084, 28.6533908], [77.1546405, 28.6536671], [77.1533085, 28.6541843], [77.1529729, 28.6543473], [77.151873, 28.6549845], [77.1506502, 28.6557294], [77.1499113, 28.6561797], [77.1491537, 28.6566595], [77.148635, 28.6569481], [77.1480607, 28.657322], [77.1471854, 28.6578869], [77.1466153, 28.6582764], [77.1461012, 28.6585121], [77.1455362, 28.658634], [77.1450915, 28.6586865], [77.1447725, 28.6586862], [77.1444585, 28.6586367], [77.144078, 28.6585482], [77.143699, 28.6584413], [77.1424425, 28.6578419], [77.1372614, 28.6549101], [77.135789, 28.6541876], [77.1350961, 28.6537251], [77.1347468, 28.6535833], [77.1343907, 28.6534504], [77.1340088, 28.6533396], [77.1332478, 28.6531359], [77.1316569, 28.652725], [77.1307084, 28.6524795], [77.1282752, 28.6518616], [77.127743, 28.6517109], [77.1272023, 28.6514819], [77.1255945, 28.6505315], [77.1237213, 28.6495104], [77.123391, 28.6493471], [77.122743, 28.6490372], [77.1192715, 28.6476435], [77.1185849, 28.6473422], [77.1179412, 28.6469882], [77.1171742, 28.6465127], [77.1166375, 28.6461295], [77.1157913, 28.6455127], [77.1149028, 28.6449212], [77.1138986, 28.6443337], [77.1128703, 28.6437288], [77.1122679, 28.6434223], [77.1116498, 28.6431209], [77.1108344, 28.6428121], [77.1096671, 28.6423827], [77.1083625, 28.6418102], [77.1064055, 28.6409364], [77.1052347, 28.6404628], [77.1025075, 28.6394436], [77.101316, 28.6390072], [77.1007631, 28.6387865], [77.0996429, 28.6381199], [77.0988696, 28.6376746], [77.0977118, 28.6370908], [77.0970444, 28.6367785], [77.096482, 28.6365265], [77.0956067, 28.6362031], [77.0946812, 28.6359195], [77.0937714, 28.6356107], [77.0930333, 28.6352717], [77.092072, 28.6348121], [77.0912051, 28.6344882], [77.0892996, 28.6339684], [77.0867273, 28.6329889], [77.0858331, 28.6326657], [77.0840483, 28.6319633], [77.0822087, 28.6312238], [77.0807437, 28.6307081], [77.0798717, 28.6303394], [77.0780939, 28.6295652], [77.0770667, 28.6291846], [77.0767038, 28.6290502], [77.075981, 28.6287517], [77.0757988, 28.6286765], [77.0751733, 28.6284398], [77.0746537, 28.6282886], [77.0741789, 28.6281712], [77.0736679, 28.6280198], [77.0730558, 28.6277794], [77.0712605, 28.6270926], [77.0710406, 28.6270136], [77.069113, 28.626251], [77.0680991, 28.6258774], [77.0673539, 28.6256045], [77.0652972, 28.6248301], [77.0639558, 28.624299], [77.0630607, 28.6239348], [77.0614372, 28.6232868], [77.0603231, 28.6228938], [77.0596775, 28.6227052], [77.0583878, 28.622361], [77.05781, 28.6222194], [77.056672, 28.6219755], [77.0557191, 28.6217367], [77.0538016, 28.6214036], [77.052911, 28.6212493], [77.0519345, 28.6211142], [77.0510171, 28.6209873], [77.049426, 28.6208115], [77.0479328, 28.6206255], [77.0469795, 28.6205197], [77.0450835, 28.6202562], [77.044614, 28.6202193], [77.0439778, 28.6201717], [77.0438855, 28.6201695], [77.0433863, 28.6201573], [77.0430026, 28.6201705], [77.0419103, 28.6202496], [77.0412247, 28.6202872], [77.0402903, 28.6202861], [77.0388995, 28.6201524], [77.0378835, 28.6200103], [77.0332835, 28.6192912], [77.0321098, 28.6191455], [77.0314768, 28.619073], [77.0309308, 28.6190437], [77.0305425, 28.6190372], [77.0302437, 28.6190456], [77.0297239, 28.6190854], [77.0272641, 28.6192684], [77.0265477, 28.619327], [77.0260547, 28.6193124], [77.0254836, 28.6191987], [77.0250083, 28.6190098], [77.024661, 28.6188156], [77.0243115, 28.6185686], [77.0239682, 28.6182225], [77.0236742, 28.6178126], [77.0234468, 28.6173183], [77.0232817, 28.6166608], [77.0231665, 28.6162589], [77.0230915, 28.6159973], [77.0227861, 28.6149318], [77.0225161, 28.6140669], [77.0224349, 28.6137954], [77.0223596, 28.6135437], [77.0222813, 28.6132813], [77.0221172, 28.6127323], [77.021927, 28.6120626], [77.0218364, 28.6114379], [77.0218103, 28.6103944], [77.0218207, 28.609301], [77.0220491, 28.6078803], [77.0223614, 28.6069118], [77.022912, 28.6058378], [77.0234006, 28.6050854], [77.024241, 28.6040797], [77.0251205, 28.6030748], [77.0255857, 28.6025851], [77.0259935, 28.602234], [77.0271956, 28.6012979], [77.0298134, 28.5995345], [77.0335556, 28.597025], [77.0407464, 28.5922515], [77.0407464, 28.5922515], [77.0454983, 28.5890622], [77.0494551, 28.586462], [77.0575146, 28.5810731], [77.0613942, 28.5784954], [77.0620379, 28.5780205], [77.0628018, 28.5773874], [77.0632996, 28.5769502], [77.0638232, 28.5763849], [77.0642352, 28.5758799], [77.0646815, 28.5752694], [77.0653509, 28.5742819], [77.0658659, 28.5732493], [77.0662865, 28.5723372], [77.0665955, 28.5716814], [77.0668187, 28.5711311], [77.0670246, 28.5704829], [77.0671362, 28.5699251], [77.0672221, 28.5693371], [77.0672564, 28.5686738], [77.0672564, 28.5682064], [77.0671534, 28.5664425], [77.0670615, 28.5656075], [77.0669149, 28.5648039], [77.0668162, 28.5642611], [77.0666696, 28.5637195], [77.0664393, 28.563005], [77.0662049, 28.5623788], [77.0659181, 28.5617655], [77.0656139, 28.5612208], [77.0656139, 28.5612208], [77.0654887, 28.5609967], [77.0650841, 28.5603518], [77.0648644, 28.5600211], [77.0645316, 28.5595368], [77.0645316, 28.5595368], [77.0630679, 28.5576224], [77.0614555, 28.555648], [77.0609769, 28.555062], [77.0609769, 28.555062], [77.0584649, 28.551986]]}}, {"type": "Feature", "properties": {"ref": "2", "name": "Yellow Line \u2014 Samaypur Badli\u2013HUDA City", "color": "#FFC72C", "status": "open", "open_year": 2004}, "geometry": {"type": "LineString", "coordinates": [[77.1445869, 28.7292802], [77.1414791, 28.731145], [77.1410276, 28.7314693], [77.1407572, 28.7316859], [77.1404829, 28.7319357], [77.1387768, 28.7337523], [77.1386437, 28.7339189], [77.1384983, 28.7341186], [77.1383774, 28.7343235], [77.13829, 28.7345152], [77.1382188, 28.7347148], [77.1381792, 28.7348601], [77.1381477, 28.7350053], [77.1381304, 28.7351613], [77.1381182, 28.7352887], [77.1381141, 28.7354474], [77.1381202, 28.7357112], [77.1381406, 28.7358546], [77.1381812, 28.7360391], [77.1382646, 28.7362958], [77.1383764, 28.7365444], [77.1384841, 28.7367351], [77.1385608, 28.7368529], [77.1387425, 28.7370998], [77.1398643, 28.7383436], [77.1403319, 28.7388619], [77.1405229, 28.739084], [77.140649, 28.7392569], [77.1407379, 28.7394003], [77.1408389, 28.7395836], [77.1409575, 28.7398679], [77.1410099, 28.7400455], [77.1410415, 28.7402015], [77.1410615, 28.7403272], [77.1410738, 28.740469], [77.1410815, 28.7407], [77.1410723, 28.7408722], [77.1410346, 28.7411106], [77.1409313, 28.7414935], [77.1408397, 28.7417123], [77.1407565, 28.741865], [77.1406402, 28.7420697], [77.1404801, 28.7422739], [77.1402992, 28.7424817], [77.1390889, 28.7437881], [77.1388979, 28.7439946], [77.1382993, 28.7446391], [77.1518969, 28.7319305], [77.151453, 28.7316581], [77.1503544, 28.7308998], [77.1488723, 28.7299173], [77.147933, 28.7293112], [77.1476762, 28.7291743], [77.1474048, 28.7290615], [77.1471887, 28.7289871], [77.1469379, 28.7289227], [77.1466462, 28.7288758], [77.146324, 28.7288592], [77.1459802, 28.7288648], [77.1457403, 28.728891], [77.1453954, 28.7289622], [77.1451169, 28.7290406], [77.1448285, 28.7291563], [77.1445869, 28.7292802], [77.1626826, 28.7259874], [77.1610272, 28.7281746], [77.1596372, 28.730011], [77.1591464, 28.730681], [77.1588909, 28.7310299], [77.1585565, 28.7313685], [77.1581447, 28.7316555], [77.1577668, 28.7318561], [77.1572982, 28.7320388], [77.1567612, 28.7321452], [77.1553873, 28.7324628], [77.1548455, 28.7325866], [77.1542928, 28.7326351], [77.1539383, 28.7326474], [77.1535878, 28.7326153], [77.1533052, 28.7325673], [77.152996, 28.7324898], [77.1523982, 28.7322382], [77.1518969, 28.7319305], [77.1701392, 28.7169401], [77.1698017, 28.7173149], [77.1669478, 28.7206363], [77.165829, 28.7218142], [77.1650896, 28.7227004], [77.1626826, 28.7259874], [77.1707019, 28.7163103], [77.1704471, 28.7165981], [77.1701392, 28.7169401], [77.1796031, 28.7073326], [77.179245, 28.7074614], [77.1786395, 28.7077449], [77.178236, 28.7079849], [77.1778417, 28.7082634], [77.1759493, 28.7103861], [77.1707019, 28.7163103], [77.1814968, 28.7066781], [77.1803831, 28.7070686], [77.1796031, 28.7073326], [77.2002413, 28.70044], [77.1940059, 28.7027391], [77.1917788, 28.7036165], [77.1897937, 28.7044934], [77.1891814, 28.7047282], [77.1884849, 28.7049488], [77.1849639, 28.7060793], [77.1846266, 28.7061615], [77.1843021, 28.7062156], [77.1836402, 28.7062788], [77.1831889, 28.7063286], [77.1827395, 28.7063758], [77.1824956, 28.7064115], [77.1822763, 28.7064568], [77.1820166, 28.7065206], [77.1814968, 28.7066781], [77.2010904, 28.7001269], [77.2002413, 28.70044], [77.2227708, 28.6434707], [77.2227816, 28.6434872], [77.2265435, 28.6492513], [77.2301174, 28.656103], [77.2302393, 28.6564821], [77.230366, 28.6584207], [77.2303998, 28.6592561], [77.2300691, 28.6634055], [77.2293674, 28.6652725], [77.2282174, 28.6675256], [77.2276322, 28.6686191], [77.2273518, 28.6693763], [77.2271844, 28.6698284], [77.2262803, 28.6719651], [77.2260729, 28.6725026], [77.2260142, 28.6728174], [77.2259254, 28.6733552], [77.2257995, 28.6741986], [77.2255985, 28.6751287], [77.2255156, 28.6754609], [77.2254614, 28.6756799], [77.2252862, 28.6761867], [77.2250565, 28.6768572], [77.2247458, 28.6777953], [77.2244317, 28.6787857], [77.224237, 28.679299], [77.2239668, 28.6797474], [77.2237344, 28.6800958], [77.2233662, 28.6806767], [77.2230947, 28.6810828], [77.2227698, 28.6815984], [77.2226241, 28.6819146], [77.2225985, 28.682184], [77.2225709, 28.6826877], [77.2217576, 28.6863272], [77.2213587, 28.6888119], [77.2212914, 28.6892431], [77.2212826, 28.6896034], [77.2212567, 28.6904391], [77.2210154, 28.6917596], [77.2207964, 28.69221], [77.2205504, 28.6926146], [77.2203429, 28.6928843], [77.220047, 28.6931], [77.2197933, 28.6932315], [77.2191191, 28.6934509], [77.2184893, 28.6936871], [77.2147478, 28.6950993], [77.2095692, 28.697014], [77.2064225, 28.6981558], [77.2010904, 28.7001269], [77.2198149, 28.6340328], [77.2227708, 28.6434707], [77.2189449, 28.6317424], [77.2192022, 28.6322358], [77.2194242, 28.6327423], [77.2195794, 28.6331664], [77.2197097, 28.633597], [77.2198149, 28.6340328], [77.207832, 28.566854], [77.2079256, 28.56717], [77.2080219, 28.567578], [77.2081047, 28.5679289], [77.2093306, 28.5741591], [77.2095202, 28.574938], [77.2123647, 28.5834288], [77.2125637, 28.5865942], [77.2128297, 28.5896307], [77.2126988, 28.5912769], [77.2111269, 28.5973548], [77.2110196, 28.5981275], [77.2118249, 28.6095117], [77.2123128, 28.615878], [77.2124109, 28.6169191], [77.2126532, 28.6197812], [77.2127668, 28.6211224], [77.2129456, 28.6214623], [77.2140587, 28.6229537], [77.2156887, 28.6254826], [77.2158022, 28.6258215], [77.2158372, 28.6272707], [77.216118, 28.6278386], [77.2184915, 28.6311163], [77.2189449, 28.6317424], [77.1918675, 28.5148552], [77.1924685, 28.5148746], [77.193312, 28.514967], [77.1940326, 28.5150758], [77.1952599, 28.5155507], [77.1964759, 28.5161938], [77.2003092, 28.5196439], [77.2015914, 28.5206873], [77.2018984, 28.5208731], [77.2030309, 28.5215655], [77.2031752, 28.52173], [77.2032764, 28.5219383], [77.2033954, 28.5222108], [77.2034846, 28.5224845], [77.2049702, 28.5281163], [77.2049865, 28.5284594], [77.2048545, 28.5290666], [77.2046768, 28.5297806], [77.2046487, 28.5301158], [77.2054077, 28.532841], [77.2061733, 28.535553], [77.2067571, 28.5384028], [77.2064584, 28.542468], [77.2067402, 28.544258], [77.2068096, 28.546016], [77.2068322, 28.546588], [77.2066966, 28.5474216], [77.2060311, 28.5485583], [77.2059695, 28.5490996], [77.2057484, 28.5518584], [77.2060271, 28.5540506], [77.2061729, 28.5551976], [77.2065039, 28.5564734], [77.2068211, 28.5580022], [77.2074182, 28.5616514], [77.207594, 28.5635563], [77.20761, 28.5660269], [77.207832, 28.566854], [77.1257838, 28.4807159], [77.1268438, 28.4815468], [77.1275441, 28.4820216], [77.1303491, 28.4839816], [77.1314632, 28.4851009], [77.1334073, 28.4866628], [77.135253, 28.4876214], [77.1390199, 28.4893702], [77.1413572, 28.4905322], [77.1421715, 28.4909787], [77.1452252, 28.4920474], [77.1465699, 28.4925885], [77.1491983, 28.4937282], [77.150464, 28.4943167], [77.1560111, 28.496864], [77.1568149, 28.4972138], [77.1578137, 28.4976457], [77.1582622, 28.497838], [77.1586266, 28.4979987], [77.1590629, 28.4981923], [77.1600113, 28.4986061], [77.1609098, 28.4989706], [77.1624247, 28.4995799], [77.1629281, 28.4997841], [77.1632256, 28.4999143], [77.1639618, 28.500257], [77.164311, 28.5004276], [77.1664046, 28.5014359], [77.166661, 28.5015531], [77.1668566, 28.5016351], [77.167108, 28.5017324], [77.1680764, 28.5020911], [77.1683484, 28.5021966], [77.1686059, 28.5023049], [77.1687787, 28.5023848], [77.1694471, 28.5027169], [77.1696755, 28.5028222], [77.1714595, 28.5035214], [77.1716264, 28.5035912], [77.1718105, 28.5036746], [77.1720175, 28.5037795], [77.1722564, 28.5039148], [77.1724848, 28.5040594], [77.1726521, 28.5041774], [77.1728005, 28.50429], [77.1730133, 28.5044665], [77.173222, 28.5046629], [77.1734217, 28.5048789], [77.1749361, 28.5067554], [77.1756859, 28.5077051], [77.1761351, 28.5081765], [77.1763024, 28.5083362], [77.1764708, 28.5084609], [77.1765988, 28.50854], [77.1767583, 28.5086308], [77.1769676, 28.5087298], [77.1771481, 28.5088141], [77.177335, 28.5088783], [77.1774745, 28.5089183], [77.1776886, 28.5089753], [77.1781872, 28.5090252], [77.1789479, 28.5091132], [77.1795075, 28.509217], [77.1798954, 28.5093247], [77.1802682, 28.5094914], [77.1822804, 28.5104832], [77.1843378, 28.511499], [77.1864723, 28.5129302], [77.1878498, 28.5138753], [77.1884417, 28.5142814], [77.1888301, 28.5145163], [77.189081, 28.5146278], [77.1893847, 28.5147315], [77.1898013, 28.5148304], [77.1901926, 28.5148947], [77.1905867, 28.514917], [77.1918675, 28.5148552], [77.0952179, 28.4817578], [77.0960024, 28.4818875], [77.0968527, 28.4819889], [77.0974213, 28.4820478], [77.0979577, 28.4820407], [77.0985585, 28.4819936], [77.0998406, 28.4818509], [77.1004736, 28.4818156], [77.1012193, 28.4818792], [77.102272, 28.4819976], [77.1032739, 28.4821185], [77.1043575, 28.4821185], [77.1051621, 28.4821775], [77.1057227, 28.4822647], [77.1064603, 28.4824297], [77.1067914, 28.4825029], [77.1070785, 28.4825605], [77.1073413, 28.4825944], [77.1076512, 28.4826114], [77.1079931, 28.4826008], [77.1082389, 28.4825623], [77.1085232, 28.4825022], [77.1088419, 28.4824205], [77.1092042, 28.4822788], [77.1097434, 28.4820006], [77.110208, 28.481771], [77.1103951, 28.4817036], [77.1105829, 28.4816399], [77.1109758, 28.4815492], [77.11124, 28.4815067], [77.1117738, 28.4814926], [77.1123786, 28.4815279], [77.113127, 28.4815574], [77.113587, 28.4815645], [77.1141905, 28.4814867], [77.114861, 28.4813429], [77.1159714, 28.4811354], [77.1170229, 28.4809185], [77.1177287, 28.4807528], [77.1181964, 28.4805568], [77.1191039, 28.4799743], [77.1203533, 28.4791391], [77.1209677, 28.4788812], [77.1216248, 28.4787497], [77.122228, 28.4787294], [77.122663, 28.4787874], [77.1230577, 28.4788917], [77.1234321, 28.4790728], [77.1238123, 28.4792633], [77.124427, 28.4797392], [77.1250252, 28.4801823], [77.1257838, 28.4807159], [77.0944226, 28.4815904], [77.0952179, 28.4817578], [77.0726864, 28.4593314], [77.0733894, 28.4601393], [77.0735059, 28.4602904], [77.0736227, 28.4604632], [77.0737056, 28.4606237], [77.0737838, 28.4608055], [77.0738515, 28.4609994], [77.0739087, 28.4612546], [77.073947, 28.4615409], [77.0739427, 28.4618388], [77.073912, 28.4621135], [77.0724516, 28.4723308], [77.071921, 28.4758667], [77.0719863, 28.47653], [77.0721254, 28.4769853], [77.0723661, 28.4774376], [77.0727384, 28.4778545], [77.0731045, 28.4781385], [77.0733917, 28.478303], [77.0736864, 28.4784209], [77.0739498, 28.4785129], [77.0742781, 28.4785837], [77.0798993, 28.4795243], [77.0868222, 28.4805525], [77.0877574, 28.480641], [77.0883003, 28.4805851], [77.088967, 28.4805343], [77.0894482, 28.4805984], [77.0908008, 28.4807987], [77.091599, 28.4809707], [77.0930074, 28.4812437], [77.0944226, 28.4815904]]}}, {"type": "Feature", "properties": {"ref": "1", "name": "Red Line \u2014 Shahdag Marg\u2013Rithala", "color": "#E31837", "status": "open", "open_year": 2002}, "geometry": {"type": "LineString", "coordinates": [[77.1071611, 28.7207878], [77.1078762, 28.7201796], [77.1085064, 28.7197254], [77.1144917, 28.7155751], [77.1153868, 28.7149507], [77.1170034, 28.7138393], [77.1251544, 28.7081973], [77.1251544, 28.7081973], [77.1260218, 28.7075969], [77.1266793, 28.707133], [77.1266793, 28.707133], [77.1290911, 28.7054313], [77.1316304, 28.7036669], [77.1316304, 28.7036669], [77.1322608, 28.7032809], [77.1331896, 28.7025912], [77.1331896, 28.7025912], [77.1377478, 28.6995132], [77.1386592, 28.6989596], [77.1391972, 28.6986703], [77.1397042, 28.6984423], [77.1405541, 28.6980682], [77.1414667, 28.6976666], [77.1453822, 28.6959851], [77.1461268, 28.695652], [77.1466624, 28.6954352], [77.1471981, 28.6952515], [77.1476762, 28.6951021], [77.1481664, 28.6949765], [77.1485101, 28.6949217], [77.14885, 28.6948987], [77.1489304, 28.6949002], [77.1493439, 28.6949077], [77.1496487, 28.6949305], [77.1500681, 28.6950038], [77.1504402, 28.6950978], [77.1510196, 28.6953302], [77.1515498, 28.6956078], [77.1517177, 28.6956934], [77.1517212, 28.6956952], [77.1521332, 28.6959054], [77.1524671, 28.6960757], [77.1533798, 28.696532], [77.1534435, 28.6965639], [77.1539782, 28.6968248], [77.1543239, 28.6969596], [77.1545978, 28.697048], [77.154899, 28.697113], [77.1551867, 28.6971502], [77.1554358, 28.6971525], [77.1557337, 28.6971525], [77.1560187, 28.6971101], [77.1563067, 28.6970552], [77.1565799, 28.6969715], [77.1568105, 28.6968763], [77.1570842, 28.6967412], [77.1573074, 28.6966215], [77.1575364, 28.6964713], [77.1577236, 28.6963297], [77.1579044, 28.6961577], [77.1581106, 28.6959293], [77.1582738, 28.6957052], [77.158417, 28.695435], [77.1589285, 28.694358], [77.1599048, 28.6923478], [77.1604274, 28.6913376], [77.1605788, 28.6910324], [77.1609614, 28.6904581], [77.1611118, 28.6902276], [77.1613854, 28.6896434], [77.1615576, 28.6892951], [77.1617159, 28.6889378], [77.161963, 28.6884204], [77.1621322, 28.688066], [77.1635932, 28.6850066], [77.1642113, 28.6837103], [77.1648073, 28.6824179], [77.1651818, 28.68163], [77.1658683, 28.6801857], [77.166557, 28.6787671], [77.1666988, 28.6784778], [77.1670253, 28.6779522], [77.1673849, 28.6773405], [77.1686621, 28.675297], [77.170371, 28.6736117], [77.1714326, 28.6728427], [77.1721381, 28.6724511], [77.1729328, 28.6720955], [77.1736108, 28.6717979], [77.1741652, 28.6715904], [77.1748379, 28.6714478], [77.1767673, 28.6710624], [77.1808064, 28.6702592], [77.1813879, 28.6701779], [77.181861, 28.6701195], [77.182772, 28.6700622], [77.1853902, 28.6699334], [77.1870098, 28.6698274], [77.1884167, 28.6695396], [77.1944012, 28.6679049], [77.197713, 28.6670317], [77.1989061, 28.6667458], [77.1994112, 28.666608], [77.2016461, 28.6659985], [77.202572, 28.665746], [77.2033867, 28.6657244], [77.203938, 28.665768], [77.2046425, 28.6659468], [77.2055814, 28.6662255], [77.206104, 28.6663029], [77.2074101, 28.6664364], [77.2083561, 28.6666109], [77.2093311, 28.6668714], [77.2099274, 28.6671266], [77.2105367, 28.6674038], [77.2110325, 28.6676235], [77.2114862, 28.6677323], [77.2118944, 28.6678238], [77.2121476, 28.6678519], [77.2124468, 28.6678627], [77.2128914, 28.6678542], [77.213225, 28.6678006], [77.2139221, 28.667671], [77.2156401, 28.6673259], [77.2156401, 28.6673259], [77.2166349, 28.6671922], [77.2176097, 28.6670899], [77.2176097, 28.6670899], [77.2184537, 28.6670128], [77.2193812, 28.6669673], [77.2198171, 28.6669892], [77.2201859, 28.6670506], [77.2230593, 28.6677272], [77.2233832, 28.6677768], [77.2236759, 28.6678153], [77.2241367, 28.6678263], [77.2246162, 28.6678013], [77.2255355, 28.6676811], [77.226435, 28.6675508], [77.2271441, 28.6674817], [77.2282467, 28.6674784], [77.2288641, 28.6675253], [77.2293878, 28.667587], [77.2297816, 28.6676514], [77.2300581, 28.6677083], [77.2304858, 28.6678503], [77.2308995, 28.6680238], [77.2313027, 28.6682273], [77.2317142, 28.6684366], [77.2321318, 28.6686252], [77.2324848, 28.6687403], [77.2334186, 28.6690165], [77.2341739, 28.6693037], [77.238913, 28.6711052], [77.239305, 28.6712541], [77.240071, 28.6715402], [77.240071, 28.6715402], [77.2402923, 28.6716198], [77.2405844, 28.671711], [77.2408452, 28.6717736], [77.241112, 28.6718141], [77.2413841, 28.671834], [77.2416561, 28.6718363], [77.24193, 28.6718118], [77.2422509, 28.6717598], [77.2424841, 28.6716995], [77.2427159, 28.6716233], [77.2429702, 28.6715218], [77.2432208, 28.6714086], [77.2446495, 28.6706812], [77.2454474, 28.670237], [77.245733, 28.6700953], [77.2460315, 28.6699737], [77.2467532, 28.6697145], [77.2505385, 28.6684554], [77.2514847, 28.6681547], [77.25254, 28.6678074], [77.2525993, 28.6677879], [77.2533716, 28.667533], [77.2539824, 28.6673351], [77.2539824, 28.6673351], [77.2544122, 28.6672413], [77.2545273, 28.6672257], [77.2548142, 28.6671872], [77.2552398, 28.6671503], [77.2552398, 28.6671503], [77.2558681, 28.6671899], [77.2563635, 28.6672731], [77.2568638, 28.6674132], [77.2590954, 28.6680345], [77.2606841, 28.6684772], [77.263533, 28.6692282], [77.2652355, 28.6696454], [77.2656406, 28.669719], [77.2656406, 28.669719], [77.2657518, 28.6697391], [77.2657518, 28.6697391], [77.2667628, 28.6699174], [77.2679914, 28.67013], [77.2696201, 28.6703158], [77.2696201, 28.6703158], [77.270176, 28.6704149], [77.270176, 28.6704149], [77.2746454, 28.6712049], [77.2760232, 28.6715225], [77.2778151, 28.6718621], [77.2800145, 28.6721877], [77.2800145, 28.6721877], [77.2810936, 28.6723361], [77.2810936, 28.6723361], [77.2836616, 28.6727735], [77.2856372, 28.6729825], [77.2856372, 28.6729825], [77.2877536, 28.6732142], [77.2880961, 28.6732537], [77.2898815, 28.6734598], [77.2911758, 28.6736409], [77.2933548, 28.6738732], [77.2946664, 28.6740071], [77.2966557, 28.6742872], [77.2968817, 28.6743606], [77.2973248, 28.6745427], [77.2977634, 28.6747626], [77.2985436, 28.6751537], [77.298897, 28.675271], [77.2991965, 28.6753497], [77.2994763, 28.67539], [77.2997437, 28.6754128], [77.3008694, 28.6754151], [77.3025963, 28.6754209], [77.3035533, 28.6755047], [77.3051185, 28.6755782], [77.3084628, 28.6757357], [77.3098709, 28.6757085], [77.3123939, 28.6757505], [77.3154303, 28.6758652], [77.3160367, 28.675918], [77.3168104, 28.6760043], [77.3172489, 28.676042], [77.317772, 28.6760601], [77.3186221, 28.6760404], [77.3201762, 28.6759167], [77.3207328, 28.6758963], [77.3215135, 28.6758851], [77.3223715, 28.6759232], [77.3233821, 28.6760138], [77.3233821, 28.6760138], [77.325348, 28.6761929], [77.3271072, 28.6764512], [77.3279072, 28.676502], [77.3306205, 28.6765965], [77.3319231, 28.6766271], [77.3324134, 28.676648], [77.3339151, 28.6766909], [77.3374597, 28.6767921], [77.3409054, 28.6769197], [77.3442655, 28.6770057], [77.345869, 28.6770664], [77.3460318, 28.6770946], [77.3468626, 28.6771193], [77.3477844, 28.6771708], [77.3481618, 28.6771757], [77.3553062, 28.6774889], [77.3581375, 28.6776405], [77.3624588, 28.6778718], [77.3656172, 28.67803], [77.3689904, 28.6781742], [77.3704847, 28.6782385], [77.3723408, 28.6783184], [77.3752585, 28.6784653], [77.3790234, 28.6786318], [77.3802928, 28.6786928], [77.3809666, 28.6786928], [77.3839016, 28.6785633], [77.3852431, 28.6785041], [77.3862268, 28.6784374], [77.3867254, 28.6783672], [77.3872705, 28.6782525], [77.3881352, 28.678022], [77.3892294, 28.6777416], [77.391894, 28.6770273], [77.3932386, 28.6766669], [77.3959292, 28.6759455], [77.3984881, 28.6752825], [77.3992555, 28.6751536], [77.4002866, 28.675069], [77.4008583, 28.6749953], [77.4018319, 28.6747705], [77.4065483, 28.6734564], [77.4072588, 28.6732146], [77.407712, 28.6730157], [77.4089892, 28.6724695], [77.4106936, 28.6719933], [77.4112532, 28.671843], [77.4126619, 28.6714552], [77.4137443, 28.6711767], [77.4147388, 28.6709199], [77.4153901, 28.6707062]]}}, {"type": "Feature", "properties": {"ref": "4", "name": "Green Line \u2014 Inderlok\u2013Brigadier Hoshiyar", "color": "#00A550", "status": "open", "open_year": 2010}, "geometry": {"type": "LineString", "coordinates": [[77.2679515, 28.6233069], [77.2687472, 28.6235921], [77.2687472, 28.6235921], [77.2688974, 28.6236456], [77.2688974, 28.6236456], [77.2696765, 28.623941], [77.2698526, 28.6240034], [77.2702687, 28.6241471], [77.2702687, 28.6241471], [77.2707054, 28.6243042], [77.2708763, 28.6243683], [77.2710134, 28.6244253], [77.271146, 28.6244852], [77.2712876, 28.6245592], [77.2714194, 28.6246333], [77.2715807, 28.6247416], [77.2717077, 28.624833], [77.2718179, 28.6249156], [77.2719625, 28.6250439], [77.2720867, 28.6251646], [77.2720867, 28.6251646], [77.2722013, 28.6252849], [77.2722749, 28.6253706], [77.272355, 28.6254705], [77.2724471, 28.6256059], [77.272535, 28.6257355], [77.2726623, 28.625942], [77.2727869, 28.6261613], [77.2729594, 28.6264395], [77.2734818, 28.6272894], [77.2737799, 28.627743], [77.2738722, 28.6278756], [77.2740361, 28.6280855], [77.2741419, 28.6282061], [77.2742811, 28.6283519], [77.274395, 28.6284632], [77.2745207, 28.6285737], [77.2746878, 28.6287063], [77.2748661, 28.6288335], [77.275091, 28.628986], [77.2757434, 28.6294197], [77.2761083, 28.6296568], [77.2775015, 28.6306223], [77.2823497, 28.6337225], [77.2854258, 28.6357957], [77.2858943, 28.6360948], [77.2858943, 28.6360948], [77.2867522, 28.6365579], [77.2875506, 28.6369889], [77.2875506, 28.6369889], [77.2918888, 28.6391506], [77.2930343, 28.6397505], [77.2939147, 28.640389], [77.2952594, 28.6414409], [77.2963765, 28.6423175], [77.2994336, 28.644684], [77.3029629, 28.6474478], [77.3032928, 28.6476525], [77.3036491, 28.6478212], [77.3036491, 28.6478212], [77.3045706, 28.6482263], [77.305527, 28.6484435], [77.30649, 28.6485878], [77.3065846, 28.648595], [77.3076246, 28.6486721], [77.3089995, 28.6487063], [77.3092885, 28.6486926], [77.3094976, 28.6486717], [77.3097158, 28.64864], [77.310074, 28.6485688], [77.3106537, 28.6484173], [77.3111088, 28.6483152], [77.3133454, 28.6477563], [77.3141705, 28.6475506], [77.3143364, 28.6475032], [77.3146286, 28.6474197], [77.3151338, 28.6472654], [77.316053, 28.6468919], [77.3168523, 28.6464705], [77.3176304, 28.6460181], [77.3179152, 28.6458525], [77.318206, 28.6456908], [77.3184745, 28.6455673], [77.3187469, 28.6454636], [77.3190551, 28.6453716], [77.3192948, 28.6453162], [77.3195368, 28.6452797], [77.3198197, 28.6452531], [77.3200478, 28.6452494], [77.3228091, 28.6453546], [77.3243389, 28.6454076], [77.3282075, 28.6456521], [77.3319024, 28.6458766], [77.3323387, 28.6459151], [77.3326814, 28.6459619], [77.3329552, 28.6460223], [77.3332326, 28.6461027], [77.3335194, 28.6462029], [77.3337214, 28.6462898], [77.3339122, 28.6463816], [77.3342344, 28.6465631], [77.3358605, 28.6475431], [77.3378985, 28.6488066], [77.3380301, 28.6488864], [77.3388028, 28.6493496], [77.3395056, 28.6497651]]}}, {"type": "Feature", "properties": {"ref": "5", "name": "Violet Line \u2014 Kashmere Gate\u2013Escorts Mujesar", "color": "#8B008B", "status": "open", "open_year": 2010}, "geometry": {"type": "LineString", "coordinates": [[77.1513362, 28.6545554], [77.1523095, 28.6558169], [77.1523095, 28.6558169], [77.1532607, 28.6570721], [77.1534815, 28.6574777], [77.1540277, 28.6585581], [77.1543699, 28.6590403], [77.156017, 28.6608877], [77.1564, 28.6612521], [77.1570256, 28.6617217], [77.1573416, 28.6619426], [77.1575529, 28.6620786], [77.1591752, 28.6630704], [77.1608367, 28.6640006], [77.161438, 28.6643516], [77.1627582, 28.6649848], [77.1631946, 28.6652228], [77.1636225, 28.6655664], [77.1639721, 28.6659517], [77.164188, 28.6664195], [77.1643127, 28.6669231], [77.1642931, 28.6673353], [77.1642512, 28.6676225], [77.1641421, 28.667998], [77.1640386, 28.6682164], [77.1638301, 28.6685477], [77.1635504, 28.6688152], [77.1632008, 28.6690803], [77.162839, 28.66926], [77.1618657, 28.6696913], [77.160235, 28.6703705], [77.1597768, 28.6705626], [77.1594006, 28.6707066], [77.1591023, 28.6708083], [77.1587893, 28.6709084], [77.15855, 28.6709678], [77.1583226, 28.6710216], [77.1580698, 28.6710773], [77.1575923, 28.6711759], [77.1572479, 28.671241], [77.1569009, 28.6712971], [77.1569009, 28.6712971], [77.1559313, 28.6714513], [77.1559313, 28.6714513], [77.1552808, 28.6715367]]}}, {"type": "Feature", "properties": {"ref": "6", "name": "Orange Line \u2014 IGI Airport", "color": "#FF6600", "status": "open", "open_year": 2011}, "geometry": {"type": "LineString", "coordinates": [[77.228075, 28.668686], [77.2297656, 28.6664008], [77.231383, 28.6639851], [77.2315626, 28.6637805], [77.2333497, 28.6625667], [77.2333993, 28.6625356], [77.2334668, 28.6624897], [77.2354399, 28.661147], [77.2356912, 28.6609321], [77.2360193, 28.6604184], [77.236551, 28.6596085], [77.2367507, 28.6582443], [77.2367275, 28.65748], [77.2366984, 28.6567776], [77.2365226, 28.6558546], [77.236478, 28.6553303], [77.2364143, 28.654582], [77.2363156, 28.6534224], [77.2363693, 28.6525767], [77.2365319, 28.6519808], [77.2367581, 28.6513024], [77.2369001, 28.6510938], [77.2376857, 28.6500446], [77.2382991, 28.6492322], [77.239163, 28.6483285], [77.239244, 28.6481284], [77.2394546, 28.6476085], [77.2403329, 28.640823], [77.2405594, 28.6401199], [77.2408097, 28.6392211], [77.2410299, 28.6385415], [77.2412255, 28.637865], [77.2413025, 28.6372112], [77.2412768, 28.6360007], [77.2410728, 28.6281909], [77.2410351, 28.6279182], [77.2408465, 28.6274965], [77.240435, 28.6270538], [77.2396644, 28.6264846], [77.2390765, 28.6261223], [77.2383197, 28.6257081], [77.237621, 28.6254737], [77.2366784, 28.6253647], [77.234191, 28.6254928], [77.2308876, 28.6257083], [77.2201081, 28.6262067], [77.2198936, 28.6261925], [77.2197217, 28.6261589], [77.2196522, 28.6261242], [77.2195986, 28.6260724], [77.2194996, 28.625937], [77.2193688, 28.6256048], [77.2192877, 28.6240472], [77.2190337, 28.6205922], [77.218911, 28.6201922], [77.2188073, 28.6200051], [77.2186661, 28.6198394], [77.2182782, 28.6196306], [77.2133395, 28.6174938], [77.2129752, 28.6172149], [77.2127707, 28.6168122], [77.2124779, 28.6163657], [77.2123897, 28.6158726], [77.2123918, 28.6152832], [77.212457, 28.6148063], [77.2125581, 28.6145298], [77.2127599, 28.6142505], [77.2245897, 28.605152], [77.227605, 28.6032391], [77.2291415, 28.6022643], [77.2298444, 28.601819], [77.2301855, 28.6015325], [77.2302844, 28.6011201], [77.2304906, 28.6002852], [77.2305615, 28.5999979], [77.230829, 28.5989146], [77.2317075, 28.5953568], [77.2331482, 28.5908911], [77.2338082, 28.5882486], [77.2341549, 28.5878033], [77.2343925, 28.5874982], [77.2379636, 28.5849405], [77.2383123, 28.5845255], [77.2392472, 28.5833549], [77.2393458, 28.5830411], [77.2393458, 28.5830411], [77.2391286, 28.5811891], [77.2389048, 28.5805341], [77.2387848, 28.5797787], [77.2387363, 28.5768418], [77.2387363, 28.5768418], [77.2388204, 28.5751991], [77.2387507, 28.5747723], [77.2386261, 28.5743853], [77.2384925, 28.5740587], [77.2367996, 28.5712424], [77.2364175, 28.5705695], [77.2361183, 28.5700452], [77.2357092, 28.5693801], [77.2352084, 28.5685658], [77.234936, 28.5679039], [77.2347063, 28.5672505], [77.2345874, 28.5666754], [77.2344661, 28.5660429], [77.2344148, 28.5657665], [77.2343653, 28.5654809], [77.2343161, 28.5650641], [77.2343056, 28.5649139], [77.2342888, 28.5646739], [77.2342783, 28.5644043], [77.2343118, 28.5632746], [77.2343325, 28.5630515], [77.2343779, 28.5626839], [77.2344319, 28.5622568], [77.2345128, 28.5618318], [77.2346465, 28.5613721], [77.2347364, 28.5611477], [77.2348461, 28.5609381], [77.2350719, 28.5605934], [77.2353495, 28.5602411], [77.2355989, 28.5599593], [77.235923, 28.5596806], [77.2362778, 28.5594202], [77.2366131, 28.5592261], [77.2370624, 28.5590162], [77.2375774, 28.5587966], [77.2385886, 28.5585091], [77.2391102, 28.5582904], [77.2393314, 28.55814], [77.2395945, 28.5579437], [77.2398802, 28.5576903], [77.241641, 28.5556579], [77.241984, 28.5553442], [77.242312, 28.5550651], [77.2450521, 28.5531074], [77.2455693, 28.5527943], [77.247162, 28.5519923], [77.2472125, 28.5519578], [77.2476729, 28.5517624], [77.2482471, 28.5516215], [77.2487178, 28.5515443], [77.249111, 28.551517], [77.2501959, 28.5514791], [77.2510214, 28.5514502], [77.2517393, 28.5514411], [77.2517393, 28.5514411], [77.2522559, 28.5514537], [77.2526121, 28.5514924], [77.2530477, 28.5515398], [77.2540657, 28.551713], [77.2544185, 28.5517942], [77.2549565, 28.5518987], [77.2555049, 28.5519623], [77.2560351, 28.5519406], [77.2564579, 28.5518662], [77.2568861, 28.5517579], [77.2573067, 28.5515435], [77.2576001, 28.5513365], [77.2578762, 28.5511412], [77.258171, 28.5508488], [77.2587188, 28.5500366], [77.2591115, 28.5494963], [77.2595454, 28.54905], [77.2603122, 28.5483269], [77.2609381, 28.5479113], [77.2616758, 28.5474175], [77.2628581, 28.5467063], [77.2633472, 28.5463232], [77.2636627, 28.5459233], [77.264266, 28.5443766], [77.2652257, 28.5422434], [77.2654872, 28.5416873], [77.2656438, 28.5414279], [77.2659197, 28.5411151], [77.266154, 28.5409107], [77.2664359, 28.5407173], [77.2667893, 28.5405302], [77.2671605, 28.5403909], [77.2675582, 28.540292], [77.2680348, 28.5402308], [77.2685525, 28.5402297], [77.2689607, 28.5402882], [77.2693327, 28.5403974], [77.2706873, 28.5410029], [77.2730248, 28.5419266], [77.2735333, 28.5421529], [77.2741476, 28.5424816], [77.2756683, 28.5432816], [77.2761535, 28.5435292], [77.276476, 28.5436635], [77.2769257, 28.5437817], [77.277312, 28.543843], [77.2776654, 28.5438526], [77.2780396, 28.5438149], [77.278414, 28.543749], [77.27884, 28.5436222], [77.2792006, 28.5434681], [77.2795592, 28.543227], [77.279923, 28.5428878], [77.2802145, 28.5425718], [77.2810615, 28.5414322], [77.2819813, 28.5402833], [77.2823919, 28.5395122], [77.2830377, 28.5384251], [77.2841789, 28.5364778], [77.2854612, 28.5343276], [77.285674, 28.5339819], [77.285786, 28.5337757], [77.2858912, 28.5335816], [77.2859824, 28.5334089], [77.2860978, 28.5331584], [77.2862973, 28.5327032], [77.2866391, 28.5319183], [77.2867467, 28.5316779], [77.2869251, 28.5312614], [77.2870268, 28.531027], [77.2870961, 28.5308672], [77.2874309, 28.5301032], [77.2875048, 28.5299424], [77.2876114, 28.5297264], [77.2878259, 28.529337], [77.2879335, 28.5291631], [77.2883155, 28.5285876], [77.2883155, 28.5285876], [77.2885453, 28.5282802], [77.2887117, 28.5280773], [77.2888936, 28.5278732], [77.2890135, 28.5277375], [77.289162, 28.5275793], [77.2894114, 28.527336], [77.2895903, 28.5271632], [77.2902186, 28.5265894], [77.2904315, 28.5263949], [77.290692, 28.526157], [77.290917, 28.5259587], [77.2910534, 28.5258319], [77.2913023, 28.5256027], [77.2914324, 28.5254759], [77.2915608, 28.5253407], [77.2916919, 28.5251922], [77.2917705, 28.5250942], [77.2918797, 28.5249516], [77.2920296, 28.524733], [77.2921355, 28.5245616], [77.2922433, 28.524361], [77.2926445, 28.5235443], [77.2932734, 28.5222278], [77.2939023, 28.5209082], [77.2941221, 28.5204393], [77.2944799, 28.5197252], [77.2949537, 28.5187486], [77.2952073, 28.5181658], [77.2957146, 28.5169373], [77.296282, 28.515519], [77.2967962, 28.5143463], [77.2984515, 28.5103542], [77.2991578, 28.5086347], [77.3001555, 28.5064246], [77.3002437, 28.5061693], [77.300303, 28.5059134], [77.3003414, 28.5056321], [77.3003414, 28.5053476], [77.3003023, 28.5050017], [77.3000557, 28.5042996], [77.2992401, 28.5023598], [77.2992401, 28.5023598], [77.2987809, 28.5011438], [77.2987197, 28.5007009], [77.2987197, 28.5002933], [77.2988553, 28.4997834], [77.2989179, 28.4996076], [77.2989903, 28.499462], [77.2990824, 28.4993182], [77.299176, 28.4991778], [77.2992616, 28.4990614], [77.2993914, 28.4989142], [77.29953, 28.498772], [77.29968, 28.4986379], [77.2998224, 28.4985314], [77.3000448, 28.4983836], [77.3006882, 28.4979676], [77.3011153, 28.4976963], [77.3013908, 28.4975019], [77.301533, 28.4973931], [77.3016732, 28.4972552], [77.3018146, 28.4971055], [77.301944, 28.4969346], [77.3020488, 28.4967645], [77.3021654, 28.49658], [77.30225, 28.4964006], [77.3023235, 28.4962332], [77.3023804, 28.4960533], [77.3024373, 28.4958212], [77.3027242, 28.4944976], [77.3030239, 28.4931698], [77.3038097, 28.4897188], [77.3039369, 28.4891331], [77.3040126, 28.4885696], [77.304133, 28.4872584], [77.3043131, 28.485497], [77.3045356, 28.4838763], [77.3047003, 28.4820063], [77.3049182, 28.4779698], [77.3051571, 28.4758816], [77.3052182, 28.474549], [77.3052244, 28.4738267], [77.3054372, 28.4732095], [77.3059043, 28.4723828], [77.3061666, 28.4718749], [77.3062962, 28.471394], [77.3063998, 28.4700312], [77.3065028, 28.4680364], [77.3070014, 28.462366], [77.3071864, 28.4602617], [77.3072731, 28.4590824], [77.3073933, 28.4577786], [77.3076626, 28.4544131], [77.3079248, 28.4510589], [77.308095, 28.4486201], [77.308189, 28.4476192], [77.3082434, 28.446818], [77.3085936, 28.4435102], [77.3088329, 28.4404724], [77.309063, 28.4381599], [77.3093974, 28.4336489], [77.3097999, 28.4288459], [77.3103769, 28.4227144], [77.3109058, 28.4165567], [77.3110038, 28.4152847], [77.3111727, 28.4139979], [77.3112404, 28.4133701], [77.3112668, 28.4130357], [77.3114622, 28.4108364], [77.3115314, 28.410058], [77.3116401, 28.4084381], [77.3116856, 28.4080189], [77.3117029, 28.4078217], [77.3117125, 28.4076608], [77.3117141, 28.4075033], [77.311706, 28.4065053], [77.3117215, 28.4060561], [77.3118726, 28.4042339], [77.3121259, 28.4014504], [77.3124347, 28.3974884], [77.312946, 28.3912837], [77.3132493, 28.3879616], [77.313462, 28.3858361], [77.3135135, 28.3851046], [77.313702, 28.3824255], [77.3139043, 28.380469], [77.314147, 28.3774764], [77.3143333, 28.3756552], [77.3145566, 28.3744304], [77.3146644, 28.3731799], [77.3148731, 28.3708004], [77.3149203, 28.3702344], [77.315085, 28.3680828], [77.3152147, 28.3668211], [77.3152477, 28.3664215], [77.3152477, 28.3664215], [77.3154539, 28.3637526], [77.3156471, 28.361567], [77.3157664, 28.3601119], [77.3159756, 28.357682], [77.3162264, 28.3546513], [77.3164388, 28.3520157], [77.3165729, 28.3506042], [77.3165622, 28.3502642], [77.3165287, 28.3499881], [77.3162001, 28.3486308], [77.3161196, 28.3478423], [77.3161679, 28.347068], [77.3162752, 28.3456942], [77.3164334, 28.3441857], [77.3167992, 28.3428288], [77.3168358, 28.3426514], [77.3168438, 28.3424129], [77.3168277, 28.3420895], [77.3167875, 28.3417874], [77.31664, 28.3409186], [77.3164791, 28.340005]]}}, {"type": "Feature", "properties": {"ref": "AEx", "name": "Airport Express Line (Dwarka Sector 25 \u2192 New Delhi Airport Express Terminal)", "color": "#FF8C00", "status": "unknown", "open_year": null}, "geometry": {"type": "LineString", "coordinates": [[77.0453294, 28.5508515], [77.0472586, 28.5495317], [77.0484455, 28.5487118], [77.0493077, 28.5482965], [77.049702, 28.5481469], [77.0503202, 28.5479384], [77.0506931, 28.5478595], [77.0512966, 28.5477652], [77.0519926, 28.5477311], [77.0526189, 28.5477594], [77.0534075, 28.5478701], [77.054129, 28.5480197], [77.0547754, 28.5482318], [77.0553342, 28.548469], [77.0557745, 28.5486558], [77.0562192, 28.5489825], [77.0563251, 28.5490685], [77.0563251, 28.5490685], [77.0564285, 28.5491801], [77.0575394, 28.5504786], [77.0586489, 28.5518376], [77.0604787, 28.5540783], [77.0620594, 28.5557291], [77.0638537, 28.5573459], [77.0654296, 28.5582172], [77.0670764, 28.5587655], [77.0691478, 28.5590644], [77.0710555, 28.5591416], [77.0762632, 28.5585574], [77.0816352, 28.5575877], [77.0867238, 28.5564899], [77.1002181, 28.5535278], [77.1198462, 28.5489453], [77.1208093, 28.5487998], [77.1208093, 28.5487998], [77.1221084, 28.5487373], [77.1234279, 28.5489105], [77.1252766, 28.5493497], [77.127178, 28.5501807], [77.128782, 28.5512247], [77.1303371, 28.5528631], [77.1306938, 28.5532527], [77.1310278, 28.553718], [77.1314821, 28.5545853], [77.1319365, 28.5557592], [77.1329395, 28.5588528], [77.1330922, 28.5593967], [77.1330922, 28.5593967], [77.1331985, 28.5601624], [77.1332075, 28.5609253], [77.133179, 28.5612555], [77.1331512, 28.5615776], [77.1330747, 28.5620098], [77.1330624, 28.5620794], [77.1327169, 28.563388], [77.132498, 28.5640409], [77.1323445, 28.5647063], [77.1322662, 28.5653755], [77.1322377, 28.5659926], [77.1322729, 28.5666356], [77.132391, 28.567307], [77.1325669, 28.5679432], [77.1327679, 28.5685032], [77.1330194, 28.5690153], [77.1333093, 28.5695077], [77.1334246, 28.5696903], [77.1335338, 28.5698456], [77.1336895, 28.5700498], [77.1338556, 28.5702594], [77.1340514, 28.5704772], [77.1342538, 28.5706833], [77.1344246, 28.5708596], [77.134658, 28.5710724], [77.1349038, 28.5712794], [77.1353791, 28.5716239], [77.1366092, 28.5724086], [77.1375663, 28.5730571], [77.1386764, 28.5736662], [77.1394799, 28.5740345], [77.1403261, 28.5744016], [77.141078, 28.5747675], [77.1417426, 28.5752077], [77.1422861, 28.5756289], [77.1427584, 28.576099], [77.143105, 28.5765033], [77.1433774, 28.5768571], [77.1435843, 28.5771887], [77.1439501, 28.5779029], [77.1442243, 28.5786671], [77.1449259, 28.5807211], [77.1455828, 28.5829431], [77.1458664, 28.5836339], [77.1461813, 28.5842122], [77.1465551, 28.5847624], [77.14695, 28.5852605], [77.1474071, 28.5857412], [77.1478813, 28.586139], [77.1487226, 28.5867268], [77.1496776, 28.5872303], [77.1516674, 28.588086], [77.1557252, 28.5897394], [77.1565567, 28.5900452], [77.1568999, 28.5901521], [77.157381, 28.5903019], [77.158617, 28.5907062], [77.1590569, 28.5908606], [77.1594414, 28.5910162], [77.1601762, 28.5913003], [77.1606517, 28.5914974], [77.1616835, 28.591914], [77.1616835, 28.591914], [77.1631168, 28.5925134], [77.1636055, 28.5927703], [77.1639835, 28.5930093], [77.1643883, 28.5932967], [77.1647069, 28.593552], [77.1650242, 28.593861], [77.1655905, 28.5945173], [77.1660035, 28.5951893], [77.1661904, 28.5955767], [77.1663476, 28.5959575], [77.1664889, 28.5965235], [77.1666288, 28.5971487], [77.1669164, 28.5984226], [77.1671401, 28.599224], [77.1672875, 28.5996245], [77.1674626, 28.6000352], [77.1677103, 28.6004507], [77.1692648, 28.6030219], [77.169987, 28.6042389], [77.1707233, 28.6056044], [77.1709819, 28.6062418], [77.1710705, 28.6065024], [77.1714751, 28.6076918], [77.1716737, 28.6080995], [77.1720671, 28.6088242], [77.1725201, 28.6094777], [77.1734949, 28.6106447], [77.1740961, 28.6114249], [77.1740961, 28.6114249], [77.1757855, 28.6127708], [77.1782392, 28.6142512], [77.1816107, 28.6157758], [77.1944248, 28.6213482], [77.2066972, 28.6268468], [77.207558, 28.6272325], [77.2083413, 28.6275834], [77.211311, 28.6289139], [77.2146554, 28.6304187], [77.2154778, 28.6310576], [77.2158653, 28.631543], [77.2185045, 28.6355392], [77.2230952, 28.64249]]}}, {"type": "Feature", "properties": {"ref": "9", "name": "Grey Line \u2014 Dwarka\u2013Najafgarh", "color": "#808080", "status": "open", "open_year": 2019}, "geometry": {"type": "LineString", "coordinates": [[77.0104516, 28.6172778], [77.0139073, 28.6184738], [77.0165784, 28.6194593], [77.0171948, 28.6196795], [77.017775, 28.6199351], [77.0182951, 28.6201874], [77.0187232, 28.6203813], [77.0192235, 28.6204948], [77.0198038, 28.6205255], [77.020308, 28.6204787], [77.0207685, 28.6203331], [77.0209487, 28.6202547], [77.0213772, 28.6200228], [77.0217521, 28.6197089], [77.0219684, 28.6194484], [77.0221152, 28.6191964], [77.0222339, 28.6189423], [77.0223129, 28.6186983], [77.0223815, 28.6184186], [77.0223988, 28.6182505], [77.0223972, 28.6179835], [77.0223622, 28.6171581], [77.0223806, 28.6168092], [77.022381, 28.6162097], [77.0223656, 28.6159127], [77.0016545, 28.6138202], [77.0023663, 28.614044], [77.0026994, 28.6141424], [77.0030751, 28.6142894], [77.0036558, 28.6146022], [77.0046497, 28.6151079], [77.005345, 28.6154696], [77.006118, 28.6157829], [77.0074316, 28.6162279], [77.0104516, 28.6172778], [77.0016545, 28.6138202], [77.0006606, 28.6134971], [76.9996769, 28.6133], [76.9996769, 28.6133], [76.9982819, 28.6131998], [76.9948445, 28.6125498], [76.9922333, 28.6123113], [76.990553, 28.6122182], [76.986563, 28.6124258], [76.9859367, 28.6123833], [76.9859367, 28.6123833], [76.9786096, 28.6118866], [76.9785499, 28.6118826]]}}, {"type": "Feature", "properties": {"ref": "7", "name": "Pink Line \u2014 Majlis Park\u2013Shiv Vihar", "color": "#FF69B4", "status": "open", "open_year": 2018}, "geometry": {"type": "LineString", "coordinates": [[77.2792351, 28.6912174], [77.2792921, 28.6913285], [77.2796874, 28.6920926], [77.2800057, 28.6927016], [77.280287, 28.6932396], [77.2804427, 28.6935375], [77.2806621, 28.6939893], [77.2810439, 28.6947982], [77.2814739, 28.6956178], [77.2815871, 28.6958104], [77.2817071, 28.6959929], [77.2818669, 28.6962066], [77.2820395, 28.696409], [77.2823891, 28.6967964], [77.2825284, 28.6969668], [77.2826551, 28.6971312], [77.2828378, 28.6974067], [77.2829056, 28.6975272], [77.2832895, 28.6982535], [77.2838911, 28.6992342], [77.2849023, 28.7006999], [77.2861306, 28.702422], [77.2877374, 28.7048688], [77.2887325, 28.7064215], [77.2890946, 28.7070731], [77.2902668, 28.7093339], [77.2906342, 28.7099644], [77.2908032, 28.7103831], [77.2908488, 28.7108183], [77.2908193, 28.71111], [77.2906986, 28.7115193], [77.2903821, 28.7122956], [77.2901557, 28.7128868], [77.290024, 28.7135742], [77.2899395, 28.7142599], [77.289843, 28.7153643], [77.2896445, 28.7185458], [77.2895169, 28.7206472], [77.2894569, 28.7214306], [77.2894018, 28.7224653], [77.2892655, 28.724851], [77.2789916, 28.690841], [77.2791096, 28.6910233], [77.2792351, 28.6912174], [77.2788235, 28.6905205], [77.2789916, 28.690841], [77.2788235, 28.6905205], [77.27863, 28.690203], [77.2784539, 28.6898629], [77.27863, 28.690203], [77.3056169, 28.6500712], [77.305389, 28.6503522], [77.30507, 28.6507064], [77.3046371, 28.6511311], [77.3037885, 28.6519673], [77.3029212, 28.6528378], [77.3020795, 28.6537048], [77.3013731, 28.6544175], [77.3010929, 28.6545928], [77.3007739, 28.6547587], [77.3004509, 28.6548657], [77.3000501, 28.654934], [77.2997109, 28.6549187], [77.2995219, 28.6549104], [77.2991492, 28.6548352], [77.298624, 28.6546294], [77.2974067, 28.6540976], [77.2969054, 28.6539024], [77.2957875, 28.6536459], [77.2947894, 28.6534676], [77.2943995, 28.6534265], [77.2940187, 28.6534459], [77.2935444, 28.6535497], [77.2930791, 28.6537516], [77.2927349, 28.6539588], [77.2925646, 28.6541008], [77.292414, 28.6542533], [77.2922905, 28.6544071], [77.2922021, 28.6545394], [77.2921077, 28.654702], [77.2920245, 28.6548688], [77.2917299, 28.655603], [77.2916339, 28.6558218], [77.2915399, 28.6560047], [77.2914502, 28.6561562], [77.2913171, 28.6563479], [77.290163, 28.6577953], [77.2893439, 28.6588767], [77.288587, 28.6599425], [77.2857962, 28.6634694], [77.2853021, 28.6640945], [77.2848598, 28.6646856], [77.2841512, 28.6656389], [77.284041, 28.6657797], [77.2839172, 28.6659276], [77.2837436, 28.6661113], [77.2820019, 28.6678609], [77.2815959, 28.66844], [77.2813145, 28.6688763], [77.2811308, 28.6693702], [77.2810061, 28.6698501], [77.2808584, 28.6707692], [77.2807767, 28.6710938], [77.280609, 28.6714089], [77.2804455, 28.6716065], [77.2802726, 28.6717865], [77.2800327, 28.6719876], [77.2796734, 28.6722486], [77.2793451, 28.6723992], [77.278923, 28.6725135], [77.2785886, 28.6725679], [77.2782434, 28.6725841], [77.2777761, 28.6725612], [77.2769355, 28.6724074], [77.2746955, 28.6719802], [77.2733389, 28.6717509], [77.2727894, 28.6717568], [77.2723939, 28.6718027], [77.271973, 28.6719579], [77.2715682, 28.672159], [77.271256, 28.6724178], [77.2709328, 28.6728011], [77.2708015, 28.6730492], [77.2706741, 28.6733774], [77.2705951, 28.6738243], [77.2706273, 28.6741736], [77.2706942, 28.6744265], [77.2708913, 28.6749368], [77.2721687, 28.677343], [77.2727022, 28.6783449], [77.2744583, 28.6815977], [77.2746192, 28.6819764], [77.2748723, 28.6827111], [77.2753805, 28.6842272], [77.2757291, 28.6850574], [77.2764127, 28.6864327], [77.2766504, 28.6868785], [77.2768891, 28.6873171], [77.2770344, 28.6875673], [77.2771725, 28.6877792], [77.2776872, 28.6885215], [77.2778771, 28.6888054], [77.2780036, 28.689015], [77.2782125, 28.6893964], [77.2784539, 28.6898629], [77.307597, 28.6476158], [77.3074789, 28.6477044], [77.3073662, 28.6477985], [77.3072594, 28.6478976], [77.3071588, 28.6480017], [77.3069875, 28.6481685], [77.3066182, 28.6486066], [77.3065721, 28.6486757], [77.3064171, 28.6489077], [77.3061394, 28.6493001], [77.3058595, 28.6497194], [77.3058226, 28.6497729], [77.3056169, 28.6500712], [77.3087888, 28.6101217], [77.308766, 28.6104173], [77.3086882, 28.6107716], [77.3084951, 28.6115051], [77.3084817, 28.611843], [77.3085675, 28.6122786], [77.3088799, 28.6134349], [77.3092588, 28.6148857], [77.3096861, 28.6164797], [77.3097206, 28.6166318], [77.3097451, 28.6167854], [77.3097597, 28.6169399], [77.3097642, 28.617095], [77.3097587, 28.61725], [77.3097432, 28.6174044], [77.3097177, 28.6175579], [77.3096822, 28.6177098], [77.309637, 28.6178597], [77.30958, 28.6180126], [77.3095128, 28.6181622], [77.3094357, 28.618308], [77.3093489, 28.6184496], [77.3092527, 28.6185865], [77.3091476, 28.6187182], [77.3090337, 28.6188442], [77.3089117, 28.6189641], [77.3087817, 28.6190775], [77.3086444, 28.6191839], [77.3085002, 28.6192831], [77.3083496, 28.6193746], [77.3081931, 28.6194582], [77.3080312, 28.6195335], [77.3078646, 28.6196003], [77.3075985, 28.6196841], [77.3072841, 28.6197624], [77.3054199, 28.6200969], [77.3046642, 28.6202535], [77.3035841, 28.6204664], [77.3034325, 28.6205039], [77.3032841, 28.6205498], [77.3031394, 28.6206041], [77.302999, 28.6206665], [77.3028634, 28.6207368], [77.3027334, 28.6208146], [77.3026093, 28.6208997], [77.3024918, 28.6209917], [77.3023814, 28.6210901], [77.3022784, 28.6211946], [77.3021834, 28.6213047], [77.3020967, 28.62142], [77.3020186, 28.62154], [77.3019497, 28.6216642], [77.3018885, 28.6217957], [77.3018373, 28.6219305], [77.3017965, 28.6220679], [77.3017664, 28.6222075], [77.3017468, 28.6223485], [77.3017379, 28.6224903], [77.3017399, 28.6226323], [77.3017526, 28.622774], [77.3017761, 28.6229145], [77.30181, 28.6230534], [77.3018545, 28.62319], [77.3019093, 28.6233236], [77.3019742, 28.6234538], [77.3020486, 28.6235799], [77.3021326, 28.6237013], [77.3022255, 28.6238176], [77.3023271, 28.6239282], [77.3024368, 28.6240326], [77.3025543, 28.6241303], [77.3026788, 28.624221], [77.30281, 28.6243041], [77.3029473, 28.6243795], [77.3030898, 28.6244467], [77.3032372, 28.6245052], [77.3037213, 28.624683], [77.3044792, 28.6249613], [77.3079628, 28.6260837], [77.3082597, 28.6261424], [77.3084351, 28.6261616], [77.3086582, 28.6261748], [77.3088885, 28.6261628], [77.309821, 28.6261358], [77.3099761, 28.6261344], [77.3101309, 28.6261418], [77.3102848, 28.6261582], [77.3104371, 28.6261835], [77.3105873, 28.6262174], [77.3107345, 28.6262599], [77.3108782, 28.6263108], [77.3109986, 28.6263634], [77.3111163, 28.6264237], [77.3112406, 28.6264965], [77.3113601, 28.6265776], [77.3114839, 28.6266692], [77.3115869, 28.6267572], [77.3116845, 28.6268494], [77.3117809, 28.6269681], [77.3118604, 28.6270731], [77.3119345, 28.6271849], [77.3119901, 28.6272819], [77.3120587, 28.6274223], [77.3121148, 28.6275603], [77.3121558, 28.6277], [77.3121805, 28.6278266], [77.3122016, 28.6279689], [77.3122093, 28.6281244], [77.3122068, 28.628281], [77.3121846, 28.6284545], [77.3121597, 28.6285838], [77.3121161, 28.6287296], [77.3118306, 28.6294293], [77.3116603, 28.6297839], [77.3116264, 28.6298637], [77.3115199, 28.6301138], [77.3113851, 28.6304303], [77.3107603, 28.6318977], [77.3099602, 28.633702], [77.3098733, 28.6338972], [77.3095279, 28.6346849], [77.3094763, 28.6348132], [77.3094357, 28.6349367], [77.3094075, 28.6350519], [77.3093864, 28.6351792], [77.3093775, 28.6352948], [77.3093739, 28.6354211], [77.3093821, 28.6355627], [77.3093995, 28.6356867], [77.3094292, 28.6358125], [77.3094636, 28.63593], [77.3095047, 28.6360377], [77.3095581, 28.6361576], [77.3096159, 28.6362538], [77.3096923, 28.6363682], [77.3097749, 28.6364755], [77.3098867, 28.6365894], [77.3099722, 28.6366748], [77.310115, 28.6367834], [77.310262, 28.6368843], [77.3104467, 28.6369861], [77.3107424, 28.6371054], [77.3109056, 28.6371483], [77.3110657, 28.6371715], [77.3112316, 28.6371883], [77.3113934, 28.6371958], [77.3116745, 28.6371916], [77.3119606, 28.6371842], [77.3122215, 28.6371943], [77.3124428, 28.6372216], [77.3126719, 28.6372629], [77.3128707, 28.6373175], [77.3131981, 28.6374183], [77.3135788, 28.6376101], [77.3139125, 28.6378489], [77.3142249, 28.6381771], [77.3144139, 28.6384984], [77.31468, 28.6390553], [77.3149042, 28.6397524], [77.3151709, 28.6404206], [77.3154337, 28.6407666], [77.3157108, 28.6410762], [77.315996, 28.6414307], [77.3162592, 28.6417938], [77.3165343, 28.6424478], [77.3170019, 28.6439093], [77.3171943, 28.6445517], [77.3172049, 28.6446719], [77.3172064, 28.6447926], [77.3171987, 28.6449129], [77.3171819, 28.6450327], [77.3171561, 28.6451511], [77.3171213, 28.6452677], [77.3170779, 28.6453822], [77.3170258, 28.6454938], [77.3169654, 28.6456022], [77.316897, 28.6457067], [77.3168222, 28.6458053], [77.3167402, 28.6458994], [77.3166514, 28.6459886], [77.3165561, 28.6460725], [77.3164549, 28.6461508], [77.316348, 28.6462232], [77.316236, 28.6462891], [77.3158311, 28.6465209], [77.3154068, 28.6467137], [77.3150027, 28.6468973], [77.3140963, 28.6472828], [77.3139535, 28.647343], [77.3138075, 28.647397], [77.3136585, 28.6474446], [77.3135072, 28.6474858], [77.3133302, 28.6475252], [77.313151, 28.6475557], [77.3129701, 28.6475773], [77.3127882, 28.64759], [77.3126056, 28.6475935], [77.3124231, 28.6475881], [77.3122413, 28.6475736], [77.3119413, 28.6475287], [77.310831, 28.6472871], [77.3098725, 28.6470744], [77.309711, 28.6470568], [77.3095487, 28.6470472], [77.309386, 28.6470456], [77.3092233, 28.6470519], [77.3090614, 28.6470662], [77.3089006, 28.6470882], [77.3087416, 28.6471182], [77.3085845, 28.647156], [77.3084302, 28.6472013], [77.3082791, 28.6472542], [77.3081315, 28.6473142], [77.3079878, 28.6473815], [77.3078488, 28.6474557], [77.3077205, 28.6475328], [77.307597, 28.6476158], [77.2987117, 28.6058327], [77.3001252, 28.6062658], [77.3020645, 28.6068522], [77.3035544, 28.6072902], [77.3050243, 28.6077305], [77.3068227, 28.6082686], [77.3076314, 28.6085252], [77.3081062, 28.6087772], [77.3084119, 28.6090103], [77.308542, 28.6091504], [77.3086279, 28.6093], [77.3086895, 28.609506], [77.3087512, 28.609911], [77.3087888, 28.6101217], [77.298042, 28.6056313], [77.2987117, 28.6058327], [77.2582855, 28.5968886], [77.2585778, 28.5973078], [77.2587575, 28.5975351], [77.2589292, 28.5977176], [77.2593369, 28.5980567], [77.2595756, 28.5982451], [77.2600021, 28.5984947], [77.2603669, 28.5986772], [77.2612493, 28.5990634], [77.2639718, 28.6002857], [77.2665118, 28.6014372], [77.2682163, 28.6021978], [77.2699397, 28.6029879], [77.2724797, 28.60413], [77.2735432, 28.6045904], [77.2741387, 28.6047717], [77.2745759, 28.60488], [77.275052, 28.6049613], [77.275469, 28.6050107], [77.2759237, 28.6050343], [77.2763394, 28.605039], [77.2769563, 28.6049919], [77.2776711, 28.6048989], [77.2783484, 28.604714], [77.2826131, 28.6032905], [77.2845201, 28.6026465], [77.2851947, 28.6024357], [77.2857151, 28.6023321], [77.2861026, 28.6022956], [77.2865707, 28.6022779], [77.2870012, 28.6023015], [77.2875592, 28.6023767], [77.2880982, 28.6024993], [77.2887366, 28.6027183], [77.2895858, 28.603063], [77.2898273, 28.6031546], [77.2899532, 28.6032068], [77.2900844, 28.6032567], [77.2903425, 28.6033648], [77.2906188, 28.6034823], [77.290655, 28.603497], [77.2909515, 28.6036173], [77.2917782, 28.6039369], [77.2922275, 28.6040959], [77.2926285, 28.6041948], [77.2931367, 28.6042737], [77.2937832, 28.604362], [77.29412, 28.6044522], [77.2942445, 28.6044856], [77.29635, 28.6051226], [77.298042, 28.6056313], [77.2574649, 28.5953817], [77.2577249, 28.5958819], [77.2581245, 28.5965707], [77.2582855, 28.5968886], [77.2390387, 28.5692321], [77.240698, 28.5687525], [77.2470648, 28.5659273], [77.2483795, 28.5657678], [77.2487352, 28.5657942], [77.2508441, 28.5659507], [77.251647, 28.5662019], [77.2526501, 28.5667272], [77.2534915, 28.5673815], [77.2545188, 28.5684021], [77.2581218, 28.5720033], [77.2586293, 28.572406], [77.2593015, 28.572877], [77.2599385, 28.5735554], [77.2605581, 28.574335], [77.2606573, 28.5746978], [77.2603854, 28.5753358], [77.260047, 28.576837], [77.259169, 28.5806198], [77.2573864, 28.5883001], [77.2572811, 28.5887539], [77.2571162, 28.5898331], [77.2569458, 28.592568], [77.2569949, 28.5939319], [77.2574649, 28.5953817], [77.181576, 28.5711696], [77.181902, 28.571004], [77.1824017, 28.5707696], [77.1828413, 28.57063], [77.1843578, 28.5703968], [77.1867363, 28.5702863], [77.1878597, 28.5702392], [77.1902881, 28.5700504], [77.1928029, 28.5706222], [77.1936864, 28.5718636], [77.1945509, 28.5745478], [77.1951771, 28.5752638], [77.1963757, 28.5757306], [77.1980768, 28.5757936], [77.2006112, 28.5758621], [77.2013663, 28.5757176], [77.2030859, 28.574957], [77.2050811, 28.5740731], [77.2059166, 28.5738859], [77.2066999, 28.5737729], [77.2075791, 28.573627], [77.2093526, 28.573456], [77.2120389, 28.5733796], [77.2141538, 28.5723717], [77.2147994, 28.5714995], [77.2158428, 28.5700898], [77.2163227, 28.5697109], [77.2167276, 28.5693913], [77.2174143, 28.5688491], [77.2187468, 28.5686325], [77.2205602, 28.5685434], [77.2215167, 28.568501], [77.2237759, 28.5683211], [77.2250255, 28.5687267], [77.230815, 28.570606], [77.2341463, 28.5710307], [77.2350922, 28.5707403], [77.2358635, 28.570541], [77.2370115, 28.5700617], [77.2376499, 28.5697931], [77.2382659, 28.5695405], [77.2390387, 28.5692321], [77.1784944, 28.5742735], [77.1787835, 28.5737864], [77.1790926, 28.5733325], [77.1793381, 28.5730231], [77.1795908, 28.5727325], [77.1800505, 28.5722776], [77.1803773, 28.5719907], [77.1807498, 28.5717082], [77.1809812, 28.5715431], [77.1812309, 28.5713762], [77.181576, 28.5711696], [77.1707642, 28.5872478], [77.1711402, 28.5866962], [77.1714258, 28.586286], [77.171725, 28.5858417], [77.1718422, 28.5856541], [77.1720716, 28.5852614], [77.1728131, 28.5841559], [77.1729591, 28.5839064], [77.1732431, 28.5834087], [77.1739513, 28.5821784], [77.1740588, 28.5819819], [77.1742192, 28.5816565], [77.1743065, 28.5814603], [77.1746817, 28.5805515], [77.1748854, 28.5800546], [77.1750005, 28.5798036], [77.1751607, 28.5795033], [77.1757091, 28.5785245], [77.1764264, 28.5772734], [77.1770666, 28.5763122], [77.177678, 28.5755398], [77.1784944, 28.5742735], [77.1694377, 28.5892816], [77.1699183, 28.5885446], [77.1701521, 28.5881641], [77.1704489, 28.5877581], [77.1707642, 28.5872478], [77.1663319, 28.5934325], [77.1665288, 28.593175], [77.1667691, 28.5928755], [77.1670464, 28.5924126], [77.1677062, 28.5916841], [77.1682976, 28.5909936], [77.168672, 28.5904749], [77.1688881, 28.590099], [77.1694042, 28.5893315], [77.1694377, 28.5892816], [77.1647837, 28.5956578], [77.1653662, 28.5947238], [77.1663319, 28.5934325], [77.1378622, 28.6118302], [77.1381985, 28.6114003], [77.1392165, 28.6101815], [77.1399348, 28.6091521], [77.1403775, 28.6085995], [77.1407632, 28.6081169], [77.1414945, 28.6073687], [77.1421958, 28.6067923], [77.1426623, 28.6064603], [77.1435416, 28.6060051], [77.1445963, 28.6056597], [77.1459015, 28.6054325], [77.1482317, 28.6050972], [77.1500095, 28.6047917], [77.1535818, 28.6042684], [77.1552979, 28.6040056], [77.1560694, 28.6038538], [77.1565616, 28.6036903], [77.1570272, 28.6034217], [77.157832, 28.6028202], [77.1586103, 28.6022654], [77.159282, 28.6017457], [77.1607331, 28.6006468], [77.1624149, 28.5991119], [77.1632793, 28.5983268], [77.1636002, 28.5977506], [77.1642287, 28.5966307], [77.1647837, 28.5956578], [77.1339096, 28.6281676], [77.1344028, 28.6270749], [77.1348095, 28.6265881], [77.135167, 28.6263338], [77.1354135, 28.6261012], [77.1364134, 28.6243731], [77.1369616, 28.6229373], [77.1371323, 28.6222887], [77.1371568, 28.6217167], [77.1370639, 28.6208951], [77.1370522, 28.6205131], [77.1370455, 28.6202946], [77.1368846, 28.6166287], [77.1368202, 28.6159365], [77.1365306, 28.6150182], [77.1364608, 28.6143683], [77.1366793, 28.6134876], [77.1369792, 28.6129482], [77.1373568, 28.6124869], [77.1378622, 28.6118302], [77.1329219, 28.6309777], [77.1334637, 28.6295556], [77.1337217, 28.6286772], [77.1339096, 28.6281676], [77.1272304, 28.6580809], [77.1267352, 28.6574267], [77.1261899, 28.6568292], [77.1249651, 28.6557138], [77.1244861, 28.6552343], [77.1241167, 28.6546895], [77.1238958, 28.6541471], [77.1237391, 28.6534879], [77.1237275, 28.6531035], [77.1237804, 28.652492], [77.1239412, 28.6517469], [77.1242237, 28.6511757], [77.1250439, 28.6495638], [77.1255801, 28.6485072], [77.1260128, 28.6472937], [77.1274631, 28.6436707], [77.1279335, 28.6424633], [77.1285634, 28.6407043], [77.1291695, 28.639123], [77.129308, 28.6386528], [77.1297013, 28.6371662], [77.1302274, 28.6354462], [77.1306652, 28.6343599], [77.1308083, 28.6340935], [77.1311036, 28.6336385], [77.1317271, 28.6329184], [77.1322708, 28.6322142], [77.1326264, 28.6316691], [77.1329219, 28.6309777], [77.1531665, 28.6920095], [77.1528191, 28.6900728], [77.1525925, 28.6889568], [77.1525306, 28.6886331], [77.152478, 28.6884311], [77.1524205, 28.6882681], [77.1523492, 28.6881071], [77.1522513, 28.6879362], [77.1521085, 28.6877293], [77.1519572, 28.6875531], [77.1518161, 28.6874085], [77.1516904, 28.6872991], [77.1515588, 28.6871975], [77.1512594, 28.6869944], [77.1509058, 28.6867601], [77.1507079, 28.686639], [77.1500407, 28.6862528], [77.1497692, 28.686096], [77.1494753, 28.6859099], [77.1492464, 28.6857548], [77.1490049, 28.6855821], [77.1487572, 28.6853964], [77.1480105, 28.6848275], [77.1479305, 28.6847665], [77.1474845, 28.6844235], [77.1460841, 28.6834872], [77.1458598, 28.6833259], [77.1456447, 28.6831599], [77.1452578, 28.6828586], [77.1443216, 28.6820914], [77.1434757, 28.6814153], [77.1432931, 28.6812797], [77.1430645, 28.6811222], [77.1426842, 28.6808618], [77.1424719, 28.6807054], [77.1423082, 28.6805711], [77.1421455, 28.6804168], [77.1420619, 28.680329], [77.1419631, 28.6802154], [77.1418547, 28.6800789], [77.1417821, 28.6799803], [77.1416982, 28.679854], [77.1416249, 28.6797378], [77.1415706, 28.6796431], [77.1415233, 28.6795516], [77.1414459, 28.6793729], [77.1413389, 28.6790847], [77.1410624, 28.67829], [77.1407946, 28.6775252], [77.1404697, 28.6766286], [77.1402269, 28.676033], [77.1398824, 28.6752167], [77.139591, 28.6743621], [77.1391646, 28.672777], [77.1389109, 28.6719308], [77.1387725, 28.6714559], [77.1386389, 28.6710589], [77.1384576, 28.6706562], [77.138224, 28.6702607], [77.1376744, 28.6695941], [77.1360016, 28.6682472], [77.1336847, 28.6662982], [77.1312922, 28.6642485], [77.1299777, 28.6630699], [77.1294751, 28.6625023], [77.1291025, 28.6619098], [77.1277683, 28.6589928], [77.1275212, 28.658539], [77.1272304, 28.6580809], [77.1531665, 28.6920095], [77.1542356, 28.6947226], [77.1550299, 28.6967751], [77.1562625, 28.6990491], [77.1570957, 28.6998063], [77.1573445, 28.7000036], [77.157657, 28.7001224], [77.1614738, 28.7007948], [77.1645566, 28.7016672], [77.1654294, 28.701988], [77.1666745, 28.7024085], [77.1682209, 28.7028738], [77.1697329, 28.703093], [77.1721262, 28.7031937], [77.17439, 28.7029867], [77.1765121, 28.7032054], [77.1786386, 28.7037113], [77.1807556, 28.7047474], [77.181944, 28.7058181], [77.183045, 28.7068228], [77.1833888, 28.7081835], [77.1830658, 28.7095423], [77.1824763, 28.7101556], [77.1805993, 28.7115781], [77.1803228, 28.7120523], [77.1803002, 28.7123342], [77.1802222, 28.7126987], [77.1802395, 28.7131569], [77.1803415, 28.7143005], [77.1804568, 28.7154228], [77.1806714, 28.7160063], [77.1809127, 28.7164703], [77.1809127, 28.7164703], [77.1812503, 28.7170813], [77.1813435, 28.7172673], [77.1814005, 28.7174066], [77.1814828, 28.7177575], [77.1815318, 28.7181152], [77.1815318, 28.7181152], [77.1815646, 28.718693], [77.1816295, 28.7202079], [77.1816295, 28.7202079], [77.1816612, 28.7209484], [77.1816628, 28.7213961], [77.1816672, 28.7211082], [77.1816612, 28.7209484], [77.1818165, 28.724605], [77.1816933, 28.7228463], [77.1816734, 28.7225406], [77.1816625, 28.7222827], [77.1816642, 28.7220109], [77.1816628, 28.7213961], [77.1820437, 28.7266447], [77.1820138, 28.7264471], [77.1819367, 28.7260408], [77.1818996, 28.7258297], [77.181878, 28.7256206], [77.1818713, 28.7254624], [77.1818165, 28.724605], [77.1841328, 28.7311062], [77.1839886, 28.7310518], [77.1838523, 28.7309916], [77.1836779, 28.7308969], [77.1834836, 28.7307781], [77.1833749, 28.7306977], [77.1832594, 28.7306054], [77.1831372, 28.7305036], [77.1830144, 28.7303801], [77.1829188, 28.7302728], [77.1828457, 28.7301823], [77.1827766, 28.7300845], [77.1827298, 28.7300161], [77.1826594, 28.7299009], [77.1825851, 28.7297731], [77.1825238, 28.7296487], [77.1824736, 28.7295278], [77.1824223, 28.7293847], [77.1823841, 28.7292514], [77.1823527, 28.7291078], [77.1823327, 28.7289819], [77.1823195, 28.7288558], [77.1822994, 28.7285177], [77.1822667, 28.7279202], [77.1822345, 28.727614], [77.1822018, 28.7274258], [77.1820437, 28.7266447], [77.1841328, 28.7311062], [77.1844395, 28.731197], [77.1847314, 28.7312435], [77.1849909, 28.7312533], [77.1852355, 28.731237], [77.1855153, 28.7311862], [77.1865372, 28.7309275], [77.1873553, 28.7307111], [77.1878998, 28.7305629], [77.1916871, 28.7296386], [77.1919204, 28.7295868], [77.1921189, 28.7295586], [77.1922906, 28.7295445], [77.1924434, 28.7295374], [77.1925883, 28.7295351], [77.1929101, 28.7295468], [77.1931837, 28.7295727], [77.1934332, 28.7296198], [77.1936504, 28.7296762], [77.1938838, 28.7297632], [77.1941359, 28.7298667], [77.1944202, 28.7299843], [77.1947582, 28.7301066], [77.1952571, 28.7302783], [77.1954448, 28.7303301], [77.1956111, 28.73037], [77.1958123, 28.7304006], [77.1961717, 28.7304288], [77.1965445, 28.7304218], [77.196735, 28.730403], [77.1971883, 28.7303183], [77.1977488, 28.7302054], [77.1984784, 28.7300643], [77.1998366, 28.7297981], [77.2003023, 28.7297068], [77.2008173, 28.7296009], [77.2013645, 28.7294598], [77.2019197, 28.7292858], [77.20244, 28.7290905], [77.2029738, 28.7288718], [77.2076542, 28.7269808], [77.2081826, 28.7267855], [77.2090383, 28.7264939], [77.2136833, 28.7249054], [77.2166781, 28.7238813], [77.2177984, 28.7235278], [77.2218208, 28.7221433], [77.2223435, 28.721958], [77.2228568, 28.7217386], [77.2233554, 28.7214802], [77.2239435, 28.721169], [77.2248735, 28.720677], [77.2253646, 28.7203831], [77.2257964, 28.7200613], [77.2264467, 28.7195546], [77.2270484, 28.7190371], [77.2272231, 28.7188091], [77.2277704, 28.7178592], [77.2278734, 28.7175555], [77.2279291, 28.7172798], [77.2279648, 28.7168868], [77.2279358, 28.7166307], [77.2278444, 28.7162435], [77.227617, 28.715522], [77.227617, 28.715522], [77.2275354, 28.7152675], [77.2270936, 28.713572], [77.2269955, 28.7131957], [77.2269212, 28.7127458], [77.2268793, 28.7123043], [77.2268954, 28.7120779], [77.2270051, 28.7116194], [77.2273375, 28.7107166], [77.2275202, 28.7102815], [77.227534, 28.7102486], [77.2277168, 28.7098134], [77.2280253, 28.7092141], [77.2283905, 28.7088317], [77.2289191, 28.7085667], [77.2302506, 28.7083549], [77.2324642, 28.707867], [77.2332443, 28.7076758], [77.2354839, 28.7071395], [77.2362438, 28.7069646], [77.2367299, 28.706943], [77.2371576, 28.7070262], [77.2377118, 28.7072455], [77.2379822, 28.7074115], [77.2382593, 28.7076427], [77.2388743, 28.7084015], [77.239165, 28.7087097], [77.2394691, 28.7089172], [77.2398679, 28.7090595], [77.2403275, 28.7091306], [77.2407983, 28.7091439], [77.2413087, 28.7091051], [77.242523, 28.7087587], [77.244328, 28.7082438], [77.2459543, 28.7077967], [77.2475839, 28.7073099], [77.2536362, 28.705486], [77.2544827, 28.7052201], [77.254836, 28.7051091], [77.254836, 28.7051091], [77.2558725, 28.7048285], [77.2571338, 28.7045507], [77.2583912, 28.7041731], [77.2588787, 28.704045], [77.2604946, 28.7037522], [77.2626441, 28.70362], [77.2631282, 28.7035902], [77.265879, 28.7033712], [77.2686519, 28.7031367], [77.2707856, 28.7029503], [77.2759169, 28.7025279], [77.2773077, 28.7024004], [77.2786354, 28.7022786], [77.2802876, 28.7022749], [77.2809713, 28.7022591], [77.2813042, 28.7023223], [77.2817698, 28.7023723], [77.2820268, 28.7023756], [77.2823075, 28.7023689], [77.2826131, 28.7023303], [77.2832166, 28.7021527], [77.2835425, 28.7019892], [77.2838911, 28.7016669], [77.2840655, 28.7013587], [77.2841714, 28.7008611], [77.2841674, 28.7004094], [77.2840829, 28.7000471], [77.2838952, 28.6996706], [77.2834966, 28.6991291], [77.2830585, 28.6987947], [77.2826242, 28.6982424], [77.2813121, 28.6957428], [77.27863, 28.690203], [77.27887, 28.6907075], [77.2789678, 28.690907], [77.2790943, 28.6912016], [77.2791744, 28.6913988], [77.2795273, 28.6921488], [77.2798239, 28.692779], [77.2801309, 28.6933685], [77.2803309, 28.6937525], [77.2805046, 28.6940812], [77.2806268, 28.6943424], [77.2808036, 28.694747], [77.2809345, 28.695011], [77.281097, 28.6953171], [77.2813121, 28.6957428]]}}, {"type": "Feature", "properties": {"ref": "8", "name": "Magenta Line \u2014 Janakpuri West\u2013Botanical", "color": "#9B2335", "status": "open", "open_year": 2017}, "geometry": {"type": "LineString", "coordinates": [[77.321614, 28.5529243], [77.3235311, 28.5542934], [77.3249539, 28.5553055], [77.3263591, 28.5560608], [77.326928, 28.5563326], [77.3275902, 28.5566032], [77.3281805, 28.5568415], [77.3294193, 28.5573477], [77.3311342, 28.5580605], [77.3337706, 28.5591355], [77.3344484, 28.559515], [77.3348402, 28.5599054], [77.3351248, 28.5603918], [77.3352643, 28.5608748], [77.3353274, 28.5613312], [77.3353024, 28.5615423], [77.335275, 28.5616969], [77.3351687, 28.562023], [77.3350637, 28.562249], [77.3349408, 28.5624541], [77.3343859, 28.5632248], [77.33431, 28.5633303], [77.333862, 28.5639196], [77.321614, 28.5529243], [77.3210039, 28.5524705], [77.3206099, 28.5521774], [77.3196576, 28.5511834], [77.3193459, 28.550821], [77.3185412, 28.5500294], [77.3164426, 28.5482732], [77.3143278, 28.5465126], [77.3129815, 28.5453533], [77.3122272, 28.5447038], [77.3101309, 28.5428984], [77.3101309, 28.5428984], [77.3094249, 28.542252], [77.3091466, 28.5419972], [77.3085217, 28.5413924], [77.3065666, 28.5391288], [77.3060556, 28.538655], [77.3056025, 28.5383716], [77.3050453, 28.5381451], [77.304635, 28.5380531], [77.3042102, 28.5380105], [77.3037763, 28.5380185], [77.3032436, 28.5381044], [77.3027117, 28.5382871], [77.3017828, 28.5387433], [77.3011176, 28.5391887], [77.3004919, 28.5399286], [77.2989936, 28.54193], [77.298799, 28.5421869], [77.29866, 28.5423764], [77.2984908, 28.5426238], [77.2983162, 28.5429068], [77.2979628, 28.5435142], [77.2970991, 28.5450135], [77.2966352, 28.5458187], [77.291848, 28.5613021], [77.2918094, 28.5598771], [77.2917585, 28.5594714], [77.2916467, 28.5590433], [77.2914608, 28.5584836], [77.2913394, 28.558022], [77.2913216, 28.5574505], [77.2914098, 28.556827], [77.2916104, 28.5562127], [77.2919339, 28.5555853], [77.2925987, 28.5541597], [77.2928732, 28.5534982], [77.2929505, 28.5533019], [77.2930024, 28.5531396], [77.2930333, 28.5530255], [77.2931259, 28.5526298], [77.293319, 28.5518201], [77.2933863, 28.551592], [77.2934268, 28.5514816], [77.2935388, 28.5512054], [77.2936291, 28.5510249], [77.29414, 28.5501325], [77.2950399, 28.5485565], [77.2951551, 28.548393], [77.2953652, 28.5480045], [77.2960144, 28.5468976], [77.2960962, 28.5467622], [77.2961853, 28.5466059], [77.2966018, 28.5458757], [77.2966352, 28.5458187], [77.291848, 28.5613021], [77.2918674, 28.5618738], [77.2919284, 28.5629034], [77.2917863, 28.5634969], [77.2914619, 28.5640489], [77.2909509, 28.5645155], [77.2904217, 28.5647666], [77.2900605, 28.564891], [77.2896235, 28.564983], [77.2891634, 28.5649799], [77.2887137, 28.5648927], [77.2882815, 28.5647311], [77.2879222, 28.5644933], [77.2872626, 28.5640031], [77.2868282, 28.563603], [77.2863588, 28.5630343], [77.2863588, 28.5630343], [77.2857527, 28.5623561], [77.2855474, 28.5621264], [77.2851563, 28.5618202], [77.2845282, 28.5615152], [77.2838401, 28.5612447], [77.2837708, 28.5612175], [77.2831653, 28.5610588], [77.2826252, 28.5610099], [77.2815109, 28.5610331], [77.2784594, 28.5609969], [77.2780579, 28.5609643], [77.2776922, 28.5609063], [77.2774362, 28.5608445], [77.2769168, 28.5607192], [77.2764459, 28.5605021], [77.2758372, 28.5601906], [77.2749693, 28.5597843], [77.2648369, 28.5544479], [77.2656002, 28.5551267], [77.2658522, 28.5553152], [77.266033, 28.5554315], [77.2662472, 28.5555534], [77.2673999, 28.5561358], [77.269469, 28.5571725], [77.2699149, 28.5573899], [77.2706785, 28.5577685], [77.2716382, 28.5582379], [77.2720194, 28.558426], [77.2726637, 28.5587438], [77.2734547, 28.5590922], [77.2741066, 28.5593627], [77.2749693, 28.5597843], [77.263096, 28.553226], [77.2634259, 28.5533815], [77.2638738, 28.5536501], [77.2648369, 28.5544479], [77.2617251, 28.5526779], [77.263096, 28.553226], [77.2566811, 28.550077], [77.2576719, 28.5509364], [77.2582492, 28.551287], [77.2594508, 28.5518619], [77.2617251, 28.5526779], [77.1453385, 28.5597597], [77.1502905, 28.5587778], [77.152951, 28.5585358], [77.1596446, 28.557927], [77.1610899, 28.557808], [77.162597, 28.5576687], [77.1658629, 28.5578211], [77.168318, 28.5584547], [77.1691439, 28.5586679], [77.1703016, 28.5589667], [77.1719852, 28.5589843], [77.1730234, 28.5586277], [77.1737645, 28.5581695], [77.1743226, 28.557533], [77.1750411, 28.5568808], [77.1839871, 28.5510905], [77.1855052, 28.5503632], [77.1884561, 28.5491395], [77.1900103, 28.5485564], [77.192349, 28.5476789], [77.193109, 28.5473938], [77.1945149, 28.5470025], [77.1958508, 28.5465839], [77.1979627, 28.5458271], [77.2017348, 28.544087], [77.2039198, 28.5434758], [77.2050189, 28.5433508], [77.2062144, 28.5431659], [77.2210921, 28.5423526], [77.2225456, 28.5422754], [77.2265965, 28.5419249], [77.2289311, 28.5412746], [77.2302907, 28.5410914], [77.2343217, 28.5407314], [77.2361719, 28.5409318], [77.2372289, 28.5413697], [77.2384643, 28.5418724], [77.2461344, 28.5441981], [77.249354, 28.5451633], [77.251518, 28.5460369], [77.2524641, 28.5464899], [77.2529449, 28.5467201], [77.2545745, 28.5479596], [77.2546649, 28.5480284], [77.2549102, 28.5483371], [77.2556035, 28.5490465], [77.2563822, 28.5498038], [77.2566811, 28.550077], [77.1356393, 28.5617794], [77.1386555, 28.5611616], [77.140254, 28.5608275], [77.1409286, 28.5607361], [77.1418859, 28.5606311], [77.1426487, 28.560493], [77.1428525, 28.5604561], [77.1453385, 28.5597597], [77.1184146, 28.5752213], [77.1191951, 28.5750197], [77.1200252, 28.5748052], [77.1208565, 28.5743997], [77.1213037, 28.5738755], [77.1215492, 28.5731007], [77.1219439, 28.5711495], [77.1219906, 28.569685], [77.1218741, 28.5688914], [77.1220658, 28.5675924], [77.1226212, 28.5648599], [77.1230745, 28.5627068], [77.1232766, 28.5621114], [77.123758, 28.5615027], [77.1246052, 28.5607559], [77.126182, 28.5605382], [77.1288098, 28.5608637], [77.1317112, 28.5616793], [77.1324912, 28.5618733], [77.1333602, 28.5619722], [77.134476, 28.5619698], [77.1356393, 28.5617794], [77.1184146, 28.5752213], [77.1177635, 28.5753599], [77.1154514, 28.5758266], [77.1142601, 28.5760641], [77.1134784, 28.5763284], [77.1121236, 28.5767799], [77.1111249, 28.57709], [77.1103554, 28.5772776], [77.1094847, 28.5775083], [77.1085654, 28.5777542], [77.1072197, 28.5781871], [77.1061192, 28.578543], [77.1053755, 28.5787349], [77.1049037, 28.5788065], [77.1043108, 28.5789151], [77.1040522, 28.5789829], [77.1025463, 28.5795914], [77.1014324, 28.5799304], [77.1002519, 28.5802657], [77.1002519, 28.5802657], [77.0987567, 28.5806904], [77.0981642, 28.5808363], [77.0981642, 28.5808363], [77.0970395, 28.5811635], [77.0934183, 28.5828069], [77.0890167, 28.5850294], [77.084422, 28.5873544], [77.0835835, 28.5881487], [77.0830489, 28.5889096], [77.0823439, 28.589889], [77.0816956, 28.5908915], [77.0814885, 28.5919376], [77.0810917, 28.5958664], [77.0820919, 28.6006231], [77.0823561, 28.6018751], [77.0825825, 28.6028166], [77.0837898, 28.6108234], [77.084205, 28.6135768], [77.0843145, 28.613822], [77.085178, 28.6157555], [77.085443, 28.6165332], [77.08564, 28.6173807], [77.0851622, 28.6187949], [77.0842172, 28.6202549], [77.083032, 28.6220384], [77.0795804, 28.6255855], [77.0779235, 28.6289502], [77.0778142, 28.6291688], [77.0778142, 28.6291688], [77.0773959, 28.6305197], [77.0771921, 28.6318616], [77.0772779, 28.6328598], [77.0777087, 28.6335612], [77.0788832, 28.6350568], [77.0793704, 28.6357129], [77.079936, 28.6363425], [77.0804095, 28.6368656], [77.0806752, 28.6372397], [77.0809615, 28.6379819], [77.0814321, 28.639289], [77.0829706, 28.6435622], [77.0838252, 28.6462482], [77.0843102, 28.6478016]]}}]}