{"type": "FeatureCollection", "features": [{"type": "Feature", "properties": {"ref": "#0000ff", "name": "Blue Line (Kavi Subhash \u2192 Dakshineshwar)", "color": "#0000ff", "status": "unknown", "open_year": null}, "geometry": {"type": "LineString", "coordinates": [[88.3980224, 22.4721341], [88.3987705, 22.4714572], [88.3995205, 22.4708732], [88.3999667, 22.4705257], [88.4004588, 22.4700742], [88.4005557, 22.4699809], [88.4006453, 22.4698814], [88.4007271, 22.4697764], [88.4008007, 22.4696664], [88.4008657, 22.4695518], [88.4009218, 22.4694333], [88.4009688, 22.4693114], [88.4010064, 22.4691868], [88.4010345, 22.46906], [88.4010528, 22.4689318], [88.4010612, 22.4688026], [88.4010599, 22.4686732], [88.4010487, 22.4685443], [88.4010277, 22.4684164], [88.400997, 22.4682901], [88.4009568, 22.4681662], [88.4009072, 22.4680452], [88.40085, 22.4679303], [88.4007844, 22.4678194], [88.4007107, 22.4677128], [88.4006292, 22.4676112], [88.4005404, 22.4675151], [88.4004446, 22.4674248], [88.4003424, 22.4673408], [88.4002341, 22.4672634], [88.4001203, 22.4671932], [88.4000016, 22.4671303], [88.3998785, 22.4670752], [88.3997515, 22.4670279], [88.3996214, 22.4669889], [88.3994887, 22.4669582], [88.3993539, 22.4669361], [88.3986183, 22.4668502], [88.3963195, 22.4666058], [88.3928774, 22.4661153], [88.3928774, 22.4661153], [88.3926694, 22.4660856], [88.3926694, 22.4660856], [88.3926124, 22.4660775], [88.3912447, 22.4658509], [88.3906903, 22.4657591], [88.3899216, 22.4655149], [88.3892308, 22.4652877], [88.3883981, 22.4649766], [88.3878782, 22.4648651], [88.3874084, 22.4648276], [88.3869141, 22.4649208], [88.3861368, 22.4651128], [88.38544, 22.4653029], [88.3849246, 22.4653562], [88.3842265, 22.4652846], [88.3835611, 22.4651137], [88.3828729, 22.4648512], [88.3819872, 22.464495], [88.3813243, 22.4642833], [88.3800406, 22.4640623], [88.379601, 22.4639806], [88.379601, 22.4639806], [88.3792916, 22.4639262], [88.3792916, 22.4639262], [88.3786502, 22.4639076], [88.3779348, 22.4640376], [88.3773197, 22.4642706], [88.3767233, 22.4646808], [88.3760608, 22.4654352], [88.3754539, 22.4662143], [88.375081, 22.4665072], [88.37455, 22.4668133], [88.3739482, 22.4670959], [88.3735378, 22.4673384], [88.3731927, 22.4676742], [88.3727007, 22.4682664], [88.3724127, 22.4685462], [88.3723882, 22.46857], [88.3720249, 22.4688181], [88.3715492, 22.4690155], [88.3710371, 22.4692131], [88.370875, 22.4692408], [88.3703001, 22.469339], [88.3700144, 22.469362], [88.3691688, 22.4694302], [88.3684325, 22.4695867], [88.3673331, 22.4699166], [88.3662526, 22.470356], [88.3648467, 22.4710499], [88.3635681, 22.4716983], [88.3613691, 22.4730669], [88.3608305, 22.4734143], [88.358574, 22.4748697], [88.3581109, 22.4751101], [88.3576311, 22.4752168], [88.3570496, 22.4752895], [88.3564578, 22.4753912], [88.3552384, 22.4758679], [88.3542115, 22.4762989], [88.3538401, 22.4765403], [88.3529545, 22.4772068], [88.3519457, 22.4779611], [88.3514901, 22.478238], [88.3508505, 22.4784542], [88.3497574, 22.4788186], [88.3489159, 22.479093], [88.3481081, 22.479451], [88.3474282, 22.4798277], [88.3467791, 22.4803696], [88.3455988, 22.4812746], [88.3452889, 22.4815123], [88.3449339, 22.4818765], [88.3447184, 22.4822516], [88.344561, 22.482659], [88.344373, 22.4832834], [88.3441081, 22.4837073], [88.3437268, 22.4840708], [88.3431764, 22.484464], [88.3425678, 22.4848547], [88.3424642, 22.4849321], [88.3423662, 22.4850155], [88.3422744, 22.4851047], [88.3421891, 22.4851993], [88.3421107, 22.4852989], [88.3420395, 22.485403], [88.3419759, 22.4855112], [88.3419201, 22.485623], [88.341872, 22.4857388], [88.3418323, 22.4858574], [88.3418012, 22.4859781], [88.3417787, 22.4861004], [88.3417651, 22.4862239], [88.3417603, 22.4863479], [88.3417644, 22.4864719], [88.3417774, 22.4865954], [88.3417992, 22.4867179], [88.3418297, 22.4868387], [88.3418688, 22.4869574], [88.3419163, 22.4870735], [88.3419514, 22.4871421], [88.3419927, 22.4872235], [88.3420384, 22.487303], [88.3420884, 22.4873802], [88.3421364, 22.4874469], [88.3423099, 22.4876316], [88.3424144, 22.4877285], [88.3430459, 22.4883391], [88.3432556, 22.4885657], [88.3434468, 22.4888645], [88.3436029, 22.4891829], [88.3437521, 22.4895574], [88.3439078, 22.489989], [88.3444368, 22.4913255], [88.3445613, 22.4918251], [88.3446553, 22.4922018], [88.3446999, 22.492467], [88.3447477, 22.4927953], [88.3447809, 22.4931426], [88.3449794, 22.495293], [88.345063, 22.4961981], [88.345071, 22.4963483], [88.3450739, 22.4964478], [88.3450739, 22.4964478], [88.3451164, 22.4975667], [88.3450846, 22.4988387], [88.34503, 22.5015928], [88.3451029, 22.5035002], [88.3453945, 22.5068721], [88.3454327, 22.5076062], [88.3454765, 22.5084482], [88.3455679, 22.5096711], [88.3457956, 22.5115658], [88.3458775, 22.5130669], [88.345932, 22.5145694], [88.3459502, 22.5154285], [88.3458051, 22.5161538], [88.3457311, 22.5168384], [88.3457808, 22.5171299], [88.3458693, 22.5176494], [88.3464706, 22.5204101], [88.3466062, 22.521233], [88.3465972, 22.5220371], [88.3464424, 22.5239856], [88.3464254, 22.5242532], [88.3463515, 22.5254143], [88.3462247, 22.5262832], [88.3460256, 22.5269893], [88.3455062, 22.5286023], [88.345357, 22.529143], [88.3454315, 22.5297114], [88.3457775, 22.5316964], [88.3459006, 22.5332686], [88.3459203, 22.5334398], [88.3459869, 22.5340179], [88.3460782, 22.5353698], [88.3462612, 22.5361472], [88.3468714, 22.539681], [88.3472276, 22.5417879], [88.3472931, 22.5421752], [88.3473451, 22.5424598], [88.3479376, 22.5462057], [88.3483664, 22.5483136], [88.3487474, 22.5497087], [88.3490135, 22.550683], [88.3493139, 22.5520851], [88.3496695, 22.5536346], [88.34997, 22.5549278], [88.3500414, 22.5552804], [88.3501241, 22.5556892], [88.3502059, 22.5566435], [88.3505704, 22.5598523], [88.3510172, 22.5631895], [88.351106, 22.5636505], [88.3512549, 22.5644239], [88.3514941, 22.5652331], [88.3517837, 22.5658217], [88.3520367, 22.5660553], [88.3543062, 22.5670985], [88.3568384, 22.5682553], [88.3573117, 22.568492], [88.3574462, 22.5687273], [88.3577081, 22.5693686], [88.3586642, 22.5723734], [88.3587523, 22.5726466], [88.3599124, 22.5762455], [88.3604407, 22.5780219], [88.3606084, 22.5785753], [88.3610783, 22.5801259], [88.3613384, 22.5811183], [88.3618161, 22.5829404], [88.3628184, 22.586813], [88.3629625, 22.5873608], [88.3637386, 22.5903113], [88.3647316, 22.5945934], [88.3650951, 22.5960768], [88.3651793, 22.5964204], [88.3655732, 22.5973733], [88.365984, 22.5982587], [88.366368, 22.5990479], [88.3668195, 22.5996242], [88.3676157, 22.6000774], [88.3695883, 22.6005799], [88.3720469, 22.6013174], [88.3726119, 22.6014912], [88.3728571, 22.6015667], [88.3739391, 22.6018996], [88.3761525, 22.6028014], [88.3779505, 22.6034037], [88.380383, 22.6041508], [88.3818957, 22.6046793], [88.3826028, 22.6048943], [88.3850132, 22.6056273], [88.3865976, 22.6061148], [88.3880928, 22.6065749], [88.389007, 22.60686], [88.3906329, 22.607367], [88.3910432, 22.6075094], [88.3914348, 22.6076733], [88.3917569, 22.6078617], [88.3920603, 22.6080844], [88.3924283, 22.6083759], [88.3926402, 22.6085943], [88.3927641, 22.6087343], [88.3928926, 22.6089044], [88.3930002, 22.6090707], [88.3931078, 22.6092627], [88.3932643, 22.6095466], [88.3933752, 22.6098218], [88.3934574, 22.6100789], [88.3935042, 22.610335], [88.3935042, 22.610335], [88.3935405, 22.6106881], [88.3935513, 22.6110549], [88.3933054, 22.614632], [88.3930413, 22.6186125], [88.3928773, 22.6199426], [88.392777, 22.6213386], [88.3926767, 22.6229693], [88.3924855, 22.6253556], [88.3924214, 22.625997], [88.392425, 22.6261667], [88.392425, 22.6261667], [88.3924399, 22.6263965], [88.3928956, 22.629012], [88.3929499, 22.6299257], [88.3929499, 22.6299257], [88.3928955, 22.6307963], [88.3928136, 22.631742], [88.3927403, 22.6327004], [88.3926492, 22.6337077], [88.3927133, 22.6349796], [88.3928326, 22.6357324], [88.3933037, 22.6371969], [88.3940511, 22.639981], [88.3940511, 22.639981], [88.3945429, 22.6417902], [88.3946516, 22.6424237], [88.3947372, 22.6437467], [88.3947459, 22.6444462], [88.3947416, 22.6446238], [88.3947277, 22.6448009], [88.3947043, 22.6449772], [88.3946715, 22.6451522], [88.3946293, 22.6453254], [88.3945777, 22.6454965], [88.394517, 22.645665], [88.3944473, 22.6458305], [88.3943687, 22.6459927], [88.3942772, 22.6461583], [88.3941766, 22.6463193], [88.3940669, 22.6464752], [88.3939485, 22.6466256], [88.3936658, 22.6469619], [88.3918828, 22.6487365], [88.3909867, 22.6494727], [88.3907442, 22.6496392], [88.3904974, 22.6498003], [88.3902463, 22.6499557], [88.3899825, 22.6500979], [88.3897196, 22.6502357], [88.3894255, 22.6503806], [88.3891272, 22.6505182], [88.388825, 22.6506484], [88.3884925, 22.6507445], [88.3865468, 22.6513036], [88.3806696, 22.6530658], [88.3772795, 22.6540758], [88.3755793, 22.6545386], [88.3753322, 22.6545911], [88.3750626, 22.6546313], [88.3747919, 22.6546644], [88.3745202, 22.6546901], [88.3742478, 22.6547086], [88.373974, 22.6547211], [88.3736973, 22.6547287], [88.3734287, 22.6547256], [88.3731602, 22.6547155], [88.3728921, 22.6546982], [88.3707757, 22.654507], [88.3675786, 22.654353], [88.3660635, 22.6542192], [88.3654777, 22.6541674], [88.3637585, 22.6540156]]}}, {"type": "Feature", "properties": {"ref": "Blue", "name": "Blue Line (Dakshineshwar \u2192 Kavi Subhash)", "color": "#0000ff", "status": "unknown", "open_year": null}, "geometry": {"type": "LineString", "coordinates": [[88.3637502, 22.6540511], [88.3648929, 22.6541574], [88.3666276, 22.6543187], [88.3675737, 22.6544067], [88.3707703, 22.6545678], [88.3728895, 22.6547448], [88.3731585, 22.6547662], [88.3734281, 22.65478], [88.373698, 22.654786], [88.373976, 22.6547806], [88.3742511, 22.6547697], [88.3745259, 22.6547521], [88.3747999, 22.6547264], [88.3750729, 22.6546928], [88.3753446, 22.6546512], [88.3755984, 22.654597], [88.3773002, 22.6541337], [88.3806898, 22.6531239], [88.3865644, 22.6513584], [88.3885162, 22.6507977], [88.3888508, 22.6507006], [88.389155, 22.6505695], [88.3894553, 22.6504308], [88.3897514, 22.6502847], [88.3900158, 22.6501461], [88.3902825, 22.6500022], [88.390535, 22.6498458], [88.3907833, 22.649684], [88.3910273, 22.6495164], [88.3919342, 22.6487752], [88.39372, 22.6469968], [88.3940052, 22.6466571], [88.3941026, 22.6465345], [88.3941943, 22.6464082], [88.3942801, 22.6462786], [88.39436, 22.6461456], [88.3944337, 22.6460097], [88.3945126, 22.645846], [88.3945826, 22.6456789], [88.3946435, 22.6455088], [88.3946952, 22.6453361], [88.3947376, 22.6451613], [88.3947705, 22.6449847], [88.3947939, 22.6448068], [88.3948077, 22.6446282], [88.394812, 22.644449], [88.3948033, 22.6437446], [88.3947173, 22.6424168], [88.3946079, 22.641779], [88.3941153, 22.6399665], [88.3941153, 22.6399665], [88.3933476, 22.6371992], [88.3928976, 22.635721], [88.3927792, 22.6349738], [88.3927154, 22.6337073], [88.3927978, 22.6327046], [88.392837, 22.6322456], [88.3928794, 22.6317482], [88.3929614, 22.6308005], [88.3930161, 22.6299258], [88.3930161, 22.6299258], [88.3929614, 22.6290055], [88.3925058, 22.6263903], [88.392491, 22.6261578], [88.392491, 22.6261578], [88.3924876, 22.6259985], [88.3925514, 22.6253607], [88.3927427, 22.6229733], [88.392843, 22.6213423], [88.3929036, 22.6204985], [88.3929432, 22.6199481], [88.3931072, 22.6186178], [88.3933714, 22.6146358], [88.3936175, 22.6110548], [88.3936009, 22.6106782], [88.3935671, 22.6103272], [88.3935671, 22.6103272], [88.3935218, 22.6100629], [88.3934344, 22.609795], [88.3933139, 22.6095156], [88.3931646, 22.6092309], [88.3930444, 22.6090264], [88.3929126, 22.608839], [88.3927975, 22.6086813], [88.3926846, 22.6085495], [88.3925752, 22.6084336], [88.3924541, 22.6083135], [88.3921049, 22.6080388], [88.3917906, 22.607812], [88.391467, 22.6076196], [88.3910685, 22.607454], [88.3906561, 22.6073098], [88.3881138, 22.606517], [88.3876411, 22.606403], [88.3875941, 22.6063859], [88.3861588, 22.6059281], [88.385034, 22.6055694], [88.3819177, 22.6046218], [88.3804051, 22.6040933], [88.3779722, 22.6033461], [88.3761771, 22.6027447], [88.3739629, 22.6018426], [88.3723435, 22.6013443], [88.3720676, 22.6012594], [88.3696073, 22.6005214], [88.3676505, 22.600009], [88.3668654, 22.5995786], [88.3664255, 22.5990172], [88.3660445, 22.5982342], [88.3656345, 22.5973504], [88.3652427, 22.5964027], [88.3650434, 22.595589], [88.3649382, 22.5951598], [88.3648275, 22.5947082], [88.3648275, 22.5947082], [88.3647974, 22.5945797], [88.3647974, 22.5945797], [88.3647604, 22.5944219], [88.3647287, 22.5942866], [88.3647287, 22.5942866], [88.3646601, 22.5939935], [88.3646383, 22.5938993], [88.3646259, 22.5938461], [88.3646092, 22.593774], [88.3644219, 22.5929664], [88.3642695, 22.5923091], [88.3642695, 22.5923091], [88.3641858, 22.5919483], [88.3641249, 22.5916854], [88.3641073, 22.5916036], [88.3639697, 22.5910155], [88.3638954, 22.5906884], [88.3638954, 22.5906884], [88.363803, 22.5902977], [88.3635563, 22.5893599], [88.3632357, 22.588141], [88.3631995, 22.5880033], [88.3628827, 22.5867987], [88.3628753, 22.5867702], [88.3628677, 22.5867408], [88.3628483, 22.5866708], [88.3627322, 22.5862172], [88.3618804, 22.5829261], [88.3613153, 22.5807704], [88.3611423, 22.5801105], [88.3611423, 22.5801105], [88.3605285, 22.5780304], [88.3605285, 22.5780304], [88.359976, 22.5762287], [88.3587276, 22.5723561], [88.3587062, 22.5722888], [88.3577708, 22.5693492], [88.3575066, 22.5687022], [88.3573608, 22.5684471], [88.3568688, 22.5682011], [88.3543356, 22.5670438], [88.3540584, 22.5669164], [88.3520758, 22.5660051], [88.3518389, 22.5657864], [88.3515565, 22.5652123], [88.3513195, 22.5644105], [88.3511709, 22.5636389], [88.3510826, 22.5631804], [88.3506361, 22.5598454], [88.3502717, 22.5566379], [88.3501897, 22.5556812], [88.3500469, 22.5549758], [88.3500348, 22.5549158], [88.3497341, 22.5536219], [88.3493787, 22.5520728], [88.349078, 22.5506696], [88.3487245, 22.5493752], [88.348431, 22.5483005], [88.3480028, 22.5461956], [88.3474105, 22.5424506], [88.3472361, 22.5414273], [88.3469367, 22.5396714], [88.3463262, 22.5361359], [88.3461439, 22.5353614], [88.3460528, 22.5340128], [88.3459664, 22.5332632], [88.3459483, 22.5330323], [88.3458432, 22.5316893], [88.345497, 22.5297029], [88.3454241, 22.529147], [88.3455699, 22.5286185], [88.3460893, 22.5270057], [88.3462897, 22.526295], [88.3464173, 22.5254202], [88.3465084, 22.5239896], [88.3465099, 22.523971], [88.3466633, 22.5220397], [88.3466724, 22.5212287], [88.3465357, 22.5203995], [88.3459344, 22.5176386], [88.3457977, 22.5168367], [88.3458097, 22.5167254], [88.3458706, 22.5161624], [88.3460164, 22.5154335], [88.3459981, 22.5145678], [88.3459435, 22.5130643], [88.3458615, 22.5115609], [88.3456337, 22.5096656], [88.3455425, 22.5084446], [88.3454779, 22.507203], [88.3454605, 22.5068682], [88.3454019, 22.5056977], [88.345349, 22.5046407], [88.3451689, 22.5034967], [88.3452264, 22.5032909], [88.3450961, 22.5015923], [88.3451399, 22.4993863], [88.3451507, 22.4988405], [88.3451825, 22.4975639], [88.34514, 22.4964487], [88.3792843, 22.4639871], [88.3786556, 22.4639689], [88.3779539, 22.4640964], [88.3773525, 22.4643242], [88.3767694, 22.4647252], [88.3761133, 22.4654723], [88.3755028, 22.466256], [88.3751201, 22.4665567], [88.3745825, 22.4668665], [88.3739811, 22.467149], [88.3735802, 22.4673859], [88.373243, 22.4677139], [88.372751, 22.4683062], [88.3724581, 22.4685907], [88.3724321, 22.468616], [88.3720585, 22.4688711], [88.3715755, 22.4690716], [88.3710561, 22.469272], [88.3709362, 22.4692925], [88.370309, 22.4693996], [88.3700224, 22.4694227], [88.3691791, 22.4694907], [88.3684501, 22.4696456], [88.3673567, 22.4699737], [88.3662815, 22.470411], [88.3648782, 22.4711036], [88.3636025, 22.4717505], [88.3614065, 22.4731173], [88.3608636, 22.4734675], [88.3586092, 22.4749215], [88.3581353, 22.4751675], [88.3576433, 22.4752769], [88.3570601, 22.4753498], [88.3564769, 22.47545], [88.355265, 22.4759238], [88.3542445, 22.4763521], [88.35388, 22.476589], [88.3529962, 22.4772542], [88.3519847, 22.4780105], [88.35152, 22.4782929], [88.3508731, 22.4785116], [88.3497796, 22.4788761], [88.3489413, 22.4791495], [88.3481395, 22.4795048], [88.3474652, 22.4798784], [88.3468201, 22.4804175], [88.3464111, 22.4807311], [88.3453348, 22.4815565], [88.3449885, 22.4819118], [88.344779, 22.4822763], [88.3446241, 22.4826772], [88.3444346, 22.483307], [88.3441613, 22.4837444], [88.3437694, 22.484118], [88.3431934, 22.4844805], [88.342587, 22.4848766], [88.3424841, 22.4849534], [88.3423876, 22.4850356], [88.3422971, 22.4851235], [88.3422131, 22.4852166], [88.3421359, 22.4853147], [88.3420658, 22.4854172], [88.3420031, 22.4855238], [88.3419481, 22.4856339], [88.3419008, 22.485748], [88.3418617, 22.4858648], [88.341831, 22.4859837], [88.3418089, 22.4861042], [88.3417955, 22.4862258], [88.3417908, 22.486348], [88.3417948, 22.4864701], [88.3418076, 22.4865918], [88.3418291, 22.4867124], [88.3418591, 22.4868314], [88.3418976, 22.4869484], [88.3419447, 22.4870636], [88.3419825, 22.4871313], [88.3420383, 22.4872219], [88.342096, 22.4873115], [88.3421371, 22.4873732], [88.3421791, 22.4874343], [88.3423395, 22.4876063], [88.3424325, 22.4876993], [88.3430678, 22.4883095], [88.3432893, 22.48855], [88.3434781, 22.4888513], [88.3436364, 22.48917], [88.3437838, 22.4895425], [88.3439377, 22.4899723], [88.3444941, 22.4913186], [88.344732, 22.4922066], [88.3448466, 22.4931358], [88.3449466, 22.4942654], [88.34514, 22.4964487], [88.3795818, 22.4640394], [88.3792843, 22.4639871], [88.3926022, 22.4661379], [88.392121, 22.4660582], [88.3906743, 22.4658186], [88.3898998, 22.4655726], [88.3892073, 22.4653448], [88.3883781, 22.465035], [88.3878678, 22.4649256], [88.3874122, 22.4648892], [88.3869293, 22.4649803], [88.3861547, 22.4651716], [88.3854531, 22.465363], [88.3849246, 22.4654177], [88.3842139, 22.4653448], [88.3835396, 22.4651716], [88.3828471, 22.4649074], [88.3819632, 22.464552], [88.3813072, 22.4643425], [88.3811204, 22.4643097], [88.3795818, 22.4640394], [88.3929171, 22.4661828], [88.3926022, 22.4661379], [88.3979831, 22.4720892], [88.398726, 22.471412], [88.3989735, 22.471219], [88.3999162, 22.4704841], [88.4004124, 22.4700514], [88.4005086, 22.4699604], [88.4005975, 22.4698634], [88.4006788, 22.4697608], [88.400752, 22.4696531], [88.4008168, 22.4695409], [88.4008728, 22.4694247], [88.4009197, 22.4693052], [88.4009574, 22.4691829], [88.4009855, 22.4690584], [88.4010041, 22.4689324], [88.4010129, 22.4688055], [88.401012, 22.4686784], [88.4010014, 22.4685516], [88.400981, 22.4684258], [88.400951, 22.4683017], [88.4009116, 22.4681798], [88.400863, 22.4680609], [88.4008071, 22.4679486], [88.400743, 22.4678402], [88.4006709, 22.4677361], [88.4005912, 22.4676369], [88.4005044, 22.4675429], [88.4004107, 22.4674547], [88.4003107, 22.4673727], [88.4002049, 22.4672972], [88.4000936, 22.4672287], [88.3999775, 22.4671674], [88.3998571, 22.4671136], [88.399733, 22.4670676], [88.3996058, 22.4670297], [88.399476, 22.4669999], [88.3993443, 22.4669784], [88.3986103, 22.4669017], [88.3963108, 22.4666664], [88.3929171, 22.4661828]]}}, {"type": "Feature", "properties": {"ref": "Green", "name": "Green Line (Howrah Maidan \u2192 Salt Lake Sector V)", "color": "green", "status": "unknown", "open_year": null}, "geometry": {"type": "LineString", "coordinates": [[88.3506919, 22.5638121], [88.3502681, 22.5641817], [88.3492158, 22.5650996], [88.348846, 22.5655741], [88.3486533, 22.5660672], [88.3487419, 22.5669184], [88.3505501, 22.5720495], [88.3508264, 22.5728334], [88.3523725, 22.5776005], [88.3524158, 22.5778917], [88.3523945, 22.5782503], [88.3523043, 22.5789074], [88.3521298, 22.5794462], [88.3518449, 22.5799215], [88.3514763, 22.5802033], [88.3510473, 22.5804067], [88.3492754, 22.5811605], [88.3433692, 22.5820221], [88.340164, 22.5833721], [88.3387821, 22.5839542], [88.336316, 22.5845046], [88.3351042, 22.5846857], [88.3346345, 22.5845709], [88.3342747, 22.5842718], [88.3339972, 22.5837786], [88.333005, 22.5820146], [88.3515985, 22.5632896], [88.3506919, 22.5638121], [88.3693356, 22.5667244], [88.3635769, 22.568639], [88.3629128, 22.568711], [88.362329, 22.5686368], [88.3616967, 22.5684542], [88.361182, 22.5681458], [88.3606786, 22.5676899], [88.3597393, 22.5660637], [88.3592991, 22.5648524], [88.3578584, 22.5634987], [88.3566748, 22.5627634], [88.3550477, 22.5624946], [88.3528995, 22.5628646], [88.3515985, 22.5632896], [88.3890079, 22.5719806], [88.3874148, 22.5717272], [88.3851281, 22.5711956], [88.3830616, 22.5704402], [88.3814778, 22.5697313], [88.3773677, 22.5680429], [88.373394, 22.5662187], [88.3723784, 22.5661014], [88.3711017, 22.5661118], [88.3700496, 22.5664743], [88.3693356, 22.5667244], [88.3890079, 22.5719806], [88.3902604, 22.5720898], [88.3910642, 22.5720486], [88.3917324, 22.571976], [88.3924662, 22.571866], [88.3937374, 22.5715628], [88.3947366, 22.5713116], [88.3949624, 22.5712474], [88.3952272, 22.5711853], [88.3955529, 22.5711185], [88.3962234, 22.5711293], [88.3977098, 22.5710805], [88.3981265, 22.571021], [88.3982381, 22.5710051], [88.3985283, 22.5709022], [88.3989666, 22.5707404], [88.3989666, 22.5707404], [88.3993601, 22.5706394], [88.3997045, 22.5705375], [88.3998567, 22.5704965], [88.4000576, 22.5704555], [88.4005298, 22.5703891], [88.4019667, 22.5702111], [88.402186, 22.5701973], [88.4023306, 22.5701946], [88.4024426, 22.5701983], [88.4025555, 22.5702139], [88.4026658, 22.5702454], [88.402781, 22.5702888], [88.4028818, 22.5703373], [88.4029825, 22.5703996], [88.4030641, 22.5704594], [88.4031237, 22.5705151], [88.4031973, 22.5705929], [88.4032543, 22.570672], [88.4033027, 22.5707503], [88.4033392, 22.5708211], [88.4033869, 22.5709487], [88.4034126, 22.5710708], [88.4034199, 22.5711709], [88.4034176, 22.5713626], [88.4034073, 22.57149], [88.4032758, 22.5721587], [88.4030833, 22.572966], [88.4025104, 22.5751836], [88.4013768, 22.5798163], [88.401335, 22.5799701], [88.4011103, 22.5806536], [88.4010131, 22.5810321], [88.4009517, 22.5813696], [88.4009432, 22.5818481], [88.400997, 22.5823854], [88.4012258, 22.5829104], [88.4014132, 22.5831746], [88.4017181, 22.5833704], [88.4032257, 22.5842842], [88.4051891, 22.5854712], [88.4079174, 22.5869882], [88.4101238, 22.5883392], [88.4133046, 22.5902167], [88.4136899, 22.5904277], [88.413831, 22.5904957], [88.413931, 22.5905362], [88.4140343, 22.5905689], [88.4141401, 22.5905936], [88.4142478, 22.5906101], [88.4143528, 22.5906182], [88.4144583, 22.5906185], [88.4145634, 22.590611], [88.4146676, 22.5905958], [88.4147701, 22.5905729], [88.4156434, 22.5903984], [88.4174355, 22.5900405], [88.4189658, 22.5896924], [88.4192429, 22.5895395], [88.4194516, 22.5893402], [88.4202018, 22.5882972], [88.421568, 22.5862923], [88.4227168, 22.5846796], [88.4246582, 22.5818177], [88.4251154, 22.5811228], [88.4254163, 22.5805392], [88.4257127, 22.5800722], [88.4259746, 22.5798188], [88.4260756, 22.5797667], [88.4261765, 22.5797336], [88.4262921, 22.5797031], [88.4264077, 22.5796889], [88.4265051, 22.5796839], [88.4266091, 22.5796866], [88.4267181, 22.5796941], [88.4268222, 22.5797168], [88.4269803, 22.5797694], [88.4270649, 22.5798038], [88.427145, 22.5798423], [88.4273838, 22.5799792], [88.4278681, 22.5802628], [88.4284053, 22.5805775], [88.4290204, 22.5809412], [88.4306898, 22.5819152]]}}, {"type": "Feature", "properties": {"ref": "Purple", "name": "Purple Line (Majerhat \u2192 Joka)", "color": "#800080", "status": "unknown", "open_year": null}, "geometry": {"type": "LineString", "coordinates": [[88.3237944, 22.5195737], [88.3236648, 22.5190628], [88.3228154, 22.5155154], [88.3226377, 22.5147944], [88.3224685, 22.514237], [88.3222005, 22.5134093], [88.3217849, 22.5121748], [88.3217849, 22.5121748], [88.3217202, 22.5119825], [88.3214831, 22.5112729], [88.3213087, 22.510742], [88.321193, 22.5103075], [88.3211594, 22.5101664], [88.3210545, 22.5097258], [88.3209293, 22.5092635], [88.3208167, 22.5089224], [88.3208167, 22.5089224], [88.320353, 22.5076953], [88.3200302, 22.506887], [88.3197867, 22.5062455], [88.3193903, 22.5052472], [88.3192733, 22.5049525], [88.3190098, 22.5043246], [88.3189167, 22.5040971], [88.3185772, 22.5032678], [88.3184122, 22.5028937], [88.3182709, 22.5025582], [88.3181021, 22.5020623], [88.3179703, 22.5015682], [88.3176811, 22.5004941], [88.3175512, 22.4999386], [88.31748, 22.4995592], [88.3173606, 22.4987979], [88.3172212, 22.4979577], [88.317132, 22.4973339], [88.3170781, 22.4970987], [88.3170154, 22.4968283], [88.3167324, 22.4957653], [88.3164511, 22.4947142], [88.3162586, 22.494058], [88.3160993, 22.4936278], [88.315978, 22.4933422], [88.3158795, 22.4931182], [88.3153065, 22.491758], [88.3148485, 22.4907636], [88.3141049, 22.4892148], [88.3141049, 22.4892148], [88.3139455, 22.4888828], [88.3138047, 22.4885848], [88.3136344, 22.4881591], [88.3133394, 22.4874045], [88.3130648, 22.4866616], [88.3127158, 22.4857949], [88.3126138, 22.4855696], [88.3126138, 22.4855696], [88.3124127, 22.4851256], [88.3118234, 22.4838451], [88.3113056, 22.4827603], [88.3109576, 22.4820497], [88.3107186, 22.4815196], [88.3106181, 22.4812357], [88.3105508, 22.4809702], [88.310491, 22.480667], [88.310436, 22.480193], [88.3103687, 22.4794955], [88.3103352, 22.4789112], [88.3102985, 22.4786271], [88.3102179, 22.4775362], [88.3101343, 22.4769217], [88.3100608, 22.4763739], [88.3099969, 22.4756161], [88.3099377, 22.4748938], [88.309886, 22.473906], [88.3098337, 22.473207], [88.3098216, 22.4728092], [88.3098418, 22.4725106], [88.3098994, 22.4719294], [88.3099356, 22.4714126], [88.3098793, 22.4703914], [88.3098069, 22.4699614], [88.3096218, 22.4694173], [88.3094408, 22.469053], [88.3091699, 22.4685374], [88.308726, 22.4677183], [88.308388, 22.4670168], [88.3078932, 22.4656442], [88.307532, 22.4644079], [88.3070925, 22.4629295], [88.306898, 22.4621574], [88.306736, 22.461234], [88.3066861, 22.4608945], [88.3065574, 22.4597518], [88.306426, 22.4592399], [88.3063254, 22.4589276], [88.30608, 22.4584715], [88.3056159, 22.4577749], [88.3049318, 22.4568147], [88.3030908, 22.4541611], [88.3030908, 22.4541611], [88.302906, 22.4538948], [88.302906, 22.4538948], [88.302458, 22.453249], [88.3022189, 22.4528829], [88.301852, 22.4523728], [88.301333, 22.4516434], [88.3014901, 22.4518601], [88.301852, 22.4523728]]}}, {"type": "Feature", "properties": {"ref": "Orange", "name": "Orange Line (Beleghata \u2192 Kavi Subhash)", "color": "#F47421", "status": "unknown", "open_year": null}, "geometry": {"type": "LineString", "coordinates": [[88.4047183, 22.5512496], [88.404584, 22.5511466], [88.4040128, 22.5506812], [88.4028083, 22.5497021], [88.4012849, 22.5484409], [88.4010613, 22.5482295], [88.4007933, 22.5479581], [88.4002854, 22.5471953], [88.3999424, 22.5463677], [88.3995857, 22.5448863], [88.3993044, 22.5438008], [88.3990047, 22.542644], [88.3986532, 22.5413393], [88.3984271, 22.5406554], [88.3975432, 22.537229], [88.3969222, 22.5346934], [88.396456, 22.5329913], [88.3962508, 22.5322422], [88.3961018, 22.531657], [88.3957995, 22.5304692], [88.3951723, 22.5287099], [88.3951217, 22.5285347], [88.3950808, 22.5283573], [88.3950499, 22.5281782], [88.395029, 22.5279979], [88.3950182, 22.5278168], [88.3950175, 22.5276355], [88.3950269, 22.5274543], [88.3950454, 22.5272813], [88.3950731, 22.5271092], [88.3951099, 22.5269387], [88.3951558, 22.5267701], [88.3952107, 22.5266037], [88.3952744, 22.5264401], [88.3953467, 22.5262795], [88.3957378, 22.5255802], [88.3962697, 22.5246963], [88.3971327, 22.5232622], [88.3987747, 22.5205029], [88.3998994, 22.518605], [88.4006398, 22.5172149], [88.4011703, 22.5159288], [88.4012315, 22.5157141], [88.4012315, 22.5157141], [88.4014626, 22.5148584], [88.4014626, 22.5148584], [88.4017164, 22.5137933], [88.4017986, 22.5133468], [88.4018751, 22.5123667], [88.4018725, 22.5120816], [88.4018879, 22.5113758], [88.4018062, 22.5103852], [88.4015094, 22.5084517], [88.4011993, 22.5062802], [88.4010276, 22.505295], [88.4006927, 22.5035063], [88.4003021, 22.5013071], [88.3999244, 22.4997243], [88.3995287, 22.4983214], [88.3990161, 22.4969544], [88.3988003, 22.4963214], [88.3984786, 22.4956125], [88.3976581, 22.4940586], [88.3966567, 22.4922212], [88.3947592, 22.4886869], [88.3931343, 22.4855656], [88.3926762, 22.4846644], [88.3915639, 22.4826458], [88.390993, 22.4814273], [88.3903391, 22.4802885], [88.3900902, 22.4797896], [88.3900503, 22.4796534], [88.3900197, 22.4795152], [88.3899985, 22.4793756], [88.3899867, 22.4792349], [88.3899835, 22.4790574], [88.3899786, 22.4789164], [88.3899832, 22.4787754], [88.3900094, 22.4786089], [88.3900468, 22.4784072], [88.3900798, 22.4782695], [88.3901221, 22.4781339], [88.3901739, 22.478], [88.3902798, 22.477747], [88.3903528, 22.4776194], [88.3904302, 22.4774964], [88.3905158, 22.4773781], [88.3906093, 22.4772651], [88.3907102, 22.4771577], [88.3919182, 22.4760628], [88.3923134, 22.4756951], [88.3925842, 22.475456], [88.3928029, 22.475287], [88.393161, 22.4750557], [88.3934652, 22.4748831], [88.3938152, 22.4746947], [88.3940512, 22.4745609], [88.394334, 22.4743751], [88.3951147, 22.4737314], [88.3957266, 22.473166], [88.3965419, 22.4724564], [88.3969751, 22.4721441], [88.3974203, 22.4717823], [88.3982344, 22.471056], [88.3982344, 22.471056], [88.3989921, 22.4705256]]}}, {"type": "Feature", "properties": {"ref": "Yellow", "name": "Yellow Line (Jai Hind \u2192 Noapara)", "color": "#FFFF00", "status": "unknown", "open_year": null}, "geometry": {"type": "LineString", "coordinates": [[88.4373305, 22.6472996], [88.437093, 22.6453004], [88.4369192, 22.6443952], [88.4367374, 22.643992], [88.4364786, 22.6436837], [88.4360519, 22.6433897], [88.4348325, 22.6425573], [88.4336432, 22.641884], [88.4331512, 22.6416291], [88.4327881, 22.6414197], [88.4324764, 22.641239], [88.4320847, 22.6410557], [88.4317955, 22.6409046], [88.4315616, 22.6407493], [88.4313442, 22.6406042], [88.4310227, 22.6403727], [88.4308078, 22.6402029], [88.4306092, 22.640023], [88.4303787, 22.6398025], [88.4303787, 22.6398025], [88.4297906, 22.6392435], [88.42947, 22.6389388], [88.4291975, 22.6386624], [88.4289227, 22.6384171], [88.4283878, 22.6379207], [88.4281044, 22.637647], [88.4277814, 22.6373307], [88.4273811, 22.6369072], [88.4264144, 22.6359518], [88.4260808, 22.6356251], [88.425925, 22.6354824], [88.425765, 22.6353612], [88.4256439, 22.6352828], [88.425525, 22.6352202], [88.4253856, 22.6351583], [88.4252399, 22.6351062], [88.4250556, 22.63506], [88.4248756, 22.6350229], [88.4247373, 22.6350115], [88.4245839, 22.6350101], [88.4244315, 22.635019], [88.4242953, 22.6350312], [88.4241547, 22.6350553], [88.4240239, 22.6350843], [88.4238974, 22.6351193], [88.423773, 22.6351656], [88.4236529, 22.6352175], [88.4235671, 22.6352635], [88.4234491, 22.6353337], [88.4233453, 22.6354073], [88.4232564, 22.635479], [88.4231644, 22.6355629], [88.4230918, 22.6356359], [88.4230151, 22.6357146], [88.4229346, 22.6358105], [88.4228306, 22.6359381], [88.4227382, 22.6360589], [88.4224255, 22.6364669], [88.4220807, 22.6369623], [88.4218447, 22.6372914], [88.4217201, 22.6374505], [88.4216506, 22.6375305], [88.4215768, 22.6376125], [88.4214893, 22.6376933], [88.4213915, 22.6377752], [88.4213044, 22.6378353], [88.4212117, 22.6378963], [88.4210906, 22.6379667], [88.4209684, 22.6380284], [88.4207967, 22.6381044], [88.4204668, 22.6382216], [88.4191903, 22.6386323], [88.417983, 22.6390241], [88.4169898, 22.6393492], [88.4162846, 22.639568], [88.416059, 22.6396242], [88.4159328, 22.639646], [88.4158154, 22.6396609], [88.4156889, 22.6396695], [88.4153381, 22.6396764], [88.4150213, 22.6396668], [88.4147073, 22.6396415], [88.4144793, 22.6396297], [88.4143864, 22.6396227], [88.4141758, 22.6395819], [88.4139925, 22.639527], [88.4138113, 22.6394622], [88.4136026, 22.6393694], [88.4133877, 22.6392468], [88.4132366, 22.6391521], [88.4131008, 22.6390519], [88.4129907, 22.6389469], [88.4128075, 22.6387476], [88.4126891, 22.6385799], [88.4126116, 22.6384652], [88.4125493, 22.6383532], [88.4121876, 22.6375869], [88.4118108, 22.6367884], [88.4115514, 22.6362621], [88.4109986, 22.635106], [88.4107663, 22.6344636], [88.4104075, 22.6337023], [88.4102412, 22.6334041], [88.4101033, 22.6332027], [88.4099181, 22.632983], [88.4097699, 22.6328177], [88.4096047, 22.6326606], [88.4093709, 22.6324443], [88.4090161, 22.632153], [88.408818, 22.6320079], [88.4085959, 22.6318464], [88.4084285, 22.6317354], [88.4082421, 22.6316312], [88.4080331, 22.631528], [88.4078397, 22.6314362], [88.4076542, 22.6313533], [88.4074745, 22.6312758], [88.4071322, 22.6311335], [88.4069432, 22.6310613], [88.4067912, 22.6310149], [88.4066097, 22.6309706], [88.4064094, 22.6309358], [88.4062349, 22.6309225], [88.4060692, 22.6309172], [88.4059116, 22.6309204], [88.4057428, 22.6309358], [88.4055481, 22.6309664], [88.4053728, 22.6310078], [88.4052101, 22.6310577], [88.4050402, 22.6311216], [88.4048836, 22.6311889], [88.4047128, 22.6312666], [88.4044023, 22.6314142], [88.4035827, 22.6317985], [88.4020922, 22.6324997], [88.3999461, 22.633519], [88.3989605, 22.633986], [88.3979269, 22.6344869], [88.3975843, 22.6346465], [88.3971795, 22.6348231], [88.3969632, 22.6348966], [88.3967352, 22.6349575], [88.396403, 22.6350138], [88.396015, 22.6350716], [88.3958427, 22.635105], [88.39566, 22.6351415], [88.3954002, 22.6352058], [88.3950898, 22.6353007], [88.3949435, 22.6353488], [88.3947972, 22.6354002], [88.3946552, 22.6354594], [88.3945296, 22.6355196], [88.3944017, 22.6355919], [88.3942998, 22.6356568], [88.3941881, 22.6357379], [88.3940824, 22.6358301], [88.3939869, 22.6359298], [88.393916, 22.636014], [88.3938431, 22.6361144], [88.3937899, 22.6361885], [88.3937237, 22.6362971], [88.3936674, 22.6364106], [88.3936158, 22.6365318], [88.3935763, 22.6366506], [88.3935439, 22.6367758], [88.3935272, 22.6368878], [88.3935105, 22.6370166], [88.3935133, 22.6371374], [88.3935249, 22.6372578], [88.3935454, 22.6373771], [88.3935746, 22.637495], [88.3937496, 22.6383184], [88.3942188, 22.6399424]]}}]}