{"type": "FeatureCollection", "features": [{"type": "Feature", "properties": {"ref": "3", "name": "Blue Line (Raidurg \u2013-> Nagole)", "color": "blue", "status": "unknown", "open_year": null}, "geometry": {"type": "LineString", "coordinates": [[78.3771798, 17.4412973], [78.3771643, 17.4421818], [78.3771643, 17.4421818], [78.3771486, 17.443028], [78.3771302, 17.4440966], [78.377128, 17.4442742], [78.3771309, 17.4443853], [78.3771416, 17.4445166], [78.3771606, 17.4446603], [78.3771886, 17.4448148], [78.3772675, 17.4452991], [78.377332, 17.445751], [78.3773571, 17.4459334], [78.3773864, 17.4460831], [78.3774126, 17.4461747], [78.3774518, 17.4462843], [78.377507, 17.4464049], [78.3778703, 17.447016], [78.3780679, 17.4473448], [78.3781698, 17.4475096], [78.3782416, 17.4476123], [78.3783219, 17.4477168], [78.3786986, 17.4481471], [78.3787709, 17.4482394], [78.3788474, 17.448343], [78.3789192, 17.4484535], [78.3789695, 17.4485452], [78.3790288, 17.4486629], [78.3790842, 17.4487952], [78.3791371, 17.4489432], [78.3791691, 17.4490794], [78.3792294, 17.4493399], [78.3793666, 17.4499513], [78.3794006, 17.4500874], [78.3794398, 17.4501935], [78.3794746, 17.4502669], [78.3795225, 17.4503513], [78.3795607, 17.4504144], [78.3796112, 17.4504831], [78.3796719, 17.4505491], [78.3797386, 17.450614], [78.3798206, 17.4506808], [78.3799081, 17.4507439], [78.3802499, 17.4509663], [78.3803683, 17.4510306], [78.3804747, 17.4510837], [78.3805836, 17.4511195], [78.3806928, 17.4511457], [78.3808085, 17.4511661], [78.3809154, 17.4511736], [78.3809999, 17.4511734], [78.3810882, 17.4511672], [78.3812036, 17.4511478], [78.3813136, 17.4511177], [78.3814138, 17.4510809], [78.3815177, 17.4510349], [78.3816023, 17.4509878], [78.3816926, 17.4509251], [78.3817872, 17.450851], [78.3817872, 17.450851], [78.3818744, 17.450761], [78.3819454, 17.4506772], [78.3820173, 17.450571], [78.3821235, 17.4504058], [78.3822566, 17.4502047], [78.3824194, 17.4499654], [78.3825122, 17.4498333], [78.3825962, 17.4497269], [78.3826931, 17.4496098], [78.3826931, 17.4496098], [78.3831555, 17.4490132], [78.3837135, 17.4483426], [78.3839136, 17.4480841], [78.3840972, 17.4478122], [78.3842454, 17.4475564], [78.3844575, 17.4471826], [78.3845479, 17.4470216], [78.384679, 17.4468333], [78.3848304, 17.4466432], [78.3849937, 17.4464631], [78.3851965, 17.4462211], [78.3869418, 17.4442182], [78.3870679, 17.4440539], [78.3871688, 17.443903], [78.3872535, 17.4437427], [78.3873454, 17.4435274], [78.3875922, 17.4429159], [78.3878549, 17.4422649], [78.3879813, 17.4419856], [78.3880331, 17.4418954], [78.3881075, 17.4417932], [78.3881907, 17.4416966], [78.3882918, 17.4416087], [78.3884068, 17.4415281], [78.3885107, 17.4414742], [78.3886378, 17.4414189], [78.3887981, 17.4413741], [78.3889185, 17.4413544], [78.3890723, 17.4413469], [78.3900133, 17.4413398], [78.3902016, 17.4413223], [78.3904003, 17.4412955], [78.3914041, 17.4410919], [78.3916612, 17.441045], [78.3920691, 17.4409941], [78.3924258, 17.4409563], [78.3926834, 17.4409157], [78.3929675, 17.4408537], [78.3932825, 17.4407615], [78.3935789, 17.4406523], [78.3939138, 17.4405283], [78.3942001, 17.4404283], [78.3949081, 17.4402269], [78.3951118, 17.4401605], [78.3952664, 17.4401027], [78.3954238, 17.440027], [78.3955987, 17.4399227], [78.3957556, 17.4398042], [78.3962002, 17.4394147], [78.3964278, 17.4392242], [78.3966017, 17.439106], [78.3967831, 17.439007], [78.3969879, 17.4389263], [78.3975362, 17.4387392], [78.397723, 17.4386981], [78.3978618, 17.4386883], [78.398016, 17.4387019], [78.3982862, 17.4387575], [78.3985389, 17.4388258], [78.3986644, 17.4388391], [78.3988247, 17.4388417], [78.3989911, 17.4388311], [78.3991455, 17.43879], [78.3993098, 17.4387281], [78.3994562, 17.4386451], [78.3995759, 17.4385599], [78.3996979, 17.4384449], [78.3997804, 17.4383383], [78.3999531, 17.4380654], [78.4004421, 17.4372693], [78.4006975, 17.4368536], [78.4011664, 17.4360995], [78.4012736, 17.4359429], [78.4013825, 17.4358127], [78.4014955, 17.435705], [78.4016014, 17.4356164], [78.4017457, 17.4355238], [78.4020572, 17.4353567], [78.4023333, 17.4351999], [78.4024985, 17.4350953], [78.4027793, 17.4348979], [78.4029928, 17.4347528], [78.4031588, 17.4346527], [78.4034348, 17.4345026], [78.4036573, 17.4343969], [78.4038543, 17.4343148], [78.4043535, 17.4341358], [78.4045979, 17.4340405], [78.4048358, 17.4339293], [78.4063013, 17.4330915], [78.4065572, 17.4329391], [78.4066898, 17.4328337], [78.4068222, 17.4326981], [78.4069397, 17.4325294], [78.4070076, 17.4323853], [78.4070439, 17.4322745], [78.4071032, 17.4319174], [78.40714, 17.4317632], [78.4071913, 17.4316242], [78.4072685, 17.4314825], [78.4073515, 17.4313755], [78.4074508, 17.4312708], [78.4075468, 17.4311891], [78.4077018, 17.4310867], [78.4083833, 17.4306677], [78.4093217, 17.4300909], [78.4095667, 17.4299448], [78.409702, 17.4298834], [78.4098204, 17.4298362], [78.4099876, 17.429798], [78.410137, 17.4297919], [78.4103142, 17.4298074], [78.4104525, 17.429839], [78.4105534, 17.4298728], [78.410939, 17.4300163], [78.4110745, 17.4300559], [78.4112186, 17.4300758], [78.4113856, 17.4300836], [78.411531, 17.4300691], [78.4116915, 17.4300387], [78.4118237, 17.4299896], [78.4119876, 17.4299108], [78.412122, 17.4298169], [78.4122615, 17.429693], [78.412568, 17.4293756], [78.4130476, 17.4288975], [78.4137054, 17.4282348], [78.4143457, 17.4275896], [78.4145314, 17.4274057], [78.4146535, 17.427303], [78.4147651, 17.4272262], [78.414895, 17.4271618], [78.4150353, 17.4271097], [78.4152035, 17.4270737], [78.4153599, 17.4270575], [78.4155108, 17.4270599], [78.41566, 17.4270909], [78.4158223, 17.4271371], [78.4159714, 17.4272027], [78.4161131, 17.4272932], [78.4162585, 17.4274144], [78.4164843, 17.4276532], [78.4192983, 17.4305499], [78.4195638, 17.4307928], [78.4198492, 17.4309465], [78.4200675, 17.4309602], [78.42036, 17.4309339], [78.420678, 17.4308457], [78.4209293, 17.4307768], [78.4212737, 17.4306947], [78.4232137, 17.4300702], [78.4240104, 17.4298243], [78.4243063, 17.4297373], [78.4245314, 17.4297507], [78.4247635, 17.4297877], [78.424976, 17.4298723], [78.4251387, 17.4299476], [78.4261034, 17.4321303], [78.4273014, 17.4351156], [78.4275408, 17.435712], [78.4276498, 17.4359551], [78.4277554, 17.4361214], [78.4278573, 17.4362494], [78.4279844, 17.4363556], [78.4281101, 17.4364407], [78.4282824, 17.4365181], [78.4284427, 17.4365673], [78.4286398, 17.4366003], [78.4288035, 17.4366096], [78.4289389, 17.4365955], [78.4291253, 17.4365539], [78.4292619, 17.436509], [78.4304859, 17.4361061], [78.4307715, 17.4360191], [78.4309016, 17.435996], [78.4310397, 17.435982], [78.4312101, 17.4359845], [78.4313603, 17.4360101], [78.4315024, 17.4360447], [78.4316473, 17.4361138], [78.4317908, 17.4362059], [78.4320697, 17.4364055], [78.4322146, 17.4364797], [78.4323728, 17.4365373], [78.4325297, 17.4365744], [78.432696, 17.4365884], [78.4329347, 17.4365795], [78.4336509, 17.436536], [78.4348163, 17.4364669], [78.4350201, 17.436449], [78.4353192, 17.4364132], [78.4356599, 17.4363607], [78.4366248, 17.4362078], [78.4371062, 17.4361528], [78.4374603, 17.4361246], [78.4376232, 17.4361221], [78.4377748, 17.4361368], [78.4379216, 17.4361713], [78.4380333, 17.4362126], [78.4382006, 17.4362993], [78.4383481, 17.4363991], [78.4384745, 17.4364963], [78.4390865, 17.4369785], [78.4397708, 17.4375176], [78.4399105, 17.437596], [78.4400355, 17.4376469], [78.4402018, 17.4376849], [78.440259, 17.4376926], [78.440345, 17.4377041], [78.44051, 17.437708], [78.4406628, 17.4376869], [78.440807, 17.4376536], [78.441527, 17.4374665], [78.4431991, 17.437026], [78.4434047, 17.4369501], [78.4436226, 17.4367948], [78.4437388, 17.4366839], [78.4438727, 17.4365184], [78.4441066, 17.4361729], [78.4441528, 17.4361047], [78.4446353, 17.4353528], [78.4448917, 17.4349532], [78.4451226, 17.4346129], [78.4452379, 17.434488], [78.4453399, 17.4344025], [78.4454338, 17.4343389], [78.445615, 17.4342434], [78.4457568, 17.4341952], [78.4458556, 17.4341738], [78.4458556, 17.4341738], [78.4459628, 17.4341639], [78.4461195, 17.4341626], [78.4462328, 17.4341689], [78.4463284, 17.4341849], [78.4464557, 17.4342162], [78.4467571, 17.4343146], [78.4469276, 17.4343598], [78.4470766, 17.434395], [78.4472382, 17.4344133], [78.4475055, 17.4344299], [78.4478868, 17.4344644], [78.4483197, 17.4345114], [78.4489736, 17.4345905], [78.4495406, 17.4346908], [78.4503619, 17.4349047], [78.4505812, 17.434949], [78.4508299, 17.4349824], [78.4511258, 17.4350275], [78.4512849, 17.4350667], [78.4514213, 17.4351224], [78.4515369, 17.4351844], [78.4516346, 17.4352528], [78.4517164, 17.4353184], [78.4517931, 17.4353966], [78.4519142, 17.4355378], [78.4520362, 17.4356772], [78.4521237, 17.4357633], [78.4522491, 17.4358532], [78.4523443, 17.4359069], [78.4524877, 17.4359717], [78.4526131, 17.4360144], [78.4527138, 17.4360391], [78.4528301, 17.4360524], [78.45294, 17.4360544], [78.4530371, 17.4360524], [78.4531246, 17.4360397], [78.4532347, 17.4360163], [78.453488, 17.4359358], [78.4546158, 17.4355078], [78.4547791, 17.4354571], [78.4549315, 17.4354311], [78.4551149, 17.4354249], [78.4552863, 17.4354398], [78.4554545, 17.4354828], [78.4556003, 17.4355438], [78.4557457, 17.4356259], [78.4558644, 17.4357149], [78.4559431, 17.4357863], [78.4560248, 17.4358828], [78.4561006, 17.435995], [78.456238, 17.4362444], [78.4563732, 17.4364861], [78.456906, 17.4375841], [78.457142, 17.438071], [78.4573038, 17.4384785], [78.4573038, 17.4384785], [78.4580554, 17.4416486], [78.4582063, 17.4419826], [78.4609511, 17.4440982], [78.4618675, 17.4444913], [78.4628113, 17.4447921], [78.4633834, 17.4449393], [78.4641287, 17.4451011], [78.4646045, 17.4451281], [78.465879, 17.4449044], [78.465879, 17.4449044], [78.4664497, 17.444806], [78.4667526, 17.4447608], [78.4671272, 17.4447605], [78.4675378, 17.4447726], [78.4708578, 17.4442963], [78.4729295, 17.4442796], [78.4757068, 17.4436727], [78.4760603, 17.4436571], [78.4760603, 17.4436571], [78.4764095, 17.443638], [78.4791487, 17.4435105], [78.4794982, 17.4435051], [78.4806343, 17.4435078], [78.4824773, 17.4434747], [78.4827282, 17.4434871], [78.4834131, 17.4435845], [78.4836986, 17.4435898], [78.4855495, 17.443501], [78.4862461, 17.4434911], [78.4862461, 17.4434911], [78.4905747, 17.4434082], [78.4954347, 17.4433007], [78.497471, 17.4432188], [78.497471, 17.4432188], [78.5001905, 17.4430957], [78.5004733, 17.4430671], [78.5007234, 17.4430207], [78.5013943, 17.4428856], [78.5017178, 17.4428514], [78.5020583, 17.4428362], [78.5035216, 17.4428186], [78.5037588, 17.4428026], [78.503998, 17.4427632], [78.5041991, 17.442708], [78.504448, 17.4426183], [78.5047285, 17.4424513], [78.5049784, 17.4422871], [78.5051782, 17.4421176], [78.5053376, 17.4419204], [78.5054195, 17.4417452], [78.5054639, 17.4416109], [78.5055117, 17.4414201], [78.5055425, 17.4412304], [78.5055284, 17.441008], [78.5054443, 17.4406266], [78.5048079, 17.4382746], [78.5047723, 17.4380874], [78.5047671, 17.4379161], [78.5047878, 17.4377295], [78.5048453, 17.4375232], [78.5050655, 17.4370476], [78.5051743, 17.4367959], [78.5053013, 17.4363705], [78.5054889, 17.4357255], [78.5054889, 17.4357255], [78.5056933, 17.4350387], [78.5057793, 17.4346875], [78.5058754, 17.4343337], [78.5060282, 17.433856], [78.5060942, 17.4337509], [78.5061591, 17.433673], [78.5062282, 17.4335998], [78.5063167, 17.4335262], [78.5064106, 17.4334638], [78.5065188, 17.433402], [78.5066321, 17.433354], [78.5067408, 17.4333181], [78.5068741, 17.4332901], [78.5070298, 17.4332743], [78.5071261, 17.4332761], [78.5081562, 17.4333454], [78.5090632, 17.4334075], [78.5101256, 17.4335494], [78.5109538, 17.4339343], [78.5125563, 17.4347141], [78.5135861, 17.4350208], [78.514941, 17.4356522], [78.5167889, 17.4369151], [78.5170784, 17.4370015], [78.5178229, 17.4369287], [78.5185349, 17.4364498], [78.5195963, 17.4355442], [78.5195963, 17.4355442], [78.521718, 17.433669], [78.5237628, 17.4319232], [78.5252533, 17.430618], [78.5255425, 17.4303477], [78.5267113, 17.4292541], [78.5269876, 17.4290368], [78.5272377, 17.4288851], [78.5284576, 17.4283192], [78.5284576, 17.4283192], [78.5294733, 17.4278307], [78.529649, 17.4277213], [78.5304791, 17.4270911], [78.5312831, 17.4264258], [78.5317209, 17.4261047], [78.5325858, 17.4256455], [78.5331302, 17.4253898], [78.5335354, 17.4252478], [78.5356262, 17.4248488], [78.5359874, 17.4246876], [78.5363291, 17.4244527], [78.5370339, 17.4237477], [78.5382474, 17.4223562], [78.5396054, 17.4213649], [78.5400125, 17.4210354], [78.540572, 17.4201948], [78.540572, 17.4201948], [78.5412044, 17.4193812], [78.5415974, 17.419036], [78.5419884, 17.4186697], [78.5421187, 17.4185613], [78.5432502, 17.4175689], [78.5463534, 17.4148457], [78.5463534, 17.4148457], [78.5468105, 17.4144331], [78.5471852, 17.414079], [78.5494483, 17.4120006], [78.5515725, 17.4100882], [78.552673, 17.4090833], [78.5531376, 17.4086452], [78.5533179, 17.4084647], [78.5542726, 17.407415], [78.5542726, 17.407415], [78.5579546, 17.4033072], [78.5581956, 17.4030722], [78.5583248, 17.4029663], [78.5585525, 17.4028263], [78.5591196, 17.4025456], [78.5593065, 17.4024542], [78.5594827, 17.4023527], [78.5596452, 17.4022266], [78.5597963, 17.402084], [78.5599272, 17.4019285], [78.5600691, 17.4017267], [78.5601055, 17.401667], [78.5602129, 17.4013565], [78.5602732, 17.4009694], [78.5602744, 17.4006295], [78.560246, 17.4000599], [78.560246, 17.4000599], [78.5601961, 17.3993608], [78.5601754, 17.399064], [78.5601217, 17.3986097], [78.5599936, 17.3980655], [78.559379, 17.39568], [78.55931, 17.3952897], [78.5592609, 17.3948276], [78.5588905, 17.3914923], [78.5588069, 17.3902349], [78.5588274, 17.3905436], [78.5588905, 17.3914923]]}}, {"type": "Feature", "properties": {"ref": "1", "name": "Red Line (Miyapur \u2192 L. B. Nagar)", "color": "red", "status": "unknown", "open_year": null}, "geometry": {"type": "LineString", "coordinates": [[78.3736861, 17.4965502], [78.3730251, 17.4965552], [78.3767163, 17.4971956], [78.3758789, 17.4970489], [78.3756511, 17.4969989], [78.375435, 17.4969395], [78.3752867, 17.4968942], [78.3745538, 17.4966589], [78.3744466, 17.4966245], [78.3743142, 17.4965892], [78.3741992, 17.4965673], [78.3740646, 17.4965517], [78.3739415, 17.4965472], [78.3736861, 17.4965502], [78.3888678, 17.4986724], [78.3882122, 17.4987631], [78.3869973, 17.4989209], [78.3858015, 17.4990829], [78.3842182, 17.4993029], [78.3832066, 17.4994437], [78.3829838, 17.4994662], [78.3827897, 17.4994738], [78.382608, 17.4994701], [78.3823985, 17.4994563], [78.3821759, 17.4994292], [78.3818994, 17.4993734], [78.3817068, 17.4993164], [78.3813956, 17.4992128], [78.3808123, 17.4989999], [78.3805768, 17.498911], [78.3804003, 17.4988368], [78.3801644, 17.4987323], [78.3799571, 17.4986296], [78.3794036, 17.498358], [78.3780589, 17.4976979], [78.3777509, 17.4975455], [78.377586, 17.4974688], [78.3773633, 17.4973749], [78.3772142, 17.4973215], [78.3770719, 17.4972793], [78.3769042, 17.4972361], [78.3767163, 17.4971956], [78.406841, 17.4914], [78.4067122, 17.4914864], [78.4065953, 17.4915546], [78.4063249, 17.4916908], [78.4041149, 17.4927395], [78.4023645, 17.4935494], [78.4017765, 17.4938191], [78.4011528, 17.4941038], [78.3986424, 17.495253], [78.3978435, 17.4956157], [78.3976607, 17.4956933], [78.3974194, 17.4957858], [78.3971853, 17.4958624], [78.396842, 17.4959606], [78.3964927, 17.4960501], [78.3942249, 17.4966484], [78.3940742, 17.4966994], [78.3939266, 17.4967563], [78.3937676, 17.4968229], [78.3936023, 17.4969011], [78.3934651, 17.4969771], [78.3933202, 17.497065], [78.3931892, 17.4971514], [78.3921057, 17.4978861], [78.3918996, 17.4980062], [78.391736, 17.4980873], [78.3915344, 17.4981784], [78.3913813, 17.4982412], [78.3911888, 17.4983071], [78.3909977, 17.4983614], [78.3907955, 17.4984084], [78.3906181, 17.4984382], [78.3902749, 17.4984873], [78.3895259, 17.4985864], [78.3888678, 17.4986724], [78.4117785, 17.4849303], [78.4115793, 17.4852053], [78.4112283, 17.48569], [78.4110423, 17.485941], [78.4107976, 17.486275], [78.4100166, 17.4874675], [78.4097315, 17.4879058], [78.4096148, 17.4880758], [78.4095368, 17.4881859], [78.4094644, 17.4882831], [78.4093189, 17.4884715], [78.4085104, 17.4894764], [78.4074943, 17.4907409], [78.4072044, 17.4910852], [78.4070854, 17.4912014], [78.4069594, 17.491311], [78.406841, 17.4914], [78.4221009, 17.4767602], [78.421439, 17.4771946], [78.4208984, 17.4775503], [78.4202583, 17.4780028], [78.4192222, 17.4787461], [78.4186554, 17.4791635], [78.4184701, 17.4793158], [78.4181649, 17.4795742], [78.4178035, 17.4799189], [78.417403, 17.4802972], [78.4172225, 17.4804688], [78.4170595, 17.4806383], [78.4163576, 17.4813844], [78.4161961, 17.4815348], [78.4160533, 17.4816526], [78.4159045, 17.4817629], [78.4157532, 17.481866], [78.4155863, 17.4819715], [78.4147616, 17.4824586], [78.4133725, 17.4832823], [78.4131974, 17.4833993], [78.4129067, 17.4836211], [78.4127563, 17.4837508], [78.4126586, 17.4838364], [78.4125268, 17.4839729], [78.4124657, 17.4840381], [78.4123995, 17.4841129], [78.4123193, 17.48421], [78.412002, 17.4846288], [78.4117785, 17.4849303], [78.4261182, 17.4718855], [78.4256244, 17.4726141], [78.425159, 17.4732883], [78.4237978, 17.4752862], [78.4236988, 17.4754308], [78.4236022, 17.4755631], [78.4235197, 17.4756696], [78.4234456, 17.4757518], [78.4233495, 17.4758556], [78.4231946, 17.4760057], [78.4230876, 17.4760959], [78.4229817, 17.4761783], [78.4227872, 17.4763193], [78.4225408, 17.4764792], [78.4221009, 17.4767602], [78.4300928, 17.464041], [78.4298176, 17.4646422], [78.4296257, 17.4650381], [78.4293959, 17.4655392], [78.4293244, 17.4657348], [78.42926, 17.4659244], [78.4291611, 17.4663177], [78.4291233, 17.4664939], [78.4290725, 17.4666929], [78.4290078, 17.4669352], [78.4289442, 17.4671317], [78.428881, 17.4673041], [78.4288073, 17.4674813], [78.4282195, 17.4687345], [78.428126, 17.468922], [78.4280491, 17.4690615], [78.4279833, 17.4691738], [78.42788, 17.4693402], [78.4277416, 17.4695416], [78.4272776, 17.470184], [78.4268221, 17.4708522], [78.4263514, 17.4715428], [78.4261182, 17.4718855], [78.4335941, 17.4570724], [78.4332579, 17.4578479], [78.4330883, 17.4582202], [78.4329689, 17.4584536], [78.4328316, 17.4586966], [78.4327143, 17.4588798], [78.4325709, 17.4590871], [78.4324254, 17.4592899], [78.4321701, 17.4596539], [78.4320328, 17.4598756], [78.4319092, 17.4601055], [78.4317923, 17.460344], [78.4312305, 17.4615475], [78.4310943, 17.461855], [78.4308993, 17.4622844], [78.430652, 17.4628228], [78.4303578, 17.4634556], [78.4300928, 17.464041], [78.438567, 17.4470156], [78.4380668, 17.4479418], [78.43789, 17.4482636], [78.4377207, 17.4485478], [78.4376227, 17.4487246], [78.4375083, 17.448938], [78.4374205, 17.4491145], [78.4371559, 17.4497433], [78.4370723, 17.4499269], [78.4369723, 17.4501336], [78.4368701, 17.4503302], [78.4367011, 17.4506353], [78.4364741, 17.4510643], [78.4360051, 17.4520182], [78.4359147, 17.4521903], [78.4357894, 17.4524238], [78.4356392, 17.4527074], [78.4353465, 17.4532621], [78.4350365, 17.4538446], [78.4349198, 17.4540806], [78.4348297, 17.4542732], [78.4344783, 17.4550612], [78.4342524, 17.4555638], [78.434023, 17.4560936], [78.4338837, 17.4564135], [78.4337858, 17.4566369], [78.4335941, 17.4570724], [78.4416255, 17.4417135], [78.4407094, 17.4433245], [78.440578, 17.4435948], [78.4404336, 17.4438879], [78.4403546, 17.4440428], [78.4402619, 17.4441982], [78.440173, 17.4443404], [78.4400898, 17.4444574], [78.4400008, 17.4445851], [78.4398825, 17.4447463], [78.4397626, 17.4449286], [78.4396481, 17.4451056], [78.4392351, 17.4458033], [78.4389959, 17.446219], [78.438694, 17.4467786], [78.438567, 17.4470156], [78.4450847, 17.4349259], [78.4447343, 17.4355002], [78.4442952, 17.4362199], [78.4437293, 17.4371693], [78.4436266, 17.4373498], [78.443445, 17.4377285], [78.4432505, 17.4381839], [78.4424612, 17.4400806], [78.4422405, 17.4406107], [78.4416255, 17.4417135], [78.4513095, 17.4284456], [78.4505617, 17.4295194], [78.4504587, 17.4296508], [78.4503072, 17.4298191], [78.450109, 17.430018], [78.4499616, 17.4301244], [78.4479053, 17.4316379], [78.447433, 17.4320899], [78.4460115, 17.4336824], [78.4456792, 17.4340747], [78.4455156, 17.4342777], [78.4453815, 17.4344632], [78.4452729, 17.4346257], [78.4450847, 17.4349259], [78.4563489, 17.4202292], [78.4552139, 17.4220096], [78.4539759, 17.4241682], [78.4538587, 17.4243726], [78.4523152, 17.4270537], [78.4513095, 17.4284456], [78.4609532, 17.4111614], [78.4607566, 17.4122447], [78.4603505, 17.4130003], [78.4599849, 17.4134602], [78.459898, 17.4135259], [78.4589465, 17.4141273], [78.4587661, 17.4142941], [78.4586959, 17.4144258], [78.4582646, 17.4153881], [78.458205, 17.4154892], [78.4581435, 17.4155778], [78.4578397, 17.4159261], [78.4577, 17.4161404], [78.4574506, 17.4166947], [78.4573167, 17.4170439], [78.4572941, 17.4171135], [78.4572758, 17.417196], [78.4572307, 17.4175367], [78.4570165, 17.4191534], [78.4569645, 17.4192707], [78.4563489, 17.4202292], [78.4653197, 17.4036398], [78.464263, 17.4047894], [78.4638988, 17.4051803], [78.463067, 17.406066], [78.4627689, 17.4063505], [78.4625262, 17.4065105], [78.4622996, 17.4065924], [78.461794, 17.4067102], [78.4612884, 17.4068432], [78.4610617, 17.4068995], [78.4608123, 17.4070518], [78.4606554, 17.4072719], [78.4605776, 17.4075458], [78.4605347, 17.4080116], [78.4605239, 17.4083187], [78.4605569, 17.4087077], [78.4606179, 17.4093141], [78.4610041, 17.4103583], [78.4609773, 17.4110288], [78.4609532, 17.4111614], [78.4701612, 17.392222], [78.4702469, 17.3928672], [78.4703086, 17.3935429], [78.4703757, 17.3942212], [78.4704266, 17.3945744], [78.4704856, 17.3948099], [78.4705849, 17.3950275], [78.4707941, 17.3953064], [78.4710033, 17.3957057], [78.4710865, 17.3960154], [78.4711052, 17.3963738], [78.4710301, 17.3970239], [78.4708797, 17.3979907], [78.4708692, 17.3980579], [78.470829, 17.3983676], [78.4707995, 17.3985551], [78.4707297, 17.3991227], [78.4706412, 17.3997548], [78.4705903, 17.4001363], [78.4705474, 17.4004766], [78.4704025, 17.4009015], [78.4702389, 17.4011114], [78.4699076, 17.401393], [78.4683372, 17.4024091], [78.4678222, 17.4026752], [78.4673341, 17.402752], [78.4664221, 17.4028391], [78.4660519, 17.402985], [78.4657764, 17.4031878], [78.4655021, 17.4034438], [78.4653197, 17.4036398], [78.4733347, 17.3858253], [78.4724812, 17.3870415], [78.4718, 17.3879784], [78.4711053, 17.3890169], [78.4706064, 17.3896498], [78.4703194, 17.3899851], [78.4701853, 17.3902615], [78.4701517, 17.3904377], [78.4701263, 17.3905713], [78.4701128, 17.3909885], [78.4701316, 17.3916821], [78.4701612, 17.392222], [78.4816145, 17.3821199], [78.4810429, 17.3824034], [78.4803696, 17.3827439], [78.4800799, 17.382859], [78.4797339, 17.3829461], [78.4788783, 17.3830536], [78.4777196, 17.3831918], [78.4768801, 17.3832942], [78.47618, 17.383394], [78.4757589, 17.3835118], [78.4753727, 17.383673], [78.4751366, 17.3838112], [78.4748979, 17.3839866], [78.4745358, 17.3843232], [78.4740879, 17.3848197], [78.4737526, 17.3852549], [78.4733347, 17.3858253], [78.4857001, 17.3804003], [78.4855725, 17.3805289], [78.4854424, 17.3806426], [78.4853054, 17.3807306], [78.4851953, 17.3807851], [78.4850831, 17.3808273], [78.4846487, 17.38096], [78.4841729, 17.3810917], [78.4839625, 17.3811546], [78.4837765, 17.3812133], [78.4835745, 17.381283], [78.4833653, 17.3813588], [78.482976, 17.3815065], [78.4823464, 17.3817788], [78.4816145, 17.3821199], [78.4866278, 17.3793291], [78.486212, 17.3798092], [78.4857001, 17.3804003], [78.4932374, 17.3772557], [78.4919375, 17.3774], [78.4916921, 17.377412], [78.4914415, 17.3774107], [78.4912311, 17.3774094], [78.4908062, 17.3773799], [78.4906044, 17.3773673], [78.4905194, 17.377362], [78.4903372, 17.3773518], [78.4901342, 17.3773544], [78.4899531, 17.3773645], [78.4897657, 17.3773922], [78.4896026, 17.3774276], [78.4894586, 17.3774629], [78.4892724, 17.3775272], [78.4890771, 17.3776083], [78.4889291, 17.3776777], [78.4887538, 17.3777778], [78.4876263, 17.378515], [78.4874549, 17.378622], [78.4872211, 17.3787679], [78.4870872, 17.3788665], [78.4869779, 17.3789584], [78.4868754, 17.3790529], [78.4867896, 17.3791451], [78.4867121, 17.3792305], [78.4866278, 17.3793291], [78.4945714, 17.3771547], [78.4939044, 17.3772052], [78.4932374, 17.3772557], [78.5031791, 17.3734454], [78.502408, 17.3735478], [78.5013433, 17.3736836], [78.5011243, 17.3737225], [78.5009236, 17.3737682], [78.5006951, 17.3738316], [78.5005058, 17.3738985], [78.5002906, 17.3739911], [78.4997231, 17.3742695], [78.4995311, 17.3743675], [78.499315, 17.3744912], [78.4990886, 17.3746414], [78.4989065, 17.3747835], [78.4987332, 17.3749286], [78.4985286, 17.3751123], [78.4984096, 17.3752011], [78.4982083, 17.3753322], [78.4980572, 17.3754082], [78.497849, 17.3754879], [78.497676, 17.3755285], [78.4974717, 17.3755603], [78.4970711, 17.3756005], [78.4969363, 17.375629], [78.4968047, 17.3756762], [78.4966822, 17.3757309], [78.4965786, 17.3757939], [78.4964889, 17.3758622], [78.496404, 17.3759383], [78.4963136, 17.3760507], [78.4962241, 17.3761658], [78.4961157, 17.3763443], [78.4959352, 17.3766256], [78.4958609, 17.3767144], [78.4957673, 17.3768069], [78.4956884, 17.376873], [78.4955407, 17.3769744], [78.4954088, 17.3770352], [78.495248, 17.3770892], [78.4951277, 17.3771183], [78.4949959, 17.3771359], [78.4945714, 17.3771547], [78.5257183, 17.3685631], [78.5251364, 17.3685712], [78.521963, 17.3686554], [78.5202281, 17.3686925], [78.5200436, 17.3687027], [78.5199121, 17.3687096], [78.5197136, 17.3687336], [78.5195248, 17.3687698], [78.5192971, 17.3688163], [78.5189949, 17.3688903], [78.5174877, 17.3692756], [78.5160061, 17.369652], [78.5156504, 17.3697367], [78.5153902, 17.3697881], [78.5150926, 17.3698383], [78.5148235, 17.3698729], [78.5144964, 17.3699132], [78.5143401, 17.3699397], [78.5141319, 17.3699876], [78.5139726, 17.3700389], [78.5137862, 17.3701032], [78.5135955, 17.3701816], [78.5134325, 17.3702597], [78.513105, 17.3704398], [78.5126553, 17.370691], [78.5119545, 17.3710873], [78.5113786, 17.3714129], [78.5110755, 17.371578], [78.5108033, 17.3717188], [78.5105646, 17.371834], [78.5103017, 17.3719415], [78.5101046, 17.3720132], [78.509379, 17.3722551], [78.5087822, 17.3724586], [78.5085288, 17.372538], [78.5082887, 17.3726084], [78.5079575, 17.372698], [78.5077134, 17.3727568], [78.5074157, 17.372817], [78.5071662, 17.3728644], [78.5068296, 17.3729207], [78.503902, 17.3733494], [78.5031791, 17.3734454], [78.5381335, 17.3681501], [78.5377812, 17.3682131], [78.5374835, 17.3682455], [78.536865, 17.3682951], [78.5361908, 17.36831], [78.5265246, 17.3685425], [78.5257183, 17.3685631], [78.5439622, 17.3618565], [78.5434979, 17.3635578], [78.5432238, 17.3642567], [78.5428375, 17.3649479], [78.5425943, 17.3652751], [78.5423016, 17.3656826], [78.5415131, 17.3664966], [78.540644, 17.3671359], [78.5402294, 17.3673751], [78.5398072, 17.3675923], [78.5389972, 17.3679146], [78.5381335, 17.3681501], [78.5479412, 17.349846], [78.546974, 17.3510698], [78.5466148, 17.3517626], [78.5464832, 17.3520763], [78.5453946, 17.3563054], [78.5439622, 17.3618565]]}}, {"type": "Feature", "properties": {"ref": "2", "name": "Green Line (MGBS \u2013-> JBS)", "color": "green", "status": "unknown", "open_year": null}, "geometry": {"type": "LineString", "coordinates": [[78.4836909, 17.3747334], [78.4839284, 17.3750497], [78.484198, 17.3753999], [78.4844146, 17.3756842], [78.4846825, 17.3760372], [78.4851942, 17.3767031], [78.4852436, 17.3767628], [78.4853351, 17.376885], [78.4854016, 17.3769665], [78.4854669, 17.377043], [78.4855311, 17.3771152], [78.4856111, 17.3771978], [78.4859884, 17.3775522], [78.4860552, 17.3776188], [78.4860922, 17.3776655], [78.4861443, 17.3777373], [78.4861818, 17.3777982], [78.4862143, 17.3778618], [78.4862499, 17.3779443], [78.4862738, 17.3780069], [78.4863022, 17.3781143], [78.4863206, 17.3782146], [78.4863281, 17.3782902], [78.4863287, 17.378394], [78.4863208, 17.3784945], [78.4862972, 17.3786149], [78.4862685, 17.3787127], [78.4862309, 17.3788113], [78.4861772, 17.3789219], [78.4861229, 17.3790267], [78.4861229, 17.3790267], [78.4858221, 17.3795945], [78.4854651, 17.3802683], [78.4854651, 17.3802683], [78.4854143, 17.3803632], [78.4853644, 17.3804434], [78.485325, 17.3804993], [78.4852547, 17.3805858], [78.4851857, 17.3806544], [78.485114, 17.3807142], [78.4850539, 17.3807608], [78.4849622, 17.3808153], [78.4848839, 17.3808553], [78.4847972, 17.3808902], [78.4847145, 17.3809199], [78.4846448, 17.3809398], [78.4840753, 17.3811], [78.4838999, 17.3811544], [78.4837667, 17.3811963], [78.4835684, 17.3812652], [78.4833757, 17.3813342], [78.483278, 17.3813736], [78.4831951, 17.3814134], [78.4831203, 17.3814567], [78.483077, 17.3814872], [78.4829996, 17.3815443], [78.4829207, 17.3816103], [78.4828524, 17.381682], [78.4827968, 17.3817527], [78.4827479, 17.3818191], [78.4827023, 17.3818946], [78.4826568, 17.3819923], [78.4826247, 17.3820748], [78.4826024, 17.3821459], [78.4825834, 17.3822298], [78.4825704, 17.3823189], [78.4825658, 17.3823842], [78.4825658, 17.3823842], [78.4825636, 17.3824768], [78.4825693, 17.3825503], [78.4825798, 17.3826246], [78.4825998, 17.3827122], [78.4826099, 17.3827555], [78.4826413, 17.3828383], [78.4826789, 17.3829294], [78.4827208, 17.3830094], [78.4827851, 17.3831019], [78.4839162, 17.3843707], [78.484, 17.3844647], [78.4844674, 17.3849891], [78.4845176, 17.3850806], [78.4845883, 17.3852011], [78.484627, 17.3853118], [78.4846765, 17.3853841], [78.4850631, 17.3858267], [78.485369, 17.3861708], [78.4854663, 17.3862802], [78.4862189, 17.3870935], [78.4869231, 17.3878272], [78.487662, 17.3885211], [78.4886761, 17.3899321], [78.4887894, 17.3900957], [78.489035, 17.3907432], [78.4891332, 17.391002], [78.4895721, 17.393198], [78.4898955, 17.3942302], [78.4899387, 17.394371], [78.4901288, 17.3949904], [78.4903026, 17.395334], [78.4905526, 17.3956699], [78.4909882, 17.3960981], [78.4920955, 17.3972809], [78.4931458, 17.398097], [78.4933203, 17.3983213], [78.494724, 17.3994541], [78.4948742, 17.4003684], [78.4949779, 17.4010397], [78.4950759, 17.4019644], [78.4951463, 17.4022928], [78.4955262, 17.4040658], [78.4955812, 17.4042035], [78.4967721, 17.4070448], [78.497616, 17.4087366], [78.4978026, 17.4096508], [78.4978638, 17.4100495], [78.4978911, 17.4104877], [78.4978811, 17.41129], [78.4976758, 17.412664], [78.4976459, 17.4128112], [78.4976366, 17.4130342], [78.4976324, 17.4131368], [78.4976186, 17.4133467], [78.4976285, 17.4136564], [78.4976955, 17.4140058], [78.4979168, 17.4146071], [78.4985735, 17.4160203], [78.4991421, 17.4170133], [78.4994715, 17.4178876], [78.4998835, 17.4189814], [78.5002752, 17.4198118], [78.5007515, 17.4208214], [78.5014274, 17.4218963], [78.5016213, 17.4225231], [78.5016616, 17.4227805], [78.5018065, 17.4240372], [78.5018454, 17.424403], [78.5018587, 17.4246315], [78.5018679, 17.424866], [78.5018818, 17.4255216], [78.5018933, 17.42617], [78.5018947, 17.4263713], [78.5019041, 17.4265482], [78.5019168, 17.426673], [78.5019241, 17.42676], [78.5019792, 17.4273817], [78.5019961, 17.4275112], [78.5020161, 17.4276221], [78.5020388, 17.4277221], [78.5020634, 17.4278201], [78.5020904, 17.4279212], [78.5021838, 17.4283022], [78.5022301, 17.4284798], [78.5022689, 17.4286521], [78.5022805, 17.4287409], [78.5022841, 17.4288073], [78.5022846, 17.4288851], [78.5022743, 17.4289761], [78.5022608, 17.4290564], [78.5022325, 17.4291677], [78.5022022, 17.429254], [78.502163, 17.4293367], [78.5021201, 17.4294134], [78.5020759, 17.4294833], [78.5020295, 17.4295421], [78.5019675, 17.4296093], [78.5019106, 17.4296688], [78.5012599, 17.4301903], [78.5011603, 17.4302691], [78.5010796, 17.430333], [78.5009943, 17.4303891], [78.5009108, 17.4304355], [78.5008341, 17.4304735], [78.5007415, 17.4305067], [78.5006266, 17.4305388], [78.5005223, 17.4305588], [78.5001182, 17.4305894], [78.5000219, 17.4305985], [78.4998929, 17.4306289], [78.4998027, 17.4306553], [78.4997091, 17.4306897], [78.4995901, 17.4307507], [78.4986095, 17.4313165], [78.4985186, 17.4313714], [78.4985186, 17.4313714], [78.4984528, 17.4314144], [78.4983967, 17.4314594], [78.4983462, 17.4315021], [78.498276, 17.4315742], [78.4982111, 17.431653], [78.4981554, 17.4317279], [78.4981024, 17.431821], [78.4980551, 17.4319154], [78.4980254, 17.4320018], [78.4979954, 17.4320963], [78.4979737, 17.4322211], [78.4979667, 17.4323338], [78.4979649, 17.4324377], [78.4979746, 17.4325412], [78.4979962, 17.4326499], [78.4980339, 17.4327701], [78.4980833, 17.4328842], [78.498135, 17.4329769], [78.4981987, 17.4330679], [78.4982769, 17.4331647], [78.4983621, 17.4332444], [78.4984557, 17.4333177], [78.4985811, 17.4333956], [78.499501, 17.4338339], [78.5001147, 17.4342188], [78.5003293, 17.4343928], [78.5005438, 17.4347204], [78.5006082, 17.4349456], [78.5006243, 17.4351605], [78.5006028, 17.4354062], [78.500517, 17.4356672], [78.499671, 17.437696], [78.4989629, 17.4395268], [78.4988264, 17.4402755], [78.4988417, 17.4411401], [78.4986901, 17.4418271], [78.4984807, 17.4426284], [78.4984079, 17.4434152], [78.4982064, 17.4437376], [78.4975953, 17.4444074], [78.497553, 17.4444527], [78.4964265, 17.4456572], [78.4962662, 17.4460006], [78.4962197, 17.4463005], [78.4962633, 17.4469871], [78.4964407, 17.4488218]]}}]}