{"type": "FeatureCollection", "features": [{"type": "Feature", "properties": {"ref": "2", "name": "Line 2 \u2014 Vanaz\u2013Ramwadi", "color": "#005DA0", "status": "open", "open_year": 2022}, "geometry": {"type": "LineString", "coordinates": [[73.8859935, 18.5451267], [73.8872915, 18.5453922], [73.8873068, 18.5453253], [73.8860087, 18.5450598], [73.8859935, 18.5451267], [73.8374862, 18.5116326], [73.8384753, 18.5121315], [73.8386679, 18.5122287], [73.8281145, 18.5069602], [73.8282429, 18.5070262], [73.8293401, 18.5075898], [73.821671, 18.5093294], [73.822513, 18.5083605], [73.8134085, 18.5094312], [73.8139352, 18.509487], [73.8144265, 18.5095565], [73.8147443, 18.5096158], [73.8045669, 18.5070801], [73.805885, 18.5072154], [73.9081249, 18.5567271], [73.9080096, 18.5566528], [73.907876, 18.5565648], [73.9076974, 18.5564345], [73.9075091, 18.5562871], [73.9073026, 18.5561094], [73.9068765, 18.5557321], [73.9066736, 18.5555576], [73.9065384, 18.5554294], [73.9064465, 18.5553296], [73.9063552, 18.5552167], [73.9062922, 18.5551157], [73.9062325, 18.554995], [73.9061942, 18.5548819], [73.9061674, 18.5547649], [73.9061473, 18.5546022], [73.9061205, 18.5542144], [73.9060655, 18.5531019], [73.9060427, 18.5526913], [73.906036, 18.5526036], [73.9060186, 18.5524548], [73.9059716, 18.5522209], [73.905918, 18.5519602], [73.9058871, 18.5517708], [73.9057408, 18.5504504], [73.9057315, 18.5502498], [73.9057299, 18.550008], [73.905735, 18.5498298], [73.9057712, 18.5495221], [73.9058611, 18.5490174], [73.9059214, 18.5484592], [73.9059831, 18.5478159], [73.9060542, 18.5465101], [73.9060931, 18.545896], [73.9060743, 18.5455374], [73.9060408, 18.5452348], [73.9060247, 18.5451369], [73.9060099, 18.5450708], [73.905967, 18.5449805], [73.9057122, 18.5444493], [73.9056572, 18.5443346], [73.9053903, 18.5437446], [73.9052763, 18.5435412], [73.9051784, 18.5434102], [73.9050135, 18.5432628], [73.9048177, 18.5430936], [73.9046205, 18.5429957], [73.9045119, 18.5429601], [73.904241, 18.5429017], [73.9040103, 18.5429067], [73.9037435, 18.5429398], [73.903604, 18.5429589], [73.9032164, 18.5430237], [73.9012222, 18.5434115], [73.9006882, 18.5435001], [73.8995431, 18.54369], [73.8993259, 18.5437281], [73.8990241, 18.5437841], [73.8987653, 18.5438527], [73.8982905, 18.5439888], [73.8981524, 18.5440396], [73.8979821, 18.5441096], [73.8972244, 18.5444694], [73.8970299, 18.544533], [73.8967939, 18.5445978], [73.89659, 18.5446309], [73.894801, 18.5448178], [73.8939132, 18.5449093], [73.8928725, 18.5450123], [73.8925935, 18.5450365], [73.8924098, 18.5450593], [73.8922515, 18.5450962], [73.8920691, 18.5451547], [73.8918935, 18.5452297], [73.891758, 18.5452984], [73.8916132, 18.5453976], [73.8914817, 18.5455005], [73.8912122, 18.5457276], [73.8910162, 18.5458902], [73.8908641, 18.5459959], [73.8907298, 18.5460632], [73.890576, 18.5461225], [73.890425, 18.5461615], [73.8903191, 18.5461805], [73.8901756, 18.5461907], [73.8900737, 18.546192], [73.8899704, 18.5461843], [73.8898309, 18.546164], [73.889725, 18.5461348], [73.8895734, 18.5460814], [73.8892596, 18.5459593], [73.8890128, 18.5458779], [73.887267, 18.545424], [73.8866239, 18.5452822], [73.8862169, 18.5451926], [73.8855175, 18.5450549], [73.8853341, 18.5450225], [73.8851839, 18.5449882], [73.8850811, 18.5449455], [73.8849237, 18.5448929], [73.8848044, 18.5448185], [73.8846321, 18.54469], [73.8845158, 18.5445791], [73.8844159, 18.5444466], [73.8843405, 18.5443268], [73.8842647, 18.5441776], [73.8842076, 18.5440247], [73.8841727, 18.5439031], [73.8841555, 18.543799], [73.8841447, 18.5436617], [73.8841418, 18.5435491], [73.8841534, 18.5434444], [73.8842721, 18.5428735], [73.8842908, 18.5427641], [73.8843082, 18.5426534], [73.884319, 18.5425199], [73.8843163, 18.5423865], [73.8843056, 18.5422682], [73.8842859, 18.5421503], [73.8842555, 18.5420026], [73.8842102, 18.5418468], [73.8841588, 18.5417026], [73.8840886, 18.5415648], [73.8839886, 18.5414026], [73.8838877, 18.5412495], [73.8837828, 18.5410814], [73.8834875, 18.5406316], [73.8834544, 18.5405802], [73.8828274, 18.539613], [73.8823493, 18.5388672], [73.880577, 18.5361433], [73.8799171, 18.5351593], [73.8795637, 18.5346739], [73.8790847, 18.5339644], [73.8789367, 18.5337807], [73.878859, 18.533698], [73.8787705, 18.5336141], [73.878542, 18.533408], [73.8784855, 18.5333599], [73.8782509, 18.533135], [73.8777633, 18.5327068], [73.8775926, 18.5325569], [73.8767058, 18.5317886], [73.8761519, 18.5313141], [73.8753065, 18.5305144], [73.8748684, 18.5301286], [73.8747501, 18.5300454], [73.8745311, 18.5299203], [73.874307, 18.5298472], [73.8740957, 18.5298023], [73.8737343, 18.5297791], [73.8729662, 18.5297397], [73.872597, 18.5297234], [73.8714415, 18.5296722], [73.8709222, 18.5296614], [73.8706074, 18.529654], [73.8701905, 18.5296865], [73.8697218, 18.5297441], [73.8693857, 18.5298112], [73.8684778, 18.5300902], [73.8682404, 18.5301358], [73.8680703, 18.5301563], [73.8679369, 18.5301654], [73.8675097, 18.5301648], [73.866884, 18.5301299], [73.866022, 18.5300951], [73.8654446, 18.5300697], [73.8644522, 18.5300274], [73.8639325, 18.5299942], [73.8636234, 18.5299441], [73.8632206, 18.5298519], [73.8627824, 18.5297396], [73.8624879, 18.5296827], [73.8621291, 18.5296354], [73.8617833, 18.5295937], [73.8614516, 18.5295788], [73.8611188, 18.5295804], [73.8606668, 18.5296023], [73.8604974, 18.5295861], [73.8603304, 18.5295551], [73.8601561, 18.5295038], [73.8599901, 18.5294379], [73.8598569, 18.5293605], [73.8597331, 18.5292774], [73.8595669, 18.5291379], [73.8594138, 18.5289892], [73.8593212, 18.5288622], [73.8588754, 18.5282582], [73.8584009, 18.5275905], [73.8581971, 18.5273048], [73.8575569, 18.5264139], [73.8574267, 18.5262403], [73.8572846, 18.5260504], [73.8568922, 18.5254962], [73.8567061, 18.5252629], [73.8564117, 18.5249282], [73.855932, 18.524387], [73.8557977, 18.5242156], [73.855451, 18.5238552], [73.8551557, 18.5236043], [73.8548512, 18.5233944], [73.8546428, 18.523279], [73.8542863, 18.5231156], [73.853912, 18.5229555], [73.8528226, 18.5224972], [73.8526712, 18.5224329], [73.8522879, 18.5222788], [73.8516533, 18.5220139], [73.8511507, 18.5217845], [73.8506469, 18.5216505], [73.8496238, 18.5214298], [73.8491889, 18.5213156], [73.8488996, 18.5211962], [73.8485199, 18.521008], [73.848297, 18.5208759], [73.848156, 18.5207782], [73.848048, 18.5206892], [73.8479414, 18.5205913], [73.8469712, 18.5196592], [73.8468751, 18.5195673], [73.8467296, 18.5194227], [73.8466122, 18.5192891], [73.8462606, 18.5188148], [73.8459805, 18.5184539], [73.845686, 18.5180963], [73.8454387, 18.5177977], [73.844956, 18.5171307], [73.8447238, 18.5167975], [73.844458, 18.5164257], [73.8439648, 18.5157789], [73.8438226, 18.5155969], [73.8435236, 18.5151844], [73.8433065, 18.5148422], [73.8430641, 18.5144841], [73.8428783, 18.5142413], [73.8424604, 18.5138932], [73.8423809, 18.5138432], [73.8420323, 18.5136883], [73.841417, 18.5134545], [73.8407205, 18.5131795], [73.8399533, 18.5128632], [73.8394131, 18.512641], [73.8390635, 18.5124791], [73.8380616, 18.5119737], [73.8368877, 18.5113815], [73.8362402, 18.5110549], [73.8357281, 18.5108118], [73.8353027, 18.5106216], [73.8344889, 18.5102695], [73.8340879, 18.510073], [73.8336946, 18.509866], [73.8293235, 18.5076189], [73.8287889, 18.507341], [73.8280904, 18.5070027], [73.8279361, 18.5069268], [73.8277705, 18.5068625], [73.8275376, 18.5067866], [73.8273134, 18.5067394], [73.8271171, 18.5066794], [73.8269258, 18.506605], [73.8261419, 18.5062282], [73.8259787, 18.5061602], [73.8258152, 18.5061131], [73.8256646, 18.5060866], [73.8254322, 18.5060783], [73.825202, 18.5060985], [73.8249679, 18.5061602], [73.8247265, 18.5062566], [73.8242992, 18.5065208], [73.8240542, 18.5066832], [73.8238812, 18.5068362], [73.8237009, 18.5070389], [73.8234237, 18.5073832], [73.8221254, 18.5088771], [73.8217075, 18.509358], [73.821468, 18.5096192], [73.8212454, 18.5098362], [73.8210438, 18.5100024], [73.8208189, 18.5101468], [73.8205912, 18.5102618], [73.8203647, 18.5103416], [73.8201744, 18.5103934], [73.8199803, 18.5104244], [73.8197197, 18.5104512], [73.8193934, 18.5104466], [73.8185632, 18.5103895], [73.8182306, 18.5103615], [73.8178327, 18.5103188], [73.8174073, 18.5102458], [73.8154844, 18.5098332], [73.814821, 18.5096758], [73.8144185, 18.5096008], [73.8140793, 18.5095528], [73.8139291, 18.5095316], [73.813406, 18.5094862], [73.8122937, 18.5094269], [73.8121779, 18.5094141], [73.8120412, 18.5093868], [73.8119302, 18.5093585], [73.8117871, 18.5093173], [73.811648, 18.5092618], [73.8115368, 18.5092101], [73.811437, 18.5091561], [73.8113475, 18.5091031], [73.8112544, 18.5090331], [73.8108093, 18.5086707], [73.8107272, 18.5086056], [73.8106152, 18.5085302], [73.8105119, 18.5084715], [73.8103921, 18.508412], [73.8102812, 18.5083648], [73.8101757, 18.5083279], [73.8100438, 18.5082928], [73.8098957, 18.5082645], [73.8093909, 18.5082064], [73.8092482, 18.5081817], [73.8090904, 18.5081418], [73.808942, 18.5080906], [73.8088166, 18.5080336], [73.8086949, 18.5079646], [73.8082448, 18.5076625], [73.8081089, 18.5075921], [73.808, 18.507542], [73.8078672, 18.5074928], [73.8077515, 18.5074586], [73.8076326, 18.5074331], [73.8075065, 18.5074128], [73.807015, 18.5073605], [73.8060183, 18.5072544], [73.8052269, 18.5071744]]}}, {"type": "Feature", "properties": {"ref": "1", "name": "Line 1 \u2014 PCMC\u2013Swargate", "color": "#E31837", "status": "open", "open_year": 2022}, "geometry": {"type": "LineString", "coordinates": [[73.8455878, 18.5509058], [73.8459036, 18.5496549], [73.842396, 18.5617198], [73.8418569, 18.5624877], [73.8416575, 18.5627718], [73.8308324, 18.5916594], [73.8313625, 18.5905079], [73.827473, 18.5990207], [73.826949, 18.6001747], [73.8204798, 18.6087692], [73.8196417, 18.6097425], [73.8161332, 18.6139829], [73.8152966, 18.6149573], [73.8036523, 18.6287987], [73.8028239, 18.6297794], [73.8475927, 18.5410308], [73.8476007, 18.5408945], [73.8476141, 18.5406697], [73.8476844, 18.539598], [73.84776, 18.5389457], [73.8480025, 18.5380579], [73.8482788, 18.537088], [73.8486027, 18.5359072], [73.8488479, 18.5349736], [73.8489577, 18.5345458], [73.8491754, 18.5337187], [73.8491988, 18.5336296], [73.8493048, 18.5332609], [73.8496014, 18.5321548], [73.8498515, 18.5312146], [73.8498579, 18.5311907], [73.8500256, 18.5300902], [73.8502676, 18.5295137], [73.8506291, 18.5289965], [73.8510947, 18.5285604], [73.8512156, 18.5284864], [73.8516447, 18.5282241], [73.8522557, 18.5280017], [73.854497, 18.5273867], [73.85495, 18.5272624], [73.8561145, 18.5269429], [73.856888, 18.5267307], [73.8579537, 18.5264553], [73.8583181, 18.5263674], [73.858729, 18.5262682], [73.859407, 18.5260029], [73.8597593, 18.5257608], [73.8601626, 18.5253568], [73.8604289, 18.5247671], [73.8605631, 18.5241383], [73.8605568, 18.5235693], [73.8603921, 18.5229458], [73.8601412, 18.5224247], [73.8598236, 18.521887], [73.8595565, 18.5214219], [73.8593188, 18.5211002], [73.8579443, 18.5187354], [73.8575649, 18.5182009], [73.8572728, 18.5177616], [73.8569858, 18.5173091], [73.8568129, 18.5169219], [73.8566753, 18.51658], [73.8565903, 18.5162259], [73.8565426, 18.5158656], [73.8565327, 18.5155026], [73.8565606, 18.5151404], [73.8566047, 18.5147419], [73.8569526, 18.5129035], [73.8574898, 18.5100645], [73.8575649, 18.5098051], [73.8576776, 18.5095838], [73.8578466, 18.5092964], [73.8579338, 18.5090153], [73.8579726, 18.5087165], [73.8580364, 18.5076154], [73.8580363, 18.5075075], [73.8581121, 18.5033827], [73.8580906, 18.5029605], [73.8580531, 18.5025637], [73.8579404, 18.5020982], [73.8578346, 18.5016481], [73.8575924, 18.500568], [73.8574064, 18.49975], [73.8475927, 18.5410308], [73.8475382, 18.5422224], [73.8474979, 18.5428279], [73.8474697, 18.5433951], [73.8474697, 18.5433951], [73.8474139, 18.5442609], [73.8474139, 18.5442609], [73.8473927, 18.5445999], [73.8473756, 18.5447727], [73.8473756, 18.5447727], [73.8473489, 18.5449417], [73.8473079, 18.5451439], [73.8472616, 18.5453186], [73.8471724, 18.5456052], [73.847086, 18.5458586], [73.846876, 18.5464281], [73.8467314, 18.5467937], [73.8465907, 18.5471926], [73.8464472, 18.5476899], [73.8462373, 18.5485081], [73.8461572, 18.5488273], [73.8460805, 18.54912], [73.8459747, 18.5495278], [73.8459396, 18.5496631], [73.8457857, 18.5502871], [73.8456307, 18.5509155], [73.845491, 18.5514687], [73.8454135, 18.5519273], [73.8453092, 18.5523935], [73.8451109, 18.5532586], [73.8448477, 18.5542374], [73.8446466, 18.5548643], [73.8444674, 18.5552793], [73.8443501, 18.5556457], [73.8442857, 18.5558795], [73.8442577, 18.5560667], [73.8442444, 18.5562316], [73.8442462, 18.5563959], [73.844261, 18.5565722], [73.8442982, 18.5568085], [73.8444038, 18.5575246], [73.8444462, 18.5577932], [73.8444671, 18.5579664], [73.8444715, 18.5581307], [73.8444699, 18.5582554], [73.8444593, 18.5583723], [73.8444401, 18.5584886], [73.8444109, 18.5586156], [73.8443526, 18.5587888], [73.8442873, 18.5589207], [73.8442193, 18.5590391], [73.8441545, 18.5591392], [73.8439558, 18.5593936], [73.8437154, 18.5597019], [73.8435384, 18.5599469], [73.8433866, 18.5601837], [73.8431612, 18.5605918], [73.8429051, 18.5610286], [73.8426931, 18.5613463], [73.8424249, 18.5617379], [73.8424249, 18.5617379], [73.8420645, 18.5622512], [73.8416864, 18.5627898], [73.8416864, 18.5627898], [73.841135, 18.5635634], [73.8405426, 18.5643703], [73.8399647, 18.5651947], [73.8397819, 18.5654492], [73.83964, 18.5656836], [73.8395218, 18.5659042], [73.8393884, 18.566202], [73.8391335, 18.5668708], [73.8389351, 18.5673929], [73.8387617, 18.5678428], [73.8386026, 18.5682639], [73.8385049, 18.5685352], [73.8383046, 18.5690701], [73.8383046, 18.5690701], [73.8378981, 18.5701403], [73.8378529, 18.5702554], [73.8378529, 18.5702554], [73.8374808, 18.5712141], [73.8372751, 18.5717462], [73.83712, 18.5722009], [73.8368048, 18.5730916], [73.8365565, 18.573748], [73.8362827, 18.5745063], [73.8359951, 18.5752862], [73.8356356, 18.5762809], [73.8354564, 18.5767617], [73.8351884, 18.5778132], [73.8349833, 18.5786654], [73.8348455, 18.5792456], [73.8346073, 18.5802449], [73.8342744, 18.5816263], [73.8340396, 18.5825573], [73.8337538, 18.5837325], [73.8335996, 18.5843795], [73.8333879, 18.585229], [73.8330571, 18.5863454], [73.832732, 18.5874026], [73.8326005, 18.5877949], [73.8324404, 18.5882062], [73.8322636, 18.5886114], [73.8315381, 18.5902017], [73.831128, 18.5911009], [73.8306295, 18.5921937], [73.8272445, 18.5996141], [73.826812, 18.6005621], [73.8266142, 18.6009679], [73.8264075, 18.601313], [73.8262037, 18.6016677], [73.8259606, 18.6020678], [73.8257369, 18.6024588], [73.8255416, 18.6027708], [73.8253239, 18.6030776], [73.8250111, 18.6034752], [73.8242437, 18.6044294], [73.8200813, 18.6092941], [73.8189532, 18.6106126], [73.8184656, 18.6112299], [73.8182169, 18.6115563], [73.8180109, 18.611843], [73.8177654, 18.612153], [73.8175119, 18.6124419], [73.8157295, 18.614512], [73.8076685, 18.623874], [73.807465, 18.6241234], [73.8073194, 18.6243312], [73.8072041, 18.6245225], [73.8070919, 18.6247245], [73.8069425, 18.6249512], [73.806791, 18.6251405], [73.8041279, 18.6282931], [73.8032748, 18.629303]]}}]}